{
"type": "FeatureCollection",
"name": "geo_20_認知症対応型共同生活介護",
"crs": { "type": "name", "properties": { "name": "urn:ogc:def:crs:OGC:1.3:CRS84" } },
"features": [
{ "type": "Feature", "properties": { "内容": "グループホームコスモスプラネット篠ノ井【認知症対応型共同生活介護】長野県長野市篠ノ井会619-1", "url": "https://www.kaigokensaku.mhlw.go.jp/20/index.php?action_kouhyou_detail_004_kani=true&JigyosyoCd=2090100294-00&ServiceCd=320&Type=search", "url2": "http://www.cosmosnet.or.jp/" }, "geometry": { "type": "Point", "coordinates": [ 138.150502494612056, 36.571699132347376 ] } },
{ "type": "Feature", "properties": { "内容": "グループホーム稲葉【認知症対応型共同生活介護】長野県長野市大字稲葉1677-1", "url": "https://www.kaigokensaku.mhlw.go.jp/20/index.php?action_kouhyou_detail_004_kani=true&JigyosyoCd=2090100310-00&ServiceCd=320&Type=search", "url2": "http://www.fb-kaigo.co.jp/shisetu/" }, "geometry": { "type": "Point", "coordinates": [ 138.210233, 36.6344804 ] } },
{ "type": "Feature", "properties": { "内容": "グループホームグリーンテラス愛【認知症対応型共同生活介護】長野県長野市小島田町1790", "url": "https://www.kaigokensaku.mhlw.go.jp/20/index.php?action_kouhyou_detail_004_kani=true&JigyosyoCd=2090100401-00&ServiceCd=320&Type=search", "url2": "http://care-net.biz/20/ghgtai/" }, "geometry": { "type": "Point", "coordinates": [ 138.191936199999986, 36.5973697 ] } },
{ "type": "Feature", "properties": { "内容": "愛の家グループホーム長野吉田【認知症対応型共同生活介護】長野県長野市吉田2-33-24-4", "url": "https://www.kaigokensaku.mhlw.go.jp/20/index.php?action_kouhyou_detail_004_kani=true&JigyosyoCd=2090100567-00&ServiceCd=320&Type=search", "url2": "http://www.mcsg.co.jp" }, "geometry": { "type": "Point", "coordinates": [ 138.20773178531951, 36.673858930280993 ] } },
{ "type": "Feature", "properties": { "内容": "愛の家グループホーム長野鶴賀七瀬【認知症対応型共同生活介護】長野県長野市鶴賀333-2", "url": "https://www.kaigokensaku.mhlw.go.jp/20/index.php?action_kouhyou_detail_004_kani=true&JigyosyoCd=2090101086-00&ServiceCd=320&Type=search", "url2": "https://mcs-ainoie.com/search/nagano/naganoshi/gh279/" }, "geometry": { "type": "Point", "coordinates": [ 138.2014427, 36.6416813 ] } },
{ "type": "Feature", "properties": { "内容": "長野医療生活協同組合グループホーム栗田ゆうゆう【認知症対応型共同生活介護】長野県長野市大字栗田１６５番地", "url": "https://www.kaigokensaku.mhlw.go.jp/20/index.php?action_kouhyou_detail_004_kani=true&JigyosyoCd=2090100161-00&ServiceCd=320&Type=search", "url2": "http://www.healthcoop-nagano.or.jp/" }, "geometry": { "type": "Point", "coordinates": [ 138.1924851, 36.6366624 ] } },
{ "type": "Feature", "properties": { "内容": "つくいながのにしおわりべぐるーぷほーむ【認知症対応型共同生活介護】長野県長野市西尾張部1006-3", "url": "https://www.kaigokensaku.mhlw.go.jp/20/index.php?action_kouhyou_detail_004_kani=true&JigyosyoCd=2090101169-00&ServiceCd=320&Type=search", "url2": null }, "geometry": { "type": "Point", "coordinates": [ 138.2269262, 36.6500657 ] } },
{ "type": "Feature", "properties": { "内容": "グループホーム　ウエルフェアあもり【認知症対応型共同生活介護】長野県長野市大字安茂里8407番地8", "url": "https://www.kaigokensaku.mhlw.go.jp/20/index.php?action_kouhyou_detail_004_kani=true&JigyosyoCd=2090100716-00&ServiceCd=320&Type=search", "url2": "http://cosmosnet.or.jp" }, "geometry": { "type": "Point", "coordinates": [ 138.157005300000037, 36.6264819 ] } },
{ "type": "Feature", "properties": { "内容": "愛の家グループホーム長野上松【認知症対応型共同生活介護】長野市上松5丁目1番4号", "url": "https://www.kaigokensaku.mhlw.go.jp/20/index.php?action_kouhyou_detail_004_kani=true&JigyosyoCd=2090100484-00&ServiceCd=320&Type=search", "url2": "http://www.mcsg.co.jp/business/group_home.html" }, "geometry": { "type": "Point", "coordinates": [ 138.199753330688509, 36.677596296160473 ] } },
{ "type": "Feature", "properties": { "内容": "こもれ陽栗田2号館【認知症対応型共同生活介護】長野県長野市栗田字舎利田715番地9こもれ陽栗田2号館", "url": "https://www.kaigokensaku.mhlw.go.jp/20/index.php?action_kouhyou_detail_004_kani=true&JigyosyoCd=2090100724-00&ServiceCd=320&Type=search", "url2": null }, "geometry": { "type": "Point", "coordinates": [ 138.20164685899968, 36.637585135565168 ] } },
{ "type": "Feature", "properties": { "内容": "グループホームコスモス長野【認知症対応型共同生活介護】長野県長野市小島田町字北村沖３７６-２", "url": "https://www.kaigokensaku.mhlw.go.jp/20/index.php?action_kouhyou_detail_004_kani=true&JigyosyoCd=2070101106-00&ServiceCd=320&Type=search", "url2": "http://cosmosnet.or.jp/guide/nyusho/grouphome_nagano.html" }, "geometry": { "type": "Point", "coordinates": [ 138.1846481, 36.5987582 ] } },
{ "type": "Feature", "properties": { "内容": "グループホームコスモスあもり【認知症対応型共同生活介護】長野県長野市安茂里１７９８番地１", "url": "https://www.kaigokensaku.mhlw.go.jp/20/index.php?action_kouhyou_detail_004_kani=true&JigyosyoCd=2090100211-00&ServiceCd=320&Type=search", "url2": "http://www.cosmosnet.or.jp/file/gh_amori.html" }, "geometry": { "type": "Point", "coordinates": [ 138.17241480000007, 36.6356785 ] } },
{ "type": "Feature", "properties": { "内容": "グループホームかえで【認知症対応型共同生活介護】長野県長野市七二会甲１４番１", "url": "https://www.kaigokensaku.mhlw.go.jp/20/index.php?action_kouhyou_detail_004_kani=true&JigyosyoCd=2090100468-00&ServiceCd=320&Type=search", "url2": "http://www.fiore-welfare.jp/" }, "geometry": { "type": "Point", "coordinates": [ 138.070364700000027, 36.6077703 ] } },
{ "type": "Feature", "properties": { "内容": "グループホームすめらぎ【認知症対応型共同生活介護】長野県長野市中条住良木９０６０番地", "url": "https://www.kaigokensaku.mhlw.go.jp/20/index.php?action_kouhyou_detail_004_kani=true&JigyosyoCd=2073400661-00&ServiceCd=320&Type=search", "url2": "https://www.sumeragi.jp/" }, "geometry": { "type": "Point", "coordinates": [ 138.01049, 36.6062656 ] } },
{ "type": "Feature", "properties": { "内容": "愛の家グループホーム豊野【認知症対応型共同生活介護】長野県長野市豊野町豊野797－14", "url": "https://www.kaigokensaku.mhlw.go.jp/20/index.php?action_kouhyou_detail_004_kani=true&JigyosyoCd=2090100450-00&ServiceCd=320&Type=search", "url2": "http://www.mcsg.co.jp" }, "geometry": { "type": "Point", "coordinates": [ 138.2839629, 36.7155806 ] } },
{ "type": "Feature", "properties": { "内容": "グループホームまめじま【認知症対応型共同生活介護】長野県長野市大字大豆島８３３－１", "url": "https://www.kaigokensaku.mhlw.go.jp/20/index.php?action_kouhyou_detail_004_kani=true&JigyosyoCd=2090100237-00&ServiceCd=320&Type=search", "url2": "http://park18.wakwak.com/~n-kaigo-c/" }, "geometry": { "type": "Point", "coordinates": [ 138.229214644180274, 36.626693092882952 ] } },
{ "type": "Feature", "properties": { "内容": "さわやか川中島【認知症対応型共同生活介護】長野県長野市川中島町上氷鉋１３３９-１", "url": "https://www.kaigokensaku.mhlw.go.jp/20/index.php?action_kouhyou_detail_004_kani=true&JigyosyoCd=2090100203-00&ServiceCd=320&Type=search", "url2": "http://www.humanheritage.net./" }, "geometry": { "type": "Point", "coordinates": [ 138.152678299999934, 36.6157942 ] } },
{ "type": "Feature", "properties": { "内容": "グループホーム星のさと【認知症対応型共同生活介護】長野県長野市篠ノ井小松原２３６１", "url": "https://www.kaigokensaku.mhlw.go.jp/20/index.php?action_kouhyou_detail_004_kani=true&JigyosyoCd=2070101684-00&ServiceCd=320&Type=search", "url2": "https://www.mi-suzukai-groups.com" }, "geometry": { "type": "Point", "coordinates": [ 138.1313589, 36.606478 ] } },
{ "type": "Feature", "properties": { "内容": "桜の園グループホーム【認知症対応型共同生活介護】長野県長野市桜新町724番地", "url": "https://www.kaigokensaku.mhlw.go.jp/20/index.php?action_kouhyou_detail_004_kani=true&JigyosyoCd=2090100120-00&ServiceCd=320&Type=search", "url2": "https://sakuranosono.info/" }, "geometry": { "type": "Point", "coordinates": [ 138.229788900000017, 36.6532864 ] } },
{ "type": "Feature", "properties": { "内容": "グループホームながぬま【認知症対応型共同生活介護】長野県長野市大字大町７３５番１", "url": "https://www.kaigokensaku.mhlw.go.jp/20/index.php?action_kouhyou_detail_004_kani=true&JigyosyoCd=2090100195-00&ServiceCd=320&Type=search", "url2": "http://www.home-shinano.com" }, "geometry": { "type": "Point", "coordinates": [ 138.265005, 36.674923377848081 ] } },
{ "type": "Feature", "properties": { "内容": "グループホームまゆ【認知症対応型共同生活介護】長野県長野市鶴賀居町１１５－５", "url": "https://www.kaigokensaku.mhlw.go.jp/20/index.php?action_kouhyou_detail_004_kani=true&JigyosyoCd=2070101346-00&ServiceCd=320&Type=search", "url2": "http://lifecare-mayu.com/" }, "geometry": { "type": "Point", "coordinates": [ 138.200980387696887, 36.647454508223007 ] } },
{ "type": "Feature", "properties": { "内容": "グループホームしなの【認知症対応型共同生活介護】長野県長野市上野２丁目５８９-１", "url": "https://www.kaigokensaku.mhlw.go.jp/20/index.php?action_kouhyou_detail_004_kani=true&JigyosyoCd=2070101767-00&ServiceCd=320&Type=search", "url2": "http://www.home-shinano.com" }, "geometry": { "type": "Point", "coordinates": [ 138.232263264418094, 36.686695683773586 ] } },
{ "type": "Feature", "properties": { "内容": "グループホーム柳島爐【認知症対応型共同生活介護】長野県長野市松代町西寺尾９８６番地１", "url": "https://www.kaigokensaku.mhlw.go.jp/20/index.php?action_kouhyou_detail_004_kani=true&JigyosyoCd=2070102500-00&ServiceCd=320&Type=search", "url2": "http://www.fureaiso.com/" }, "geometry": { "type": "Point", "coordinates": [ 138.196134377909829, 36.576023667771231 ] } },
{ "type": "Feature", "properties": { "内容": "グループホームまゆ篠ノ井【認知症対応型共同生活介護】長野県長野市篠ノ井塩崎４０１５番地グループホームまゆ篠ノ井", "url": "https://www.kaigokensaku.mhlw.go.jp/20/index.php?action_kouhyou_detail_004_kani=true&JigyosyoCd=2090100898-00&ServiceCd=320&Type=search", "url2": "http://lifecare-mayu.com/" }, "geometry": { "type": "Point", "coordinates": [ 138.1157120190353, 36.555821012467987 ] } },
{ "type": "Feature", "properties": { "内容": "グループホームかぐらばし【認知症対応型共同生活介護】長野県長野市神楽橋10番地113", "url": "https://www.kaigokensaku.mhlw.go.jp/20/index.php?action_kouhyou_detail_004_kani=true&JigyosyoCd=2090100393-00&ServiceCd=320&Type=search", "url2": "http://www.kagurabashi－clinic.com" }, "geometry": { "type": "Point", "coordinates": [ 138.210552099999973, 36.6810232 ] } },
{ "type": "Feature", "properties": { "内容": "グループホームあさかわ【認知症対応型共同生活介護】長野県長野市浅川東条３００-２", "url": "https://www.kaigokensaku.mhlw.go.jp/20/index.php?action_kouhyou_detail_004_kani=true&JigyosyoCd=2090100112-00&ServiceCd=320&Type=search", "url2": "https://www.younetwork.co.jp/" }, "geometry": { "type": "Point", "coordinates": [ 138.202742, 36.6817173 ] } },
{ "type": "Feature", "properties": { "内容": "グループホーム太陽【認知症対応型共同生活介護】長野県長野市富竹９３６－１", "url": "https://www.kaigokensaku.mhlw.go.jp/20/index.php?action_kouhyou_detail_004_kani=true&JigyosyoCd=2090100062-00&ServiceCd=320&Type=search", "url2": "taiyo-takada.com" }, "geometry": { "type": "Point", "coordinates": [ 138.25542, 36.675992 ] } },
{ "type": "Feature", "properties": { "内容": "認知症高齢者グループホーム泉平ファミリー【認知症対応型共同生活介護】長野県長野市豊野町豊野2298番地2りんどう棟・しらかば棟", "url": "https://www.kaigokensaku.mhlw.go.jp/20/index.php?action_kouhyou_detail_004_kani=true&JigyosyoCd=2090101136-00&ServiceCd=320&Type=search", "url2": "https://nagano-swc.com/izumidaira/" }, "geometry": { "type": "Point", "coordinates": [ 138.28539316812288, 36.722810514610394 ] } },
{ "type": "Feature", "properties": { "内容": "グループホーム川田の宿【認知症対応型共同生活介護】長野県長野市若穂川田１３５８番１", "url": "https://www.kaigokensaku.mhlw.go.jp/20/index.php?action_kouhyou_detail_004_kani=true&JigyosyoCd=2070102781-00&ServiceCd=320&Type=search", "url2": "https://zenkouji-dw.com/" }, "geometry": { "type": "Point", "coordinates": [ 138.246655599999968, 36.6028884 ] } },
{ "type": "Feature", "properties": { "内容": "グループホームみわ【認知症対応型共同生活介護】長野県長野市三輪２丁目２－３８", "url": "https://www.kaigokensaku.mhlw.go.jp/20/index.php?action_kouhyou_detail_004_kani=true&JigyosyoCd=2090100385-00&ServiceCd=320&Type=search", "url2": "https://younetwork.co.jp/" }, "geometry": { "type": "Point", "coordinates": [ 138.211352199999965, 36.659854 ] } },
{ "type": "Feature", "properties": { "内容": "グループホームよしだ【認知症対応型共同生活介護】長野県長野市吉田3丁目26番14号", "url": "https://www.kaigokensaku.mhlw.go.jp/20/index.php?action_kouhyou_detail_004_kani=true&JigyosyoCd=2090101045-00&ServiceCd=320&Type=search", "url2": null }, "geometry": { "type": "Point", "coordinates": [ 138.2186168, 36.6665154 ] } },
{ "type": "Feature", "properties": { "内容": "グループホームしんこう【認知症対応型共同生活介護】長野県長野市信更町田野口231-1", "url": "https://www.kaigokensaku.mhlw.go.jp/20/index.php?action_kouhyou_detail_004_kani=true&JigyosyoCd=2090100708-00&ServiceCd=320&Type=search", "url2": "http://www.asahi-kouhoku.com/" }, "geometry": { "type": "Point", "coordinates": [ 138.092198726758596, 36.56051026288236 ] } },
{ "type": "Feature", "properties": { "内容": "グループホームコスモスさいなみ【認知症対応型共同生活介護】長野県長野市小島田町１１４３-３", "url": "https://www.kaigokensaku.mhlw.go.jp/20/index.php?action_kouhyou_detail_004_kani=true&JigyosyoCd=2070102948-00&ServiceCd=320&Type=search", "url2": "http://www.cosmosnet.or.jp/file/gh_sa.html" }, "geometry": { "type": "Point", "coordinates": [ 138.180909700000029, 36.5949028 ] } },
{ "type": "Feature", "properties": { "内容": "グループホームまゆ松代【認知症対応型共同生活介護】長野県長野市松代町松代1455-1グループホームまゆ松代", "url": "https://www.kaigokensaku.mhlw.go.jp/20/index.php?action_kouhyou_detail_004_kani=true&JigyosyoCd=2090100906-00&ServiceCd=320&Type=search", "url2": "https://www.lifecare-mayu.com/" }, "geometry": { "type": "Point", "coordinates": [ 138.1985558, 36.5582103 ] } },
{ "type": "Feature", "properties": { "内容": "グループホームさくらんぼ【認知症対応型共同生活介護】長野県長野市川中島町今里字石原1034-1", "url": "https://www.kaigokensaku.mhlw.go.jp/20/index.php?action_kouhyou_detail_004_kani=true&JigyosyoCd=2090101292-00&ServiceCd=320&Type=search", "url2": "https://hakujinkai-nagano.or.jp/" }, "geometry": { "type": "Point", "coordinates": [ 138.1424067, 36.6052023 ] } },
{ "type": "Feature", "properties": { "内容": "グループホームフランセーズ悠よしだ【認知症対応型共同生活介護】長野県長野市吉田4丁目19番2号", "url": "https://www.kaigokensaku.mhlw.go.jp/20/index.php?action_kouhyou_detail_004_kani=true&JigyosyoCd=2090100070-00&ServiceCd=320&Type=search", "url2": "http://www.hakuyukai.com" }, "geometry": { "type": "Point", "coordinates": [ 138.23116959999993, 36.6675006 ] } },
{ "type": "Feature", "properties": { "内容": "グループホーム川中島【認知症対応型共同生活介護】長野市川中島町今井1836-1", "url": "https://www.kaigokensaku.mhlw.go.jp/20/index.php?action_kouhyou_detail_004_kani=true&JigyosyoCd=2090100302-00&ServiceCd=320&Type=search", "url2": "http://www.fb-kaigo.co.jp/shisetu/" }, "geometry": { "type": "Point", "coordinates": [ 138.155515, 36.5948937 ] } },
{ "type": "Feature", "properties": { "内容": "グループホームフランセーズ悠【認知症対応型共同生活介護】長野県長野市柳原２０８０－１１", "url": "https://www.kaigokensaku.mhlw.go.jp/20/index.php?action_kouhyou_detail_004_kani=true&JigyosyoCd=2070101908-00&ServiceCd=320&Type=search", "url2": "http://www.hakuyukai.com" }, "geometry": { "type": "Point", "coordinates": [ 138.26013039999998, 36.6623691 ] } },
{ "type": "Feature", "properties": { "内容": "グループホーム愛ランドまめじま【認知症対応型共同生活介護】長野県長野市大豆島５２８０－１", "url": "https://www.kaigokensaku.mhlw.go.jp/20/index.php?action_kouhyou_detail_004_kani=true&JigyosyoCd=2090100286-00&ServiceCd=320&Type=search", "url2": "http://www.iland-ishida.jp/" }, "geometry": { "type": "Point", "coordinates": [ 138.2348518, 36.6276129 ] } },
{ "type": "Feature", "properties": { "内容": "グループホーム愛ランドわたうち【認知症対応型共同生活介護】長野県長野市若穂綿内8505番地1", "url": "https://www.kaigokensaku.mhlw.go.jp/20/index.php?action_kouhyou_detail_004_kani=true&JigyosyoCd=2090100674-00&ServiceCd=320&Type=search", "url2": "harukaze@iland-jikeikai.jp" }, "geometry": { "type": "Point", "coordinates": [ 138.25589049933626, 36.621658956046602 ] } },
{ "type": "Feature", "properties": { "内容": "グループホーム新諏訪【認知症対応型共同生活介護】長野県長野市新諏訪1丁目10-40", "url": "https://www.kaigokensaku.mhlw.go.jp/20/index.php?action_kouhyou_detail_004_kani=true&JigyosyoCd=2090100765-00&ServiceCd=320&Type=search", "url2": "http://www.fb-kaigo.co.jp/" }, "geometry": { "type": "Point", "coordinates": [ 138.172981400000026, 36.6581668 ] } },
{ "type": "Feature", "properties": { "内容": "グループホーム南長池れんげそう【認知症対応型共同生活介護】長野県長野市南長池831番地1", "url": "https://www.kaigokensaku.mhlw.go.jp/20/index.php?action_kouhyou_detail_004_kani=true&JigyosyoCd=2090100864-00&ServiceCd=320&Type=search", "url2": null }, "geometry": { "type": "Point", "coordinates": [ 138.231107789421941, 36.645120675370279 ] } },
{ "type": "Feature", "properties": { "内容": "鬼無里介護サービスセンターなかよしハウス【認知症対応型共同生活介護】長野県長野市鬼無里日影6711番地1", "url": "https://www.kaigokensaku.mhlw.go.jp/20/index.php?action_kouhyou_detail_004_kani=true&JigyosyoCd=2073400497-00&ServiceCd=320&Type=search", "url2": null }, "geometry": { "type": "Point", "coordinates": [ 137.965214, 36.6851403 ] } },
{ "type": "Feature", "properties": { "内容": "グループホーム　うえまつ【認知症対応型共同生活介護】長野県長野市上松2丁目6-3", "url": "https://www.kaigokensaku.mhlw.go.jp/20/index.php?action_kouhyou_detail_004_kani=true&JigyosyoCd=2090100682-00&ServiceCd=320&Type=search", "url2": "http://socialwelfare-sakae.com/about.html" }, "geometry": { "type": "Point", "coordinates": [ 138.192607299999963, 36.6663106 ] } },
{ "type": "Feature", "properties": { "内容": "グループホームコスモスポールスター【認知症対応型共同生活介護】長野県長野市篠ノ井会614‐1総合ケアセンター", "url": "https://www.kaigokensaku.mhlw.go.jp/20/index.php?action_kouhyou_detail_004_kani=true&JigyosyoCd=2090101102-00&ServiceCd=320&Type=search", "url2": "http://cosmosnet.or.jp" }, "geometry": { "type": "Point", "coordinates": [ 138.151016495690783, 36.570271879164871 ] } },
{ "type": "Feature", "properties": { "内容": "こもれ陽栗田【認知症対応型共同生活介護】長野県長野市栗田732番地1", "url": "https://www.kaigokensaku.mhlw.go.jp/20/index.php?action_kouhyou_detail_004_kani=true&JigyosyoCd=2090100328-00&ServiceCd=320&Type=search", "url2": "http://www.minamifukushi.or.jp/shisetsu/komorebi.html" }, "geometry": { "type": "Point", "coordinates": [ 138.200200799999948, 36.6377849 ] } },
{ "type": "Feature", "properties": { "内容": "グループホーム太陽　まゆみだの家【認知症対応型共同生活介護】長野県長野市檀田２丁目２３－１０", "url": "https://www.kaigokensaku.mhlw.go.jp/20/index.php?action_kouhyou_detail_004_kani=true&JigyosyoCd=2090100500-00&ServiceCd=320&Type=search", "url2": "taiyo-takada.com" }, "geometry": { "type": "Point", "coordinates": [ 138.211874299999977, 36.6750795 ] } },
{ "type": "Feature", "properties": { "内容": "桜グループホーム【認知症対応型共同生活介護】長野県長野市篠ノ井二ツ柳字大当1432-3", "url": "https://www.kaigokensaku.mhlw.go.jp/20/index.php?action_kouhyou_detail_004_kani=true&JigyosyoCd=2070101288-00&ServiceCd=320&Type=search", "url2": "https://hakujinkai-sakurahome.jp/" }, "geometry": { "type": "Point", "coordinates": [ 138.1275073, 36.56750670000001 ] } },
{ "type": "Feature", "properties": { "内容": "ニチイケアセンター松本寿グループホームニチイのほほえみ【認知症対応型共同生活介護】長野県松本市寿北６丁目２９番地１５号", "url": "https://www.kaigokensaku.mhlw.go.jp/20/index.php?action_kouhyou_detail_004_kani=true&JigyosyoCd=2090200169-00&ServiceCd=320&Type=search", "url2": "http://www.nichiigakkan.co.jp" }, "geometry": { "type": "Point", "coordinates": [ 137.974046899999962, 36.1946356 ] } },
{ "type": "Feature", "properties": { "内容": "ニチイケアセンター松本筑摩【認知症対応型共同生活介護】長野県松本市筑摩２丁目３３番２２号", "url": "https://www.kaigokensaku.mhlw.go.jp/20/index.php?action_kouhyou_detail_004_kani=true&JigyosyoCd=2090200177-00&ServiceCd=320&Type=search", "url2": "http://www.nichiigakkan.co.jp" }, "geometry": { "type": "Point", "coordinates": [ 137.983830799999964, 36.2228185 ] } },
{ "type": "Feature", "properties": { "内容": "グループホームおかだ【認知症対応型共同生活介護】長野県松本市岡田下岡田８４-イ", "url": "https://www.kaigokensaku.mhlw.go.jp/20/index.php?action_kouhyou_detail_004_kani=true&JigyosyoCd=2090200151-00&ServiceCd=320&Type=search", "url2": "http://www.heisei-kai.jp/" }, "geometry": { "type": "Point", "coordinates": [ 137.975751899999977, 36.2674759 ] } },
{ "type": "Feature", "properties": { "内容": "グループホームサルビア【認知症対応型共同生活介護】長野県松本市梓川倭３２３４番地１５", "url": "https://www.kaigokensaku.mhlw.go.jp/20/index.php?action_kouhyou_detail_004_kani=true&JigyosyoCd=2072800549-00&ServiceCd=320&Type=search", "url2": "http://www.salvia.nagano.jp" }, "geometry": { "type": "Point", "coordinates": [ 137.912066699999968, 36.2428353 ] } },
{ "type": "Feature", "properties": { "内容": "グループホームりんごの樹【認知症対応型共同生活介護】長野県松本市石芝３丁目９番５-３号「グループホームりんごの樹」", "url": "https://www.kaigokensaku.mhlw.go.jp/20/index.php?action_kouhyou_detail_004_kani=true&JigyosyoCd=2070201427-00&ServiceCd=320&Type=search", "url2": null }, "geometry": { "type": "Point", "coordinates": [ 137.949307, 36.2042503 ] } },
{ "type": "Feature", "properties": { "内容": "グループホーム岡田松岡【認知症対応型共同生活介護】長野県松本市岡田松岡333-1", "url": "https://www.kaigokensaku.mhlw.go.jp/20/index.php?action_kouhyou_detail_004_kani=true&JigyosyoCd=2090200326-00&ServiceCd=320&Type=search", "url2": "http://www.fb-kaigo.co.jp" }, "geometry": { "type": "Point", "coordinates": [ 137.972416299999963, 36.2621876 ] } },
{ "type": "Feature", "properties": { "内容": "グループホームひだまりの里ささが【認知症対応型共同生活介護】長野県松本市笹賀２５１７－３", "url": "https://www.kaigokensaku.mhlw.go.jp/20/index.php?action_kouhyou_detail_004_kani=true&JigyosyoCd=2070200817-00&ServiceCd=320&Type=search", "url2": "https://www.vacre.world/" }, "geometry": { "type": "Point", "coordinates": [ 137.932095200000049, 36.1692318 ] } },
{ "type": "Feature", "properties": { "内容": "グループホームハーモニー【認知症対応型共同生活介護】長野県松本市大字島内字広田４０６８番地１", "url": "https://www.kaigokensaku.mhlw.go.jp/20/index.php?action_kouhyou_detail_004_kani=true&JigyosyoCd=2070201377-00&ServiceCd=320&Type=search", "url2": "http://www.harmony-matsumoto.or.jp" }, "geometry": { "type": "Point", "coordinates": [ 137.94415570000001, 36.2482245 ] } },
{ "type": "Feature", "properties": { "内容": "グループホームあずさ小町【認知症対応型共同生活介護】長野県松本市梓川梓２３４４－１", "url": "https://www.kaigokensaku.mhlw.go.jp/20/index.php?action_kouhyou_detail_004_kani=true&JigyosyoCd=2070201542-00&ServiceCd=320&Type=search", "url2": "http://www.azusa-clinic.jp/cgi-bin/azusagawa/siteup.cgi?category=2&page=1" }, "geometry": { "type": "Point", "coordinates": [ 137.866665499999954, 36.2221614 ] } },
{ "type": "Feature", "properties": { "内容": "認知症対応型共同生活介護グループホームなごみ【認知症対応型共同生活介護】長野県松本市寿北5-34-23", "url": "https://www.kaigokensaku.mhlw.go.jp/20/index.php?action_kouhyou_detail_004_kani=true&JigyosyoCd=2070200924-00&ServiceCd=320&Type=search", "url2": "http://www.heisei-kai.jp/group/nagomi/service.html" }, "geometry": { "type": "Point", "coordinates": [ 137.984145799999965, 36.1998408 ] } },
{ "type": "Feature", "properties": { "内容": "グループホームハーモニー笹部【認知症対応型共同生活介護】長野県松本市笹部２丁目６番５４-２号", "url": "https://www.kaigokensaku.mhlw.go.jp/20/index.php?action_kouhyou_detail_004_kani=true&JigyosyoCd=2090200185-00&ServiceCd=320&Type=search", "url2": "https://harmony-matsumoto.or.jp/" }, "geometry": { "type": "Point", "coordinates": [ 137.951682106745949, 36.214181437074807 ] } },
{ "type": "Feature", "properties": { "内容": "ほっとハウスしまうちの家【認知症対応型共同生活介護】長野県松本市島内5278-1", "url": "https://www.kaigokensaku.mhlw.go.jp/20/index.php?action_kouhyou_detail_004_kani=true&JigyosyoCd=2090200433-00&ServiceCd=320&Type=search", "url2": "http://kita-alps.org/" }, "geometry": { "type": "Point", "coordinates": [ 137.9376294, 36.2460057 ] } },
{ "type": "Feature", "properties": { "内容": "ゆめの里入山辺【認知症対応型共同生活介護】長野県松本市入山辺1453-2ゆめの里入山辺", "url": "https://www.kaigokensaku.mhlw.go.jp/20/index.php?action_kouhyou_detail_004_kani=true&JigyosyoCd=2090200292-00&ServiceCd=320&Type=search", "url2": "http//yumenosato.info" }, "geometry": { "type": "Point", "coordinates": [ 138.024775520823709, 36.228914335782797 ] } },
{ "type": "Feature", "properties": { "内容": "グループホーム波田の家【認知症対応型共同生活介護】長野県松本市波田下原９４６５－１", "url": "https://www.kaigokensaku.mhlw.go.jp/20/index.php?action_kouhyou_detail_004_kani=true&JigyosyoCd=2072700632-00&ServiceCd=320&Type=search", "url2": "www.hatanoie.com/" }, "geometry": { "type": "Point", "coordinates": [ 137.885340703566044, 36.192679777564727 ] } },
{ "type": "Feature", "properties": { "内容": "ツクイ松本西グループホーム【認知症対応型共同生活介護】長野県松本市笹賀５５１４－６", "url": "https://www.kaigokensaku.mhlw.go.jp/20/index.php?action_kouhyou_detail_004_kani=true&JigyosyoCd=2070201039-00&ServiceCd=320&Type=search", "url2": "http://www.tsukui.net/search/detail.php?officeid=259" }, "geometry": { "type": "Point", "coordinates": [ 137.939632800000027, 36.1974259 ] } },
{ "type": "Feature", "properties": { "内容": "グループホームエフビー波田【認知症対応型共同生活介護】長野県松本市波田5421-1", "url": "https://www.kaigokensaku.mhlw.go.jp/20/index.php?action_kouhyou_detail_004_kani=true&JigyosyoCd=2090200235-00&ServiceCd=320&Type=search", "url2": "http://www.fb-kaigo.co.jp/" }, "geometry": { "type": "Point", "coordinates": [ 137.859174569293032, 36.203261374635744 ] } },
{ "type": "Feature", "properties": { "内容": "グループホームローズガーデン【認知症対応型共同生活介護】長野県松本市中山７４９７", "url": "https://www.kaigokensaku.mhlw.go.jp/20/index.php?action_kouhyou_detail_004_kani=true&JigyosyoCd=2070200411-00&ServiceCd=320&Type=search", "url2": "http://www.rosegarden-s.com/" }, "geometry": { "type": "Point", "coordinates": [ 138.0061141, 36.1712305 ] } },
{ "type": "Feature", "properties": { "内容": "特定非営利活動法人峠茶屋グループホームすみか【認知症対応型共同生活介護】長野県松本市反町７０７－１", "url": "https://www.kaigokensaku.mhlw.go.jp/20/index.php?action_kouhyou_detail_004_kani=true&JigyosyoCd=2090200078-00&ServiceCd=320&Type=search", "url2": "touge.or.jp" }, "geometry": { "type": "Point", "coordinates": [ 137.992379, 36.3271644 ] } },
{ "type": "Feature", "properties": { "内容": "グループホームやすら木の家【認知症対応型共同生活介護】長野県松本市島立2225-1", "url": "https://www.kaigokensaku.mhlw.go.jp/20/index.php?action_kouhyou_detail_004_kani=true&JigyosyoCd=2070201054-00&ServiceCd=320&Type=search", "url2": "http://yasuragino-ie.jimdo.com/" }, "geometry": { "type": "Point", "coordinates": [ 137.937517899999989, 36.2344288 ] } },
{ "type": "Feature", "properties": { "内容": "グループホーム稲穂【認知症対応型共同生活介護】長野県松本市梓川梓２５７８―３", "url": "https://www.kaigokensaku.mhlw.go.jp/20/index.php?action_kouhyou_detail_004_kani=true&JigyosyoCd=2070201385-00&ServiceCd=320&Type=search", "url2": "https://youkikaiazusa.com" }, "geometry": { "type": "Point", "coordinates": [ 137.860890899999958, 36.2223751 ] } },
{ "type": "Feature", "properties": { "内容": "グループホームサンライズ里山辺【認知症対応型共同生活介護】長野県松本市里山辺風上がり494-3", "url": "https://www.kaigokensaku.mhlw.go.jp/20/index.php?action_kouhyou_detail_004_kani=true&JigyosyoCd=2090200318-00&ServiceCd=320&Type=search", "url2": "http://hot-h.net/" }, "geometry": { "type": "Point", "coordinates": [ 138.002974333646961, 36.245151018830789 ] } },
{ "type": "Feature", "properties": { "内容": "グループホームつばさ【認知症対応型共同生活介護】長野県上田市御嶽堂316－1", "url": "https://www.kaigokensaku.mhlw.go.jp/20/index.php?action_kouhyou_detail_004_kani=true&JigyosyoCd=2090300167-00&ServiceCd=320&Type=search", "url2": "www.miyama-bm.com" }, "geometry": { "type": "Point", "coordinates": [ 138.265673800000059, 36.3334729 ] } },
{ "type": "Feature", "properties": { "内容": "ほほ笑みホーム大屋【認知症対応型共同生活介護】長野県上田市大屋248-1", "url": "https://www.kaigokensaku.mhlw.go.jp/20/index.php?action_kouhyou_detail_004_kani=true&JigyosyoCd=2090300431-00&ServiceCd=320&Type=search", "url2": "http://hohoemikaigo.com/" }, "geometry": { "type": "Point", "coordinates": [ 138.295867, 36.369321 ] } },
{ "type": "Feature", "properties": { "内容": "ほほ笑みホーム川西【認知症対応型共同生活介護】長野県上田市小泉819-1", "url": "https://www.kaigokensaku.mhlw.go.jp/20/index.php?action_kouhyou_detail_004_kani=true&JigyosyoCd=2090300571-00&ServiceCd=320&Type=search", "url2": "http://hohoemikaigo/com" }, "geometry": { "type": "Point", "coordinates": [ 138.186336399999988, 36.3843899 ] } },
{ "type": "Feature", "properties": { "内容": "グループホームエフビー御嶽堂【認知症対応型共同生活介護】長野県上田市御嶽堂316-1", "url": "https://www.kaigokensaku.mhlw.go.jp/20/index.php?action_kouhyou_detail_004_kani=true&JigyosyoCd=2090300621-00&ServiceCd=320&Type=search", "url2": null }, "geometry": { "type": "Point", "coordinates": [ 138.26562340000001, 36.333442 ] } },
{ "type": "Feature", "properties": { "内容": "ニチイケアセンター中塩田【認知症対応型共同生活介護】長野県上田市本郷820-1", "url": "https://www.kaigokensaku.mhlw.go.jp/20/index.php?action_kouhyou_detail_004_kani=true&JigyosyoCd=2090300282-00&ServiceCd=320&Type=search", "url2": "http://www.nichiigakkan.co.jp/" }, "geometry": { "type": "Point", "coordinates": [ 138.199398, 36.3596488 ] } },
{ "type": "Feature", "properties": { "内容": "ニチイケアセンター上田緑が丘【認知症対応型共同生活介護】長野県上田市緑が丘3-21-12", "url": "https://www.kaigokensaku.mhlw.go.jp/20/index.php?action_kouhyou_detail_004_kani=true&JigyosyoCd=2090300233-00&ServiceCd=320&Type=search", "url2": "WWW.nichiiweb.jp" }, "geometry": { "type": "Point", "coordinates": [ 135.484176199999979, 34.8096904 ] } },
{ "type": "Feature", "properties": { "内容": "認知症対応型共同生活介護施設　アルテミス【認知症対応型共同生活介護】長野県上田市中央東4-61", "url": "https://www.kaigokensaku.mhlw.go.jp/20/index.php?action_kouhyou_detail_004_kani=true&JigyosyoCd=2090300332-00&ServiceCd=320&Type=search", "url2": "http://tikumaso.jp" }, "geometry": { "type": "Point", "coordinates": [ 138.26726229999997, 36.4026448 ] } },
{ "type": "Feature", "properties": { "内容": "地域密着型認知症高齢者グループホーム上田大手門【認知症対応型共同生活介護】長野県上田市中央2-3-8", "url": "https://www.kaigokensaku.mhlw.go.jp/20/index.php?action_kouhyou_detail_004_kani=true&JigyosyoCd=2090300191-00&ServiceCd=320&Type=search", "url2": "http://taishikai.or.jp/kaigo/sub10.html" }, "geometry": { "type": "Point", "coordinates": [ 138.252116399999977, 36.4016255 ] } },
{ "type": "Feature", "properties": { "内容": "医療法人健救会グループホーム北大手【認知症対応型共同生活介護】長野県上田市中央西１-２-１０", "url": "https://www.kaigokensaku.mhlw.go.jp/20/index.php?action_kouhyou_detail_004_kani=true&JigyosyoCd=2070300401-00&ServiceCd=320&Type=search", "url2": null }, "geometry": { "type": "Point", "coordinates": [ 138.248274700000024, 36.4053001 ] } },
{ "type": "Feature", "properties": { "内容": "上田病院赤松の家【認知症対応型共同生活介護】長野県上田市中央1-3-3", "url": "https://www.kaigokensaku.mhlw.go.jp/20/index.php?action_kouhyou_detail_004_kani=true&JigyosyoCd=2070300542-00&ServiceCd=320&Type=search", "url2": "http://www.ueda-hp.or.jp/section7.html" }, "geometry": { "type": "Point", "coordinates": [ 138.251572200000027, 36.3984869 ] } },
{ "type": "Feature", "properties": { "内容": "下原グループホーム【認知症対応型共同生活介護】長野県上田市真田町本原668-1", "url": "https://www.kaigokensaku.mhlw.go.jp/20/index.php?action_kouhyou_detail_004_kani=true&JigyosyoCd=2072200435-00&ServiceCd=320&Type=search", "url2": "http://www.azarean.jp" }, "geometry": { "type": "Point", "coordinates": [ 138.3017721, 36.4186183 ] } },
{ "type": "Feature", "properties": { "内容": "萩・曲尾グループホーム【認知症対応型共同生活介護】長野県上田市真田町傍陽６１８５－２", "url": "https://www.kaigokensaku.mhlw.go.jp/20/index.php?action_kouhyou_detail_004_kani=true&JigyosyoCd=2072200369-00&ServiceCd=320&Type=search", "url2": "http://www.azarean.jp" }, "geometry": { "type": "Point", "coordinates": [ 138.2948573, 36.4503452 ] } },
{ "type": "Feature", "properties": { "内容": "真田グループホーム【認知症対応型共同生活介護】長野県上田市真田町長４２０５－２", "url": "https://www.kaigokensaku.mhlw.go.jp/20/index.php?action_kouhyou_detail_004_kani=true&JigyosyoCd=2072200500-00&ServiceCd=320&Type=search", "url2": "https://www.azarean.jp/" }, "geometry": { "type": "Point", "coordinates": [ 138.2999572, 36.438041 ] } },
{ "type": "Feature", "properties": { "内容": "菅平グループホーム【認知症対応型共同生活介護】長野県上田市菅平高原１２６０－１６", "url": "https://www.kaigokensaku.mhlw.go.jp/20/index.php?action_kouhyou_detail_004_kani=true&JigyosyoCd=2090300068-00&ServiceCd=320&Type=search", "url2": "http://www.azarean.jp" }, "geometry": { "type": "Point", "coordinates": [ 138.337462, 36.5244804 ] } },
{ "type": "Feature", "properties": { "内容": "グループホームうえだはら敬老園【認知症対応型共同生活介護】長野県上田市上田原1068番地", "url": "https://www.kaigokensaku.mhlw.go.jp/20/index.php?action_kouhyou_detail_004_kani=true&JigyosyoCd=2070300450-00&ServiceCd=320&Type=search", "url2": "http://www.keiroen.or.jp" }, "geometry": { "type": "Point", "coordinates": [ 138.228538299999968, 36.3889794 ] } },
{ "type": "Feature", "properties": { "内容": "グループホーム塩田【認知症対応型共同生活介護】長野県上田市中野29番地2", "url": "https://www.kaigokensaku.mhlw.go.jp/20/index.php?action_kouhyou_detail_004_kani=true&JigyosyoCd=2070300310-00&ServiceCd=320&Type=search", "url2": "http://shioda-hp.jp/" }, "geometry": { "type": "Point", "coordinates": [ 138.197998, 36.3603737 ] } },
{ "type": "Feature", "properties": { "内容": "グループホームかわべちょう敬老園【認知症対応型共同生活介護】長野県上田市上田原字二ノ口８５４－２", "url": "https://www.kaigokensaku.mhlw.go.jp/20/index.php?action_kouhyou_detail_004_kani=true&JigyosyoCd=2090300266-00&ServiceCd=320&Type=search", "url2": "ｗｗｗ．ｋｅｉｒｏｅｎ．ｏｒ．ｊｐ" }, "geometry": { "type": "Point", "coordinates": [ 138.221280699999966, 36.3871795 ] } },
{ "type": "Feature", "properties": { "内容": "グループホーム諏訪形【認知症対応型共同生活介護】長野県上田市諏訪形１６９４－４", "url": "https://www.kaigokensaku.mhlw.go.jp/20/index.php?action_kouhyou_detail_004_kani=true&JigyosyoCd=2090300092-00&ServiceCd=320&Type=search", "url2": "http://www.carehouse-sakudaira.com/" }, "geometry": { "type": "Point", "coordinates": [ 138.241571, 36.3843992 ] } },
{ "type": "Feature", "properties": { "内容": "グループホームにしうち敬老園【認知症対応型共同生活介護】長野県上田市西内８００番地", "url": "https://www.kaigokensaku.mhlw.go.jp/20/index.php?action_kouhyou_detail_004_kani=true&JigyosyoCd=2072200401-00&ServiceCd=320&Type=search", "url2": "http://www.keiroen.or.jp" }, "geometry": { "type": "Point", "coordinates": [ 138.1502683, 36.3030574 ] } },
{ "type": "Feature", "properties": { "内容": "グループホーム沖【認知症対応型共同生活介護】長野県上田市武石沖２５１－２", "url": "https://www.kaigokensaku.mhlw.go.jp/20/index.php?action_kouhyou_detail_004_kani=true&JigyosyoCd=2090300290-00&ServiceCd=320&Type=search", "url2": null }, "geometry": { "type": "Point", "coordinates": [ 138.252245799999969, 36.29645750000001 ] } },
{ "type": "Feature", "properties": { "内容": "ローマンうえだグループホーム豊里【認知症対応型共同生活介護】長野県上田市芳田１８７１番地", "url": "https://www.kaigokensaku.mhlw.go.jp/20/index.php?action_kouhyou_detail_004_kani=true&JigyosyoCd=2090300043-00&ServiceCd=320&Type=search", "url2": "http://www.ja-naganokai.or.jp/" }, "geometry": { "type": "Point", "coordinates": [ 138.293664, 36.378823 ] } },
{ "type": "Feature", "properties": { "内容": "グループホーム材木町みどり【認知症対応型共同生活介護】長野県上田市材木町2-4-19", "url": "https://www.kaigokensaku.mhlw.go.jp/20/index.php?action_kouhyou_detail_004_kani=true&JigyosyoCd=2090300589-00&ServiceCd=320&Type=search", "url2": "http://www.ryokufuukai.or.jp/" }, "geometry": { "type": "Point", "coordinates": [ 138.264783200000011, 36.3995782 ] } },
{ "type": "Feature", "properties": { "内容": "グループホーム古里【認知症対応型共同生活介護】長野県上田市上野56-19", "url": "https://www.kaigokensaku.mhlw.go.jp/20/index.php?action_kouhyou_detail_004_kani=true&JigyosyoCd=2090300597-00&ServiceCd=320&Type=search", "url2": "http://www.fb-kaigo.co.jp/" }, "geometry": { "type": "Point", "coordinates": [ 139.7741538, 35.7087296 ] } },
{ "type": "Feature", "properties": { "内容": "グループホーム風薫【認知症対応型共同生活介護】長野県岡谷市南宮三丁目3-33", "url": "https://www.kaigokensaku.mhlw.go.jp/20/index.php?action_kouhyou_detail_004_kani=true&JigyosyoCd=2090400033-00&ServiceCd=320&Type=search", "url2": "http://www.heisei-kai.jp/sisetu/gh_fuka.htm" }, "geometry": { "type": "Point", "coordinates": [ 138.065785399999982, 36.0582047 ] } },
{ "type": "Feature", "properties": { "内容": "グループホームさわらび【認知症対応型共同生活介護】長野県岡谷市西山1723-101", "url": "https://www.kaigokensaku.mhlw.go.jp/20/index.php?action_kouhyou_detail_004_kani=true&JigyosyoCd=2070400342-00&ServiceCd=320&Type=search", "url2": "http://www.heisei-kai.jp/" }, "geometry": { "type": "Point", "coordinates": [ 138.034207396403531, 36.079907151573344 ] } },
{ "type": "Feature", "properties": { "内容": "愛の家グループホーム岡谷幸町【認知症対応型共同生活介護】長野県岡谷市幸町6-24-1", "url": "https://www.kaigokensaku.mhlw.go.jp/20/index.php?action_kouhyou_detail_004_kani=true&JigyosyoCd=2090400058-00&ServiceCd=320&Type=search", "url2": "http://www.mcsg.co.jp/business/group_home.html" }, "geometry": { "type": "Point", "coordinates": [ 138.050331, 36.0655367 ] } },
{ "type": "Feature", "properties": { "内容": "グループホームほほえみ絹の郷【認知症対応型共同生活介護】長野県岡谷市郷田2丁目1番51号", "url": "https://www.kaigokensaku.mhlw.go.jp/20/index.php?action_kouhyou_detail_004_kani=true&JigyosyoCd=2090400231-00&ServiceCd=320&Type=search", "url2": "http://www.kinu-sato.jp/" }, "geometry": { "type": "Point", "coordinates": [ 138.049042899999989, 36.0728289 ] } },
{ "type": "Feature", "properties": { "内容": "グループホームグレイスフル岡谷【認知症対応型共同生活介護】長野県岡谷市湖畔２－６－２", "url": "https://www.kaigokensaku.mhlw.go.jp/20/index.php?action_kouhyou_detail_004_kani=true&JigyosyoCd=2070400193-00&ServiceCd=320&Type=search", "url2": "http://www.e-sunlife.or.jp/service/nagano02/index.html" }, "geometry": { "type": "Point", "coordinates": [ 138.055489099999932, 36.057785 ] } },
{ "type": "Feature", "properties": { "内容": "グループホーム高尾【認知症対応型共同生活介護】長野県岡谷市川岸上４－３－４", "url": "https://www.kaigokensaku.mhlw.go.jp/20/index.php?action_kouhyou_detail_004_kani=true&JigyosyoCd=2070400359-00&ServiceCd=320&Type=search", "url2": "http://www.lcv.ne.jp/~ghtakao/" }, "geometry": { "type": "Point", "coordinates": [ 138.0236754, 36.0543682 ] } },
{ "type": "Feature", "properties": { "内容": "ニチイケアセンター川岸夏明【認知症対応型共同生活介護】長野県岡谷市川岸西2-11-3", "url": "https://www.kaigokensaku.mhlw.go.jp/20/index.php?action_kouhyou_detail_004_kani=true&JigyosyoCd=2090400041-00&ServiceCd=320&Type=search", "url2": "https://www.nichii-kaigo.jp/base/base-result/05X90/" }, "geometry": { "type": "Point", "coordinates": [ 138.017482200000018, 36.0299799 ] } },
{ "type": "Feature", "properties": { "内容": "グループホームわだの家【認知症対応型共同生活介護】長野県飯田市南信濃和田５１８－１", "url": "https://www.kaigokensaku.mhlw.go.jp/20/index.php?action_kouhyou_detail_004_kani=true&JigyosyoCd=2072501097-00&ServiceCd=320&Type=search", "url2": null }, "geometry": { "type": "Point", "coordinates": [ 137.92810570000006, 35.3215406 ] } },
{ "type": "Feature", "properties": { "内容": "グループホームこかげ【認知症対応型共同生活介護】長野県飯田市下久堅知久平1715-1", "url": "https://www.kaigokensaku.mhlw.go.jp/20/index.php?action_kouhyou_detail_004_kani=true&JigyosyoCd=2070500968-00&ServiceCd=320&Type=search", "url2": null }, "geometry": { "type": "Point", "coordinates": [ 137.849101099999984, 35.480291 ] } },
{ "type": "Feature", "properties": { "内容": "グループホーム陽気【認知症対応型共同生活介護】長野県飯田市鼎下山２７０-１", "url": "https://www.kaigokensaku.mhlw.go.jp/20/index.php?action_kouhyou_detail_004_kani=true&JigyosyoCd=2070500448-00&ServiceCd=320&Type=search", "url2": "https://kokoro191019.wixsite.com/website-1" }, "geometry": { "type": "Point", "coordinates": [ 137.838831699999986, 35.5055266 ] } },
{ "type": "Feature", "properties": { "内容": "グループホームあぐり山本【認知症対応型共同生活介護】長野県飯田市竹佐653-1", "url": "https://www.kaigokensaku.mhlw.go.jp/20/index.php?action_kouhyou_detail_004_kani=true&JigyosyoCd=2090500212-00&ServiceCd=320&Type=search", "url2": "http://www.ja-naganokai.or.jp" }, "geometry": { "type": "Point", "coordinates": [ 137.764038699999986, 35.4712044 ] } },
{ "type": "Feature", "properties": { "内容": "グループホームいこいの里【認知症対応型共同生活介護】長野県飯田市羽場権現１６１１－２", "url": "https://www.kaigokensaku.mhlw.go.jp/20/index.php?action_kouhyou_detail_004_kani=true&JigyosyoCd=2070501057-00&ServiceCd=320&Type=search", "url2": null }, "geometry": { "type": "Point", "coordinates": [ 137.8033623, 35.519466 ] } },
{ "type": "Feature", "properties": { "内容": "飯田ケアハートガーデン　グループホーム北方の郷【認知症対応型共同生活介護】長野県飯田市北方1558番地", "url": "https://www.kaigokensaku.mhlw.go.jp/20/index.php?action_kouhyou_detail_004_kani=true&JigyosyoCd=2090500519-00&ServiceCd=320&Type=search", "url2": "https://www.careheart-garden.com/" }, "geometry": { "type": "Point", "coordinates": [ 137.798313, 35.5094338 ] } },
{ "type": "Feature", "properties": { "内容": "グループホームたまゆら【認知症対応型共同生活介護】長野県飯田市北方2613-13", "url": "https://www.kaigokensaku.mhlw.go.jp/20/index.php?action_kouhyou_detail_004_kani=true&JigyosyoCd=2090500147-00&ServiceCd=320&Type=search", "url2": "https://nagano-tamayura.com" }, "geometry": { "type": "Point", "coordinates": [ 137.79084209259031, 35.50421946702707 ] } },
{ "type": "Feature", "properties": { "内容": "グループホームひだまり【認知症対応型共同生活介護】長野県飯田市駄科８４６－１", "url": "https://www.kaigokensaku.mhlw.go.jp/20/index.php?action_kouhyou_detail_004_kani=true&JigyosyoCd=2070500588-00&ServiceCd=320&Type=search", "url2": null }, "geometry": { "type": "Point", "coordinates": [ 137.835650100000066, 35.4748912 ] } },
{ "type": "Feature", "properties": { "内容": "グループホーム笠松の風【認知症対応型共同生活介護】長野県飯田市北方2210-1", "url": "https://www.kaigokensaku.mhlw.go.jp/20/index.php?action_kouhyou_detail_004_kani=true&JigyosyoCd=2090500485-00&ServiceCd=320&Type=search", "url2": "https://ichiyokai-iida.jp/pages/14/" }, "geometry": { "type": "Point", "coordinates": [ 137.7960476, 35.5084775 ] } },
{ "type": "Feature", "properties": { "内容": "グループホーム下瀬【認知症対応型共同生活介護】長野県飯田市下瀬247-12090500329", "url": "https://www.kaigokensaku.mhlw.go.jp/20/index.php?action_kouhyou_detail_004_kani=true&JigyosyoCd=2090500329-00&ServiceCd=320&Type=search", "url2": "https://nagano-tamayura.com/" }, "geometry": { "type": "Point", "coordinates": [ 137.803855290737886, 35.425806822007843 ] } },
{ "type": "Feature", "properties": { "内容": "グループホームあやめ【認知症対応型共同生活介護】長野県飯田市川路2682番地", "url": "https://www.kaigokensaku.mhlw.go.jp/20/index.php?action_kouhyou_detail_004_kani=true&JigyosyoCd=2090500238-00&ServiceCd=320&Type=search", "url2": null }, "geometry": { "type": "Point", "coordinates": [ 137.812072, 35.451486 ] } },
{ "type": "Feature", "properties": { "内容": "グループホームあすか【認知症対応型共同生活介護】長野県飯田市座光寺４０２１番地３", "url": "https://www.kaigokensaku.mhlw.go.jp/20/index.php?action_kouhyou_detail_004_kani=true&JigyosyoCd=2090500121-00&ServiceCd=320&Type=search", "url2": null }, "geometry": { "type": "Point", "coordinates": [ 137.8576827, 35.5335913 ] } },
{ "type": "Feature", "properties": { "内容": "グループホーム　こころ【認知症対応型共同生活介護】長野県飯田市松尾上溝６３０１番地１", "url": "https://www.kaigokensaku.mhlw.go.jp/20/index.php?action_kouhyou_detail_004_kani=true&JigyosyoCd=2070501065-00&ServiceCd=320&Type=search", "url2": null }, "geometry": { "type": "Point", "coordinates": [ 137.851522199999977, 35.5044021 ] } },
{ "type": "Feature", "properties": { "内容": "グループホーム　切石【認知症対応型共同生活介護】長野県飯田市鼎切石５１１７－１６", "url": "https://www.kaigokensaku.mhlw.go.jp/20/index.php?action_kouhyou_detail_004_kani=true&JigyosyoCd=2090500295-00&ServiceCd=320&Type=search", "url2": "http://nagano-tamayura.com/" }, "geometry": { "type": "Point", "coordinates": [ 137.79487610000001, 35.5170204 ] } },
{ "type": "Feature", "properties": { "内容": "グループホーム木の葉【認知症対応型共同生活介護】長野県飯田市下瀬247-1", "url": "https://www.kaigokensaku.mhlw.go.jp/20/index.php?action_kouhyou_detail_004_kani=true&JigyosyoCd=2090500550-00&ServiceCd=320&Type=search", "url2": "https://nagano-tamayura.com/" }, "geometry": { "type": "Point", "coordinates": [ 137.803806517196648, 35.425837242569472 ] } },
{ "type": "Feature", "properties": { "内容": "グループホーム大門【認知症対応型共同生活介護】長野県飯田市大門町22番地", "url": "https://www.kaigokensaku.mhlw.go.jp/20/index.php?action_kouhyou_detail_004_kani=true&JigyosyoCd=2090500105-00&ServiceCd=320&Type=search", "url2": null }, "geometry": { "type": "Point", "coordinates": [ 137.828698199999963, 35.5235352 ] } },
{ "type": "Feature", "properties": { "内容": "グループホームみつばさの丘【認知症対応型共同生活介護】長野県飯田市龍江4140", "url": "https://www.kaigokensaku.mhlw.go.jp/20/index.php?action_kouhyou_detail_004_kani=true&JigyosyoCd=2090500253-00&ServiceCd=320&Type=search", "url2": null }, "geometry": { "type": "Point", "coordinates": [ 137.8232648, 35.4445391 ] } },
{ "type": "Feature", "properties": { "内容": "グループホームみつばさ【認知症対応型共同生活介護】長野県飯田市龍江4510-1", "url": "https://www.kaigokensaku.mhlw.go.jp/20/index.php?action_kouhyou_detail_004_kani=true&JigyosyoCd=2090500162-00&ServiceCd=320&Type=search", "url2": null }, "geometry": { "type": "Point", "coordinates": [ 137.828121499999952, 35.445789 ] } },
{ "type": "Feature", "properties": { "内容": "グループホームとよだ【認知症対応型共同生活介護】長野県諏訪市豊田１０１-1", "url": "https://www.kaigokensaku.mhlw.go.jp/20/index.php?action_kouhyou_detail_004_kani=true&JigyosyoCd=2090600061-00&ServiceCd=320&Type=search", "url2": "https://www.toyodanomori.jp" }, "geometry": { "type": "Point", "coordinates": [ 138.107396800000032, 36.0219909 ] } },
{ "type": "Feature", "properties": { "内容": "こころのひろばグループホーム【認知症対応型共同生活介護】長野県諏訪市高島一丁目２１番１４号", "url": "https://www.kaigokensaku.mhlw.go.jp/20/index.php?action_kouhyou_detail_004_kani=true&JigyosyoCd=2090600095-00&ServiceCd=320&Type=search", "url2": "http://www.kokoro5560.or.jp" }, "geometry": { "type": "Point", "coordinates": [ 138.114628530688464, 36.040036936200657 ] } },
{ "type": "Feature", "properties": { "内容": "かりんの里複合福祉施設グループホームかりん【認知症対応型共同生活介護】長野県諏訪市高島１-１-１１", "url": "https://www.kaigokensaku.mhlw.go.jp/20/index.php?action_kouhyou_detail_004_kani=true&JigyosyoCd=2090600012-00&ServiceCd=320&Type=search", "url2": "http://suwafukushi.com" }, "geometry": { "type": "Point", "coordinates": [ 138.110829, 36.0417329 ] } },
{ "type": "Feature", "properties": { "内容": "医療法人こまくさ会こまくさの森【認知症対応型共同生活介護】長野県諏訪市中洲豆田5924", "url": "https://www.kaigokensaku.mhlw.go.jp/20/index.php?action_kouhyou_detail_004_kani=true&JigyosyoCd=2070600115-00&ServiceCd=320&Type=search", "url2": "http://www.lcv.ne.jp/~komakusa/" }, "geometry": { "type": "Point", "coordinates": [ 138.118095600000061, 36.0238132 ] } },
{ "type": "Feature", "properties": { "内容": "ニチイケアセンター四賀【認知症対応型共同生活介護】長野県諏訪市大字四賀１９６５番１", "url": "https://www.kaigokensaku.mhlw.go.jp/20/index.php?action_kouhyou_detail_004_kani=true&JigyosyoCd=2090600046-00&ServiceCd=320&Type=search", "url2": "http://sp.chizumaru.com/dbh/nichii/detailmap.aspx?account=nichii&accmd=0&bid=0362205X80&scl=1000&clk=2" }, "geometry": { "type": "Point", "coordinates": [ 138.127871700920821, 36.020018823979754 ] } },
{ "type": "Feature", "properties": { "内容": "愛の家グループホーム諏訪湖南【認知症対応型共同生活介護】長野県諏訪市湖南3909-1", "url": "https://www.kaigokensaku.mhlw.go.jp/20/index.php?action_kouhyou_detail_004_kani=true&JigyosyoCd=2090600269-00&ServiceCd=320&Type=search", "url2": "https://mcs-ainoie.com/search/nagano/suwashi/gh314/" }, "geometry": { "type": "Point", "coordinates": [ 138.1033921, 36.009153 ] } },
{ "type": "Feature", "properties": { "内容": "グループホーム諏訪沖田【認知症対応型共同生活介護】長野県諏訪市沖田町一丁目141-3", "url": "https://www.kaigokensaku.mhlw.go.jp/20/index.php?action_kouhyou_detail_004_kani=true&JigyosyoCd=2090600244-00&ServiceCd=320&Type=search", "url2": "http://fb-kaigo.co.jp" }, "geometry": { "type": "Point", "coordinates": [ 138.133721271163978, 36.008639218290689 ] } },
{ "type": "Feature", "properties": { "内容": "グループホームサン・オアシス【認知症対応型共同生活介護】長野県須坂市大字小河原１５６４－１", "url": "https://www.kaigokensaku.mhlw.go.jp/20/index.php?action_kouhyou_detail_004_kani=true&JigyosyoCd=2070700246-00&ServiceCd=320&Type=search", "url2": "https://www.npo-oasis.net/" }, "geometry": { "type": "Point", "coordinates": [ 138.302106099999946, 36.6752721 ] } },
{ "type": "Feature", "properties": { "内容": "グリーンクリスタル【認知症対応型共同生活介護】長野県須坂市大字仁礼７番地１０", "url": "https://www.kaigokensaku.mhlw.go.jp/20/index.php?action_kouhyou_detail_004_kani=true&JigyosyoCd=2070700212-00&ServiceCd=320&Type=search", "url2": "https://www.greenarum.jp" }, "geometry": { "type": "Point", "coordinates": [ 138.338664699999981, 36.6137439 ] } },
{ "type": "Feature", "properties": { "内容": "株式会社ケアネットグループホームすざか【認知症対応型共同生活介護】長野県須坂市大字小山字蒔田２５１８－１", "url": "https://www.kaigokensaku.mhlw.go.jp/20/index.php?action_kouhyou_detail_004_kani=true&JigyosyoCd=2090700010-00&ServiceCd=320&Type=search", "url2": "http://www.carenet.fujitsu.com/web/scdsp.php?scid=32" }, "geometry": { "type": "Point", "coordinates": [ 138.288304201782921, 36.656393075199048 ] } },
{ "type": "Feature", "properties": { "内容": "総合福祉施設須坂やすらぎの園　グループホーム日滝の家【認知症対応型共同生活介護】長野県須坂市大字日滝字寺窪2923-1", "url": "https://www.kaigokensaku.mhlw.go.jp/20/index.php?action_kouhyou_detail_004_kani=true&JigyosyoCd=2090700044-00&ServiceCd=320&Type=search", "url2": "http://suzaka-yasuraginosono.com/index" }, "geometry": { "type": "Point", "coordinates": [ 138.328863948840279, 36.671729077614899 ] } },
{ "type": "Feature", "properties": { "内容": "医療法人公仁会轟グループホーム【認知症対応型共同生活介護】長野県須坂市大字上中町170番地", "url": "https://www.kaigokensaku.mhlw.go.jp/20/index.php?action_kouhyou_detail_004_kani=true&JigyosyoCd=2070700238-00&ServiceCd=320&Type=search", "url2": null }, "geometry": { "type": "Point", "coordinates": [ 138.313091646557609, 36.653853436815041 ] } },
{ "type": "Feature", "properties": { "内容": "グループホームせせらぎ【認知症対応型共同生活介護】長野県小諸市大字加増８５１番地１９", "url": "https://www.kaigokensaku.mhlw.go.jp/20/index.php?action_kouhyou_detail_004_kani=true&JigyosyoCd=2070800269-00&ServiceCd=320&Type=search", "url2": "http://www.h3.dion.ne.jp/~seseragi/" }, "geometry": { "type": "Point", "coordinates": [ 138.447081600000047, 36.3299555 ] } },
{ "type": "Feature", "properties": { "内容": "グループホーム柳橋【認知症対応型共同生活介護】長野県小諸市諸寺内４０７", "url": "https://www.kaigokensaku.mhlw.go.jp/20/index.php?action_kouhyou_detail_004_kani=true&JigyosyoCd=2070800327-00&ServiceCd=320&Type=search", "url2": "http://www.yanagibashi.or.jp/page6.html" }, "geometry": { "type": "Point", "coordinates": [ 138.413366900000028, 36.3401563 ] } },
{ "type": "Feature", "properties": { "内容": "のぞみの家【認知症対応型共同生活介護】長野県小諸市和田840-5", "url": "https://www.kaigokensaku.mhlw.go.jp/20/index.php?action_kouhyou_detail_004_kani=true&JigyosyoCd=2090800117-00&ServiceCd=320&Type=search", "url2": "https://nozomi-g.co.jp/" }, "geometry": { "type": "Point", "coordinates": [ 138.462446300000011, 36.2966668 ] } },
{ "type": "Feature", "properties": { "内容": "グループホームやまびこの家【認知症対応型共同生活介護】長野県小諸市大字柏木１３２６-１", "url": "https://www.kaigokensaku.mhlw.go.jp/20/index.php?action_kouhyou_detail_004_kani=true&JigyosyoCd=2070800293-00&ServiceCd=320&Type=search", "url2": null }, "geometry": { "type": "Point", "coordinates": [ 138.453955899999983, 36.3375021 ] } },
{ "type": "Feature", "properties": { "内容": "グループホームたんぽぽの家【認知症対応型共同生活介護】長野県伊那市美篶4854-1", "url": "https://www.kaigokensaku.mhlw.go.jp/20/index.php?action_kouhyou_detail_004_kani=true&JigyosyoCd=2090900172-00&ServiceCd=320&Type=search", "url2": "tanpopo-iina.con" }, "geometry": { "type": "Point", "coordinates": [ 138.008285699999988, 35.836122 ] } },
{ "type": "Feature", "properties": { "内容": "愛の家グループホーム伊那山寺【認知症対応型共同生活介護】長野県伊那市山寺2640-3", "url": "https://www.kaigokensaku.mhlw.go.jp/20/index.php?action_kouhyou_detail_004_kani=true&JigyosyoCd=2090900081-00&ServiceCd=320&Type=search", "url2": "https://www.mcsg.co.jp/" }, "geometry": { "type": "Point", "coordinates": [ 137.957740100000024, 35.8537885 ] } },
{ "type": "Feature", "properties": { "内容": "ニチイケアセンター柏木【認知症対応型共同生活介護】長野県伊那市境１８４５", "url": "https://www.kaigokensaku.mhlw.go.jp/20/index.php?action_kouhyou_detail_004_kani=true&JigyosyoCd=2090900057-00&ServiceCd=320&Type=search", "url2": "http://www.nichiigakkan.co.jp" }, "geometry": { "type": "Point", "coordinates": [ 137.973542982447839, 35.830623395398703 ] } },
{ "type": "Feature", "properties": { "内容": "グループホームま花【認知症対応型共同生活介護】長野県伊那市西春近3282-173", "url": "https://www.kaigokensaku.mhlw.go.jp/20/index.php?action_kouhyou_detail_004_kani=true&JigyosyoCd=2070900788-00&ServiceCd=320&Type=search", "url2": "http://gururi-hanauta.com/" }, "geometry": { "type": "Point", "coordinates": [ 137.923197, 35.815548 ] } },
{ "type": "Feature", "properties": { "内容": "グループホーム合歓の家【認知症対応型共同生活介護】長野県伊那市荒井３８３５－１", "url": "https://www.kaigokensaku.mhlw.go.jp/20/index.php?action_kouhyou_detail_004_kani=true&JigyosyoCd=2070900168-00&ServiceCd=320&Type=search", "url2": "http://www.e-seizankai.or.jp/" }, "geometry": { "type": "Point", "coordinates": [ 137.943898484655733, 35.848921778470647 ] } },
{ "type": "Feature", "properties": { "内容": "グループホームあおば【認知症対応型共同生活介護】長野県伊那市狐島３８９５", "url": "https://www.kaigokensaku.mhlw.go.jp/20/index.php?action_kouhyou_detail_004_kani=true&JigyosyoCd=2090900115-00&ServiceCd=320&Type=search", "url2": "http://www.kamiina-mcoop.com" }, "geometry": { "type": "Point", "coordinates": [ 137.9632262, 35.8371882 ] } },
{ "type": "Feature", "properties": { "内容": "生協ケアセンター春近なないろの家【認知症対応型共同生活介護】長野県伊那市東春近1486", "url": "https://www.kaigokensaku.mhlw.go.jp/20/index.php?action_kouhyou_detail_004_kani=true&JigyosyoCd=2090900099-00&ServiceCd=320&Type=search", "url2": null }, "geometry": { "type": "Point", "coordinates": [ 137.962474499999985, 35.8063977 ] } },
{ "type": "Feature", "properties": { "内容": "認知症グループホームたのしや駒ヶ根【認知症対応型共同生活介護】長野県駒ヶ根市赤穂4492-1", "url": "https://www.kaigokensaku.mhlw.go.jp/20/index.php?action_kouhyou_detail_004_kani=true&JigyosyoCd=2091000063-00&ServiceCd=320&Type=search", "url2": "http://www.tanoshiya.co.jp/komagane.html" }, "geometry": { "type": "Point", "coordinates": [ 137.92938520000007, 35.7312579 ] } },
{ "type": "Feature", "properties": { "内容": "ヒューマンヘリテージ安源寺【認知症対応型共同生活介護】長野県中野市安源寺字北原９７５番地１", "url": "https://www.kaigokensaku.mhlw.go.jp/20/index.php?action_kouhyou_detail_004_kani=true&JigyosyoCd=2071100222-00&ServiceCd=320&Type=search", "url2": "http://www.humanheritage.net/" }, "geometry": { "type": "Point", "coordinates": [ 138.331323900000029, 36.7412068 ] } },
{ "type": "Feature", "properties": { "内容": "グループホーム　こうしゃ敬老園【認知症対応型共同生活介護】長野県中野市大字竹原字中島1135-1グループホーム　こうしゃ敬老園", "url": "https://www.kaigokensaku.mhlw.go.jp/20/index.php?action_kouhyou_detail_004_kani=true&JigyosyoCd=2091100079-00&ServiceCd=320&Type=search", "url2": "http://www.keiroen.or.jp/" }, "geometry": { "type": "Point", "coordinates": [ 138.36945030000004, 36.742044 ] } },
{ "type": "Feature", "properties": { "内容": "グループホームなかの【認知症対応型共同生活介護】長野県中野市大字岩船292番地1", "url": "https://www.kaigokensaku.mhlw.go.jp/20/index.php?action_kouhyou_detail_004_kani=true&JigyosyoCd=2071100305-00&ServiceCd=320&Type=search", "url2": "http://www.home-shinano.com" }, "geometry": { "type": "Point", "coordinates": [ 138.358263338441361, 36.745665386538633 ] } },
{ "type": "Feature", "properties": { "内容": "グループホーム風のコテージ【認知症対応型共同生活介護】長野県中野市間山838－2", "url": "https://www.kaigokensaku.mhlw.go.jp/20/index.php?action_kouhyou_detail_004_kani=true&JigyosyoCd=2091100061-00&ServiceCd=320&Type=search", "url2": null }, "geometry": { "type": "Point", "coordinates": [ 138.384816399999977, 36.7116035 ] } },
{ "type": "Feature", "properties": { "内容": "グループホームこだま【認知症対応型共同生活介護】長野県中野市大字草間１０７１-番地４", "url": "https://www.kaigokensaku.mhlw.go.jp/20/index.php?action_kouhyou_detail_004_kani=true&JigyosyoCd=2071100321-00&ServiceCd=320&Type=search", "url2": null }, "geometry": { "type": "Point", "coordinates": [ 138.323969300000044, 36.7335074 ] } },
{ "type": "Feature", "properties": { "内容": "斑尾の森グループホームふるさと【認知症対応型共同生活介護】長野県中野市大字穴田１０８３", "url": "https://www.kaigokensaku.mhlw.go.jp/20/index.php?action_kouhyou_detail_004_kani=true&JigyosyoCd=2073500064-00&ServiceCd=320&Type=search", "url2": null }, "geometry": { "type": "Point", "coordinates": [ 138.303780678470588, 36.783806353855681 ] } },
{ "type": "Feature", "properties": { "内容": "ツクイ信州中野グループホーム【認知症対応型共同生活介護】長野県中野市吉田字中河原１１３７－１", "url": "https://www.kaigokensaku.mhlw.go.jp/20/index.php?action_kouhyou_detail_004_kani=true&JigyosyoCd=2071100339-00&ServiceCd=320&Type=search", "url2": "http://www.tsukui.net/search/detail.php?officeid=242" }, "geometry": { "type": "Point", "coordinates": [ 138.363729550926195, 36.748874789944928 ] } },
{ "type": "Feature", "properties": { "内容": "グループホーム　ひだまりの家【認知症対応型共同生活介護】長野県大町市大町8035番地", "url": "https://www.kaigokensaku.mhlw.go.jp/20/index.php?action_kouhyou_detail_004_kani=true&JigyosyoCd=2071200162-00&ServiceCd=320&Type=search", "url2": "http://www.kita-alps.omachi.nagano.jp/gyoumu/hidamari.html" }, "geometry": { "type": "Point", "coordinates": [ 137.8494306, 36.4961603 ] } },
{ "type": "Feature", "properties": { "内容": "ニチイケアセンターおおまち【認知症対応型共同生活介護】長野県大町市大町1380-1", "url": "https://www.kaigokensaku.mhlw.go.jp/20/index.php?action_kouhyou_detail_004_kani=true&JigyosyoCd=2091200044-00&ServiceCd=320&Type=search", "url2": "http://www.nichiigakkan.co.jp/service/care/institution/index.html" }, "geometry": { "type": "Point", "coordinates": [ 137.860204599999946, 36.515194 ] } },
{ "type": "Feature", "properties": { "内容": "ほつとハウス信濃ときわの家【認知症対応型共同生活介護】長野県大町市常盤3597", "url": "https://www.kaigokensaku.mhlw.go.jp/20/index.php?action_kouhyou_detail_004_kani=true&JigyosyoCd=2091200077-00&ServiceCd=320&Type=search", "url2": "北アルプスの風" }, "geometry": { "type": "Point", "coordinates": [ 137.847753600000033, 36.4660057 ] } },
{ "type": "Feature", "properties": { "内容": "ほっとハウス信濃ときわ南の家【認知症対応型共同生活介護】長野県大町市常盤3586-1", "url": "https://www.kaigokensaku.mhlw.go.jp/20/index.php?action_kouhyou_detail_004_kani=true&JigyosyoCd=2091200093-00&ServiceCd=320&Type=search", "url2": "http://www.kita-alps.org/" }, "geometry": { "type": "Point", "coordinates": [ 137.813101, 36.4744243 ] } },
{ "type": "Feature", "properties": { "内容": "北アルプスの家【認知症対応型共同生活介護】長野県大町市大町２７６９番地１", "url": "https://www.kaigokensaku.mhlw.go.jp/20/index.php?action_kouhyou_detail_004_kani=true&JigyosyoCd=2071200311-00&ServiceCd=320&Type=search", "url2": "http://www.kita-alps.org/" }, "geometry": { "type": "Point", "coordinates": [ 137.860496199999943, 36.5029569 ] } },
{ "type": "Feature", "properties": { "内容": "グループホームゆりかご【認知症対応型共同生活介護】長野県飯山市大字静間2900-2", "url": "https://www.kaigokensaku.mhlw.go.jp/20/index.php?action_kouhyou_detail_004_kani=true&JigyosyoCd=2071300236-00&ServiceCd=320&Type=search", "url2": "http://www.iiyama-catv.ne.jp/~yurikago" }, "geometry": { "type": "Point", "coordinates": [ 138.3472954, 36.824428 ] } },
{ "type": "Feature", "properties": { "内容": "グループホームすずらん【認知症対応型共同生活介護】長野県飯山市大字飯山193番地", "url": "https://www.kaigokensaku.mhlw.go.jp/20/index.php?action_kouhyou_detail_004_kani=true&JigyosyoCd=2091300018-00&ServiceCd=320&Type=search", "url2": "http://www.fiore-welfare.jp/index.html" }, "geometry": { "type": "Point", "coordinates": [ 138.362570799999958, 36.843101 ] } },
{ "type": "Feature", "properties": { "内容": "グループホーム　あおい【認知症対応型共同生活介護】長野県飯山市大字飯山２１２８－１９", "url": "https://www.kaigokensaku.mhlw.go.jp/20/index.php?action_kouhyou_detail_004_kani=true&JigyosyoCd=2091300026-00&ServiceCd=320&Type=search", "url2": "www.fiore-welfare.jp" }, "geometry": { "type": "Point", "coordinates": [ 138.36015969999994, 36.8527192 ] } },
{ "type": "Feature", "properties": { "内容": "グループホームゆきのはな【認知症対応型共同生活介護】長野県飯山市大字静間474-6", "url": "https://www.kaigokensaku.mhlw.go.jp/20/index.php?action_kouhyou_detail_004_kani=true&JigyosyoCd=2091300067-00&ServiceCd=320&Type=search", "url2": null }, "geometry": { "type": "Point", "coordinates": [ 138.35589137143171, 36.8406898936476 ] } },
{ "type": "Feature", "properties": { "内容": "グループホーム福ざわ【認知症対応型共同生活介護】長野県茅野市豊平１５６７－１", "url": "https://www.kaigokensaku.mhlw.go.jp/20/index.php?action_kouhyou_detail_004_kani=true&JigyosyoCd=2091400156-00&ServiceCd=320&Type=search", "url2": "https://carehome.co.jp" }, "geometry": { "type": "Point", "coordinates": [ 138.1847587, 36.013787 ] } },
{ "type": "Feature", "properties": { "内容": "グループホームいずみの【認知症対応型共同生活介護】長野県茅野市泉野6558-1", "url": "https://www.kaigokensaku.mhlw.go.jp/20/index.php?action_kouhyou_detail_004_kani=true&JigyosyoCd=2091400057-00&ServiceCd=320&Type=search", "url2": "http://carehome.co.jp/" }, "geometry": { "type": "Point", "coordinates": [ 138.230442700000026, 35.9897895 ] } },
{ "type": "Feature", "properties": { "内容": "グループホーム豊平【認知症対応型共同生活介護】長野県茅野市豊平２５５２", "url": "https://www.kaigokensaku.mhlw.go.jp/20/index.php?action_kouhyou_detail_004_kani=true&JigyosyoCd=2091400024-00&ServiceCd=320&Type=search", "url2": "http://www.carehome.co.jp/group/index.html" }, "geometry": { "type": "Point", "coordinates": [ 138.203418699999929, 36.0150723 ] } },
{ "type": "Feature", "properties": { "内容": "グループホーム　アイリス茅野【認知症対応型共同生活介護】長野県茅野市宮川5778－1複合福祉施設アイリス茅野", "url": "https://www.kaigokensaku.mhlw.go.jp/20/index.php?action_kouhyou_detail_004_kani=true&JigyosyoCd=2091400065-00&ServiceCd=320&Type=search", "url2": "http://www.iriss.or.jp" }, "geometry": { "type": "Point", "coordinates": [ 138.155874400000016, 35.9863355 ] } },
{ "type": "Feature", "properties": { "内容": "グループホームせせらぎの家【認知症対応型共同生活介護】長野県茅野市宮川６３２７－１", "url": "https://www.kaigokensaku.mhlw.go.jp/20/index.php?action_kouhyou_detail_004_kani=true&JigyosyoCd=2071400366-00&ServiceCd=320&Type=search", "url2": null }, "geometry": { "type": "Point", "coordinates": [ 138.155952699999943, 35.9773421 ] } },
{ "type": "Feature", "properties": { "内容": "グループホームすずらん【認知症対応型共同生活介護】長野県茅野市湖東７０５０番地１", "url": "https://www.kaigokensaku.mhlw.go.jp/20/index.php?action_kouhyou_detail_004_kani=true&JigyosyoCd=2071400341-00&ServiceCd=320&Type=search", "url2": "www.ghsuzuran.com/" }, "geometry": { "type": "Point", "coordinates": [ 138.193858099999943, 36.0284399 ] } },
{ "type": "Feature", "properties": { "内容": "グループホーム寿和寮【認知症対応型共同生活介護】長野県茅野市宮川５０１０-１", "url": "https://www.kaigokensaku.mhlw.go.jp/20/index.php?action_kouhyou_detail_004_kani=true&JigyosyoCd=2091400016-00&ServiceCd=320&Type=search", "url2": "http://www.heisei-kai.jp" }, "geometry": { "type": "Point", "coordinates": [ 138.163687500000037, 35.9872412 ] } },
{ "type": "Feature", "properties": { "内容": "グループホームハピネス【認知症対応型共同生活介護】長野県塩尻市片丘7111-1", "url": "https://www.kaigokensaku.mhlw.go.jp/20/index.php?action_kouhyou_detail_004_kani=true&JigyosyoCd=2091500161-00&ServiceCd=320&Type=search", "url2": null }, "geometry": { "type": "Point", "coordinates": [ 137.986874, 36.1567225 ] } },
{ "type": "Feature", "properties": { "内容": "グループホーム　きんもくせい【認知症対応型共同生活介護】長野県塩尻市片丘7324-1", "url": "https://www.kaigokensaku.mhlw.go.jp/20/index.php?action_kouhyou_detail_004_kani=true&JigyosyoCd=2091500096-00&ServiceCd=320&Type=search", "url2": "http://group6212.jimdofree.com" }, "geometry": { "type": "Point", "coordinates": [ 137.970757099999986, 36.1427473 ] } },
{ "type": "Feature", "properties": { "内容": "グループホーム　グレイスフル塩尻【認知症対応型共同生活介護】長野県塩尻市大門八番町9-10", "url": "https://www.kaigokensaku.mhlw.go.jp/20/index.php?action_kouhyou_detail_004_kani=true&JigyosyoCd=2091500120-00&ServiceCd=320&Type=search", "url2": "http:www.sun-vision.or.jp" }, "geometry": { "type": "Point", "coordinates": [ 137.948895557147239, 36.112921654082768 ] } },
{ "type": "Feature", "properties": { "内容": "ニチイケアセンター塩尻【認知症対応型共同生活介護】長野県塩尻市大門三番町2番3号", "url": "https://www.kaigokensaku.mhlw.go.jp/20/index.php?action_kouhyou_detail_004_kani=true&JigyosyoCd=2091500070-00&ServiceCd=320&Type=search", "url2": "http://sp.chizumaru.com/dbh/nichii/detailmap.aspx?account=nichii&accmd=0&bid=0361505X72&scl=1100&clk=2" }, "geometry": { "type": "Point", "coordinates": [ 137.956976700000041, 36.1106868 ] } },
{ "type": "Feature", "properties": { "内容": "グループホームさとび【認知症対応型共同生活介護】塩尻市大字片丘道下１１１４６", "url": "https://www.kaigokensaku.mhlw.go.jp/20/index.php?action_kouhyou_detail_004_kani=true&JigyosyoCd=2071500488-00&ServiceCd=320&Type=search", "url2": "http://www.heisei-kai.jp/" }, "geometry": { "type": "Point", "coordinates": [ 137.967124158444221, 36.12136790510381 ] } },
{ "type": "Feature", "properties": { "内容": "グループホームこまくさ野村宮の前【認知症対応型共同生活介護】長野県塩尻市広丘野村８５１", "url": "https://www.kaigokensaku.mhlw.go.jp/20/index.php?action_kouhyou_detail_004_kani=true&JigyosyoCd=2091500062-00&ServiceCd=320&Type=search", "url2": "http://www.komakusa-nomura.jp/" }, "geometry": { "type": "Point", "coordinates": [ 137.956647, 36.1495932 ] } },
{ "type": "Feature", "properties": { "内容": "グループホームこまくさ野村【認知症対応型共同生活介護】長野県塩尻市広丘野村2146", "url": "https://www.kaigokensaku.mhlw.go.jp/20/index.php?action_kouhyou_detail_004_kani=true&JigyosyoCd=2071500538-00&ServiceCd=320&Type=search", "url2": "http://www.komakusa-nomura.jp/" }, "geometry": { "type": "Point", "coordinates": [ 137.955408300000045, 36.1485155 ] } },
{ "type": "Feature", "properties": { "内容": "グループホームまほろば【認知症対応型共同生活介護】長野県塩尻市宗賀１２９５番地", "url": "https://www.kaigokensaku.mhlw.go.jp/20/index.php?action_kouhyou_detail_004_kani=true&JigyosyoCd=2071500330-00&ServiceCd=320&Type=search", "url2": "https://www.keijin-kai.jp/facilities/gh-mahoroba" }, "geometry": { "type": "Point", "coordinates": [ 137.9330066, 36.1111004 ] } },
{ "type": "Feature", "properties": { "内容": "グループホーム　あい愛塩尻【認知症対応型共同生活介護】長野県塩尻市大字洗馬２５１５番地１", "url": "https://www.kaigokensaku.mhlw.go.jp/20/index.php?action_kouhyou_detail_004_kani=true&JigyosyoCd=2091500112-00&ServiceCd=320&Type=search", "url2": "https://www.aiaicare.jp/" }, "geometry": { "type": "Point", "coordinates": [ 137.910980699999982, 36.113588600000014 ] } },
{ "type": "Feature", "properties": { "内容": "グループホームうすだ愛の郷【認知症対応型共同生活介護】長野県佐久市田口４７４２番地１", "url": "https://www.kaigokensaku.mhlw.go.jp/20/index.php?action_kouhyou_detail_004_kani=true&JigyosyoCd=2071700641-00&ServiceCd=320&Type=search", "url2": "http://skdf.jp/" }, "geometry": { "type": "Point", "coordinates": [ 138.496019, 36.204409 ] } },
{ "type": "Feature", "properties": { "内容": "グループホームのざわ愛の郷【認知症対応型共同生活介護】長野県佐久市野沢322ー1", "url": "https://www.kaigokensaku.mhlw.go.jp/20/index.php?action_kouhyou_detail_004_kani=true&JigyosyoCd=2091700183-00&ServiceCd=320&Type=search", "url2": "http://www;skdf;jp" }, "geometry": { "type": "Point", "coordinates": [ 138.4636055, 36.2267739 ] } },
{ "type": "Feature", "properties": { "内容": "グループホームひらか愛の郷【認知症対応型共同生活介護】長野県佐久市平賀737-3", "url": "https://www.kaigokensaku.mhlw.go.jp/20/index.php?action_kouhyou_detail_004_kani=true&JigyosyoCd=2091700043-00&ServiceCd=320&Type=search", "url2": "http://www.skdf.jp/" }, "geometry": { "type": "Point", "coordinates": [ 138.493150318524158, 36.225823921914113 ] } },
{ "type": "Feature", "properties": { "内容": "けあビジョンホーム佐久【認知症対応型共同生活介護】長野県佐久市今井371番1", "url": "https://www.kaigokensaku.mhlw.go.jp/20/index.php?action_kouhyou_detail_004_kani=true&JigyosyoCd=2091700233-00&ServiceCd=320&Type=search", "url2": null }, "geometry": { "type": "Point", "coordinates": [ 138.4496454, 36.2495538 ] } },
{ "type": "Feature", "properties": { "内容": "グループホームあゆみ【認知症対応型共同生活介護】長野県佐久市八幡２４１番地１", "url": "https://www.kaigokensaku.mhlw.go.jp/20/index.php?action_kouhyou_detail_004_kani=true&JigyosyoCd=2091700118-00&ServiceCd=320&Type=search", "url2": "http://nagominooka.com/ayumi/index.html" }, "geometry": { "type": "Point", "coordinates": [ 138.396610656587598, 36.268516273066105 ] } },
{ "type": "Feature", "properties": { "内容": "グループホーム新子田の家【認知症対応型共同生活介護】長野県佐久市新子田892番地2", "url": "https://www.kaigokensaku.mhlw.go.jp/20/index.php?action_kouhyou_detail_004_kani=true&JigyosyoCd=2091700100-00&ServiceCd=320&Type=search", "url2": "http://www.ja-naganokai.or.jp/" }, "geometry": { "type": "Point", "coordinates": [ 138.5030791, 36.2586702 ] } },
{ "type": "Feature", "properties": { "内容": "サガラシルバーハウス【認知症対応型共同生活介護】長野県佐久市岩村田２２１３－８　2F", "url": "https://www.kaigokensaku.mhlw.go.jp/20/index.php?action_kouhyou_detail_004_kani=true&JigyosyoCd=2071700310-00&ServiceCd=320&Type=search", "url2": null }, "geometry": { "type": "Point", "coordinates": [ 138.47342649999996, 36.264548100000034 ] } },
{ "type": "Feature", "properties": { "内容": "シルバーハウス塚原【認知症対応型共同生活介護】長野県佐久市塚原２２２８番地３", "url": "https://www.kaigokensaku.mhlw.go.jp/20/index.php?action_kouhyou_detail_004_kani=true&JigyosyoCd=2071700237-00&ServiceCd=320&Type=search", "url2": "http://www.keijinnet.or.jp/" }, "geometry": { "type": "Point", "coordinates": [ 138.4368614, 36.2668989 ] } },
{ "type": "Feature", "properties": { "内容": "地域密着型認知症高齢者グループホーム森の里【認知症対応型共同生活介護】長野県千曲市大字森3109", "url": "https://www.kaigokensaku.mhlw.go.jp/20/index.php?action_kouhyou_detail_004_kani=true&JigyosyoCd=2091800066-00&ServiceCd=320&Type=search", "url2": "http://www.taishikai.or.jp/kaigo/sub01.html" }, "geometry": { "type": "Point", "coordinates": [ 138.148201699999959, 36.5284757 ] } },
{ "type": "Feature", "properties": { "内容": "グループホームかみやまだ敬老園【認知症対応型共同生活介護】長野県千曲市上山田２８７１－１", "url": "https://www.kaigokensaku.mhlw.go.jp/20/index.php?action_kouhyou_detail_004_kani=true&JigyosyoCd=2071800037-00&ServiceCd=320&Type=search", "url2": "http://www.keiroen.or.jp" }, "geometry": { "type": "Point", "coordinates": [ 138.144736659524597, 36.472529331235151 ] } },
{ "type": "Feature", "properties": { "内容": "グループホームまゆ更科【認知症対応型共同生活介護】長野県千曲市杭瀬下２丁目８５番地", "url": "https://www.kaigokensaku.mhlw.go.jp/20/index.php?action_kouhyou_detail_004_kani=true&JigyosyoCd=2071800144-00&ServiceCd=320&Type=search", "url2": "http://www.lifecare-mayu.com/jigyo/sarashina/" }, "geometry": { "type": "Point", "coordinates": [ 138.112464100000011, 36.5304772 ] } },
{ "type": "Feature", "properties": { "内容": "八幡グループホームみのり【認知症対応型共同生活介護】長野県千曲市八幡2003-2", "url": "https://www.kaigokensaku.mhlw.go.jp/20/index.php?action_kouhyou_detail_004_kani=true&JigyosyoCd=2091800090-00&ServiceCd=320&Type=search", "url2": "http://www.sakura-care.co.jp/" }, "geometry": { "type": "Point", "coordinates": [ 138.097973700000011, 36.5206498 ] } },
{ "type": "Feature", "properties": { "内容": "あっといーずホーム【認知症対応型共同生活介護】長野県千曲市磯部１７０－２", "url": "https://www.kaigokensaku.mhlw.go.jp/20/index.php?action_kouhyou_detail_004_kani=true&JigyosyoCd=2071800235-00&ServiceCd=320&Type=search", "url2": "http://www.at-ease-care.com/home/home.php" }, "geometry": { "type": "Point", "coordinates": [ 138.159735800000021, 36.4812199 ] } },
{ "type": "Feature", "properties": { "内容": "グループホーム御姫尊【認知症対応型共同生活介護】長野県東御市祢津３３７－２", "url": "https://www.kaigokensaku.mhlw.go.jp/20/index.php?action_kouhyou_detail_004_kani=true&JigyosyoCd=2072200443-00&ServiceCd=320&Type=search", "url2": "http://www.ryokufuukai.or.jp/group.html" }, "geometry": { "type": "Point", "coordinates": [ 138.35643129999994, 36.3681797 ] } },
{ "type": "Feature", "properties": { "内容": "ほのぼのホーム【認知症対応型共同生活介護】長野県東御市八重原２１５１－２", "url": "https://www.kaigokensaku.mhlw.go.jp/20/index.php?action_kouhyou_detail_004_kani=true&JigyosyoCd=2072100221-00&ServiceCd=320&Type=search", "url2": "http://www.cpmimaki.or.jp/care_tkyodo.php" }, "geometry": { "type": "Point", "coordinates": [ 138.314044499999966, 36.3175903 ] } },
{ "type": "Feature", "properties": { "内容": "グループホームフォーレスト【認知症対応型共同生活介護】長野県東御市常田18-1", "url": "https://www.kaigokensaku.mhlw.go.jp/20/index.php?action_kouhyou_detail_004_kani=true&JigyosyoCd=2072200518-00&ServiceCd=320&Type=search", "url2": "http://www.chiisagata.jp/forest/index.html" }, "geometry": { "type": "Point", "coordinates": [ 138.348387699999989, 36.3587473 ] } },
{ "type": "Feature", "properties": { "内容": "グループホーム和【認知症対応型共同生活介護】長野県東御市海善寺下権田1101-2", "url": "https://www.kaigokensaku.mhlw.go.jp/20/index.php?action_kouhyou_detail_004_kani=true&JigyosyoCd=2091900023-00&ServiceCd=320&Type=search", "url2": "http://ls-yousin.main.jp/" }, "geometry": { "type": "Point", "coordinates": [ 138.318822700000027, 36.3673453 ] } },
{ "type": "Feature", "properties": { "内容": "医療法人緑風会　グループホーム桃源郷【認知症対応型共同生活介護】長野県東御市祢津３２３－３", "url": "https://www.kaigokensaku.mhlw.go.jp/20/index.php?action_kouhyou_detail_004_kani=true&JigyosyoCd=2091900031-00&ServiceCd=320&Type=search", "url2": "http://www.ryokufuukai.or.jp/group.html" }, "geometry": { "type": "Point", "coordinates": [ 138.351881300000059, 36.3738538 ] } },
{ "type": "Feature", "properties": { "内容": "グループホーム安曇野【認知症対応型共同生活介護】長野県安曇野市豊科4383-1グループホーム安曇野", "url": "https://www.kaigokensaku.mhlw.go.jp/20/index.php?action_kouhyou_detail_004_kani=true&JigyosyoCd=2094000458-00&ServiceCd=320&Type=search", "url2": "https://www.fb-kaigo.co.jp/" }, "geometry": { "type": "Point", "coordinates": [ 137.9055196, 36.2972134 ] } },
{ "type": "Feature", "properties": { "内容": "グループホーム　恵【認知症対応型共同生活介護】長野県　安曇野市　豊科　９４－１", "url": "https://www.kaigokensaku.mhlw.go.jp/20/index.php?action_kouhyou_detail_004_kani=true&JigyosyoCd=2094000219-00&ServiceCd=320&Type=search", "url2": null }, "geometry": { "type": "Point", "coordinates": [ 137.9172155, 36.2672047 ] } },
{ "type": "Feature", "properties": { "内容": "グループホームかたくり【認知症対応型共同生活介護】長野県安曇野市堀金烏川5464-3", "url": "https://www.kaigokensaku.mhlw.go.jp/20/index.php?action_kouhyou_detail_004_kani=true&JigyosyoCd=2094000086-00&ServiceCd=320&Type=search", "url2": "http://www.fiore-welfare.jp/" }, "geometry": { "type": "Point", "coordinates": [ 137.874975100000029, 36.3068914 ] } },
{ "type": "Feature", "properties": { "内容": "グループホームひだまりの里とよしな【認知症対応型共同生活介護】長野県安曇野市豊科高家７８２－２", "url": "https://www.kaigokensaku.mhlw.go.jp/20/index.php?action_kouhyou_detail_004_kani=true&JigyosyoCd=2072800804-00&ServiceCd=320&Type=search", "url2": "www.vacre.world" }, "geometry": { "type": "Point", "coordinates": [ 137.928131, 36.27316 ] } },
{ "type": "Feature", "properties": { "内容": "グループホーム　かじか庵【認知症対応型共同生活介護】長野県安曇野市穂高北穂高２５３１番地３", "url": "https://www.kaigokensaku.mhlw.go.jp/20/index.php?action_kouhyou_detail_004_kani=true&JigyosyoCd=2072800655-00&ServiceCd=320&Type=search", "url2": "http://www.koumei.or.jp" }, "geometry": { "type": "Point", "coordinates": [ 137.878999499999964, 36.3533415 ] } },
{ "type": "Feature", "properties": { "内容": "ほっとハウス・ほたかの家【認知症対応型共同生活介護】長野県安曇野市穂高柏原2831番地26", "url": "https://www.kaigokensaku.mhlw.go.jp/20/index.php?action_kouhyou_detail_004_kani=true&JigyosyoCd=2094000136-00&ServiceCd=320&Type=search", "url2": "http://kita-alps.org/" }, "geometry": { "type": "Point", "coordinates": [ 137.869722700000011, 36.3195425 ] } },
{ "type": "Feature", "properties": { "内容": "なでしこ【認知症対応型共同生活介護】長野県安曇野市三郷温２５１７", "url": "https://www.kaigokensaku.mhlw.go.jp/20/index.php?action_kouhyou_detail_004_kani=true&JigyosyoCd=2094000045-00&ServiceCd=320&Type=search", "url2": null }, "geometry": { "type": "Point", "coordinates": [ 137.888890700000047, 36.2522196 ] } },
{ "type": "Feature", "properties": { "内容": "グループホームとよしな敬老園【認知症対応型共同生活介護】長野県安曇野市豊科4749番地1", "url": "https://www.kaigokensaku.mhlw.go.jp/20/index.php?action_kouhyou_detail_004_kani=true&JigyosyoCd=2072800713-00&ServiceCd=320&Type=search", "url2": "http://www.keiroen.or.jp" }, "geometry": { "type": "Point", "coordinates": [ 137.905335242327851, 36.301304967838462 ] } },
{ "type": "Feature", "properties": { "内容": "ほっとハウスみさとの家【認知症対応型共同生活介護】長野県安曇野市三郷温2038-6", "url": "https://www.kaigokensaku.mhlw.go.jp/20/index.php?action_kouhyou_detail_004_kani=true&JigyosyoCd=2094000375-00&ServiceCd=320&Type=search", "url2": "http://www.kita-alps.org" }, "geometry": { "type": "Point", "coordinates": [ 137.881594299999989, 36.2549392 ] } },
{ "type": "Feature", "properties": { "内容": "グループホーム　さくら【認知症対応型共同生活介護】長野県安曇野市穂高5699-1", "url": "https://www.kaigokensaku.mhlw.go.jp/20/index.php?action_kouhyou_detail_004_kani=true&JigyosyoCd=2094000300-00&ServiceCd=320&Type=search", "url2": "http://www.fiore-welfare.jp" }, "geometry": { "type": "Point", "coordinates": [ 137.879383399999966, 36.3413404 ] } },
{ "type": "Feature", "properties": { "内容": "ほっとハウスあかしなの家【認知症対応型共同生活介護】長野県安曇野市明科中川手4246－1", "url": "https://www.kaigokensaku.mhlw.go.jp/20/index.php?action_kouhyou_detail_004_kani=true&JigyosyoCd=2094000151-00&ServiceCd=320&Type=search", "url2": "http://kita-alps.org/" }, "geometry": { "type": "Point", "coordinates": [ 137.929283899999973, 36.3576424 ] } },
{ "type": "Feature", "properties": { "内容": "グループホームさくほ愛の郷【認知症対応型共同生活介護】長野県南佐久郡佐久穂町高野町４６４－１", "url": "https://www.kaigokensaku.mhlw.go.jp/20/index.php?action_kouhyou_detail_004_kani=true&JigyosyoCd=2092000013-00&ServiceCd=320&Type=search", "url2": "http://skdf.jp/gh_sakuho.html" }, "geometry": { "type": "Point", "coordinates": [ 138.484154600000011, 36.1653447 ] } },
{ "type": "Feature", "properties": { "内容": "グループホームかるいざわ敬老園【認知症対応型共同生活介護】長野県北佐久郡軽井沢町追分１４３６", "url": "https://www.kaigokensaku.mhlw.go.jp/20/index.php?action_kouhyou_detail_004_kani=true&JigyosyoCd=2072100379-00&ServiceCd=320&Type=search", "url2": "http://www.keiroen.or.jp" }, "geometry": { "type": "Point", "coordinates": [ 138.550457, 36.3432949 ] } },
{ "type": "Feature", "properties": { "内容": "グループホーム旧軽井沢【認知症対応型共同生活介護】長野県北佐久郡軽井沢町大字軽井沢２２２番地１", "url": "https://www.kaigokensaku.mhlw.go.jp/20/index.php?action_kouhyou_detail_004_kani=true&JigyosyoCd=2072100312-00&ServiceCd=320&Type=search", "url2": "http://karuizawa-seizanso.com/index.html" }, "geometry": { "type": "Point", "coordinates": [ 138.632708800000046, 36.3581151 ] } },
{ "type": "Feature", "properties": { "内容": "グループホームきくちゃん家【認知症対応型共同生活介護】長野県北佐久郡御代田町馬瀬口1789番地8", "url": "https://www.kaigokensaku.mhlw.go.jp/20/index.php?action_kouhyou_detail_004_kani=true&JigyosyoCd=2092100052-00&ServiceCd=320&Type=search", "url2": "https://miyota-shakyo.sakura.ne.jp/" }, "geometry": { "type": "Point", "coordinates": [ 138.505873400000041, 36.324116 ] } },
{ "type": "Feature", "properties": { "内容": "グループホームみよた【認知症対応型共同生活介護】長野県北佐久郡御代田町大字御代田１８３３－１", "url": "https://www.kaigokensaku.mhlw.go.jp/20/index.php?action_kouhyou_detail_004_kani=true&JigyosyoCd=2072100502-00&ServiceCd=320&Type=search", "url2": "http://w1.avis.ne.jp/~m-shakyo/index.html" }, "geometry": { "type": "Point", "coordinates": [ 138.497427600000037, 36.3092345 ] } },
{ "type": "Feature", "properties": { "内容": "グループホームだんらん【認知症対応型共同生活介護】長野県北佐久郡立科町大字芦田3723番地", "url": "https://www.kaigokensaku.mhlw.go.jp/20/index.php?action_kouhyou_detail_004_kani=true&JigyosyoCd=2092100045-00&ServiceCd=320&Type=search", "url2": "http://www.hc-tateshina.jp" }, "geometry": { "type": "Point", "coordinates": [ 138.312322029744138, 36.282802862499629 ] } },
{ "type": "Feature", "properties": { "内容": "社会福祉法人大樹会グループホームラポートあおき【認知症対応型共同生活介護】長野県小県郡青木村大字田沢３４０４－４", "url": "https://www.kaigokensaku.mhlw.go.jp/20/index.php?action_kouhyou_detail_004_kani=true&JigyosyoCd=2072200625-00&ServiceCd=320&Type=search", "url2": "https://www.daijukai.or.jp/" }, "geometry": { "type": "Point", "coordinates": [ 138.121759699999984, 36.3689098 ] } },
{ "type": "Feature", "properties": { "内容": "グループホーム和田【認知症対応型共同生活介護】長野県小県郡長和町和田1482番地2", "url": "https://www.kaigokensaku.mhlw.go.jp/20/index.php?action_kouhyou_detail_004_kani=true&JigyosyoCd=2072200690-00&ServiceCd=320&Type=search", "url2": "http://www.yodakubofukushikai.jp/" }, "geometry": { "type": "Point", "coordinates": [ 138.217399273859655, 36.208917655619352 ] } },
{ "type": "Feature", "properties": { "内容": "グループホーム縁【認知症対応型共同生活介護】長野県諏訪郡下諏訪町社字五反田7618－1", "url": "https://www.kaigokensaku.mhlw.go.jp/20/index.php?action_kouhyou_detail_004_kani=true&JigyosyoCd=2092300108-00&ServiceCd=320&Type=search", "url2": "http://www.heisei-kai.jp/sisetu/gh_yukari.htm" }, "geometry": { "type": "Point", "coordinates": [ 138.071717501821922, 36.083224273862726 ] } },
{ "type": "Feature", "properties": { "内容": "グループホームさくら【認知症対応型共同生活介護】長野県諏訪郡下諏訪町東町中天白５５６－１", "url": "https://www.kaigokensaku.mhlw.go.jp/20/index.php?action_kouhyou_detail_004_kani=true&JigyosyoCd=2072300268-00&ServiceCd=320&Type=search", "url2": "http://www.lcv.ne.jp/~ghtakao/sakura/index_sakura.htm" }, "geometry": { "type": "Point", "coordinates": [ 138.083546899999988, 36.0824159 ] } },
{ "type": "Feature", "properties": { "内容": "グループホームグレイスフル下諏訪【認知症対応型共同生活介護】長野県諏訪郡下諏訪町９３１０グループホームグレイスフル下諏訪", "url": "https://www.kaigokensaku.mhlw.go.jp/20/index.php?action_kouhyou_detail_004_kani=true&JigyosyoCd=2072300243-00&ServiceCd=320&Type=search", "url2": "http://sun-vision.or.jp/service/nagano01/index.html" }, "geometry": { "type": "Point", "coordinates": [ 138.1009004, 36.0672348 ] } },
{ "type": "Feature", "properties": { "内容": "グループホームふきのとう【認知症対応型共同生活介護】長野県諏訪郡下諏訪町西四王５０００－８", "url": "https://www.kaigokensaku.mhlw.go.jp/20/index.php?action_kouhyou_detail_004_kani=true&JigyosyoCd=2092300058-00&ServiceCd=320&Type=search", "url2": "https://www.fukinotou.ne.jp" }, "geometry": { "type": "Point", "coordinates": [ 138.08416109999996, 36.0704565 ] } },
{ "type": "Feature", "properties": { "内容": "グループホーム　ひなたぼっこ【認知症対応型共同生活介護】長野県諏訪郡富士見町富士見11650-1", "url": "https://www.kaigokensaku.mhlw.go.jp/20/index.php?action_kouhyou_detail_004_kani=true&JigyosyoCd=2092300041-00&ServiceCd=320&Type=search", "url2": "http://www.lcv.ne.jp/~hinaboko/" }, "geometry": { "type": "Point", "coordinates": [ 138.233982400000059, 35.9137186 ] } },
{ "type": "Feature", "properties": { "内容": "グループホームやまゆり【認知症対応型共同生活介護】長野県諏訪郡富士見町富士見３７９６-５", "url": "https://www.kaigokensaku.mhlw.go.jp/20/index.php?action_kouhyou_detail_004_kani=true&JigyosyoCd=2092300033-00&ServiceCd=320&Type=search", "url2": "http://www.lcv.ne.jp/~kougen/institution/yamayuri.html" }, "geometry": { "type": "Point", "coordinates": [ 138.229449499999987, 35.9093941 ] } },
{ "type": "Feature", "properties": { "内容": "グループホームひなたぼっこ【認知症対応型共同生活介護】長野県諏訪郡富士見町富士見11650-1", "url": "https://www.kaigokensaku.mhlw.go.jp/20/index.php?action_kouhyou_detail_004_kani=true&JigyosyoCd=2092300074-00&ServiceCd=320&Type=search", "url2": "http://park3.wakwak.com/~hinatabokko/" }, "geometry": { "type": "Point", "coordinates": [ 138.229090700000029, 35.9228979 ] } },
{ "type": "Feature", "properties": { "内容": "グループホーム　ひめばら【認知症対応型共同生活介護】長野県諏訪郡原村17217-125", "url": "https://www.kaigokensaku.mhlw.go.jp/20/index.php?action_kouhyou_detail_004_kani=true&JigyosyoCd=2092300215-00&ServiceCd=320&Type=search", "url2": "https://fujimihp.com/" }, "geometry": { "type": "Point", "coordinates": [ 138.254142030684875, 35.966502066330435 ] } },
{ "type": "Feature", "properties": { "内容": "グループホームグレイスフル辰野【認知症対応型共同生活介護】長野県上伊那郡辰野町宮所８０７", "url": "https://www.kaigokensaku.mhlw.go.jp/20/index.php?action_kouhyou_detail_004_kani=true&JigyosyoCd=2072400563-00&ServiceCd=320&Type=search", "url2": "http://www.sun-vision.or.jp" }, "geometry": { "type": "Point", "coordinates": [ 137.9823179, 35.9853673 ] } },
{ "type": "Feature", "properties": { "内容": "グループホーム第２グレイスフル辰野【認知症対応型共同生活介護】長野県上伊那郡辰野町樋口４５４－１", "url": "https://www.kaigokensaku.mhlw.go.jp/20/index.php?action_kouhyou_detail_004_kani=true&JigyosyoCd=2092400049-00&ServiceCd=320&Type=search", "url2": "http://www.sun-vision.or.jp" }, "geometry": { "type": "Point", "coordinates": [ 137.999558100000058, 35.9639067 ] } },
{ "type": "Feature", "properties": { "内容": "グループホーム歩歩清風【認知症対応型共同生活介護】長野県上伊那郡辰野町大字伊那富字大原9704-1", "url": "https://www.kaigokensaku.mhlw.go.jp/20/index.php?action_kouhyou_detail_004_kani=true&JigyosyoCd=2092400106-00&ServiceCd=320&Type=search", "url2": "http://www.heisei-kai.jp" }, "geometry": { "type": "Point", "coordinates": [ 137.972650984147663, 35.9443253360553 ] } },
{ "type": "Feature", "properties": { "内容": "グループホームわかな【認知症対応型共同生活介護】長野県上伊那郡箕輪町大字東箕輪北田３２９６-１", "url": "https://www.kaigokensaku.mhlw.go.jp/20/index.php?action_kouhyou_detail_004_kani=true&JigyosyoCd=2072400977-00&ServiceCd=320&Type=search", "url2": "http://www.heisei-kai.jp/" }, "geometry": { "type": "Point", "coordinates": [ 137.994566875624059, 35.935868119089889 ] } },
{ "type": "Feature", "properties": { "内容": "グループホームグレイスフル箕輪【認知症対応型共同生活介護】長野県上伊那郡箕輪町大字中箕輪６０６５", "url": "https://www.kaigokensaku.mhlw.go.jp/20/index.php?action_kouhyou_detail_004_kani=true&JigyosyoCd=2072400621-00&ServiceCd=320&Type=search", "url2": "http://www.sun-vision.or.jp" }, "geometry": { "type": "Point", "coordinates": [ 137.950152805676652, 35.920215665438057 ] } },
{ "type": "Feature", "properties": { "内容": "ケアセンターふれあいの里【認知症対応型共同生活介護】長野県上伊那郡箕輪町大字中箕輪14432-1", "url": "https://www.kaigokensaku.mhlw.go.jp/20/index.php?action_kouhyou_detail_004_kani=true&JigyosyoCd=2092400023-00&ServiceCd=320&Type=search", "url2": "http://carecenter-hureainosato.com/etc/service-group.html" }, "geometry": { "type": "Point", "coordinates": [ 137.982579100000066, 35.9399543 ] } },
{ "type": "Feature", "properties": { "内容": "グループホームやまなみ【認知症対応型共同生活介護】長野県上伊那郡飯島町飯島2050-1", "url": "https://www.kaigokensaku.mhlw.go.jp/20/index.php?action_kouhyou_detail_004_kani=true&JigyosyoCd=2092400171-00&ServiceCd=320&Type=search", "url2": "http://www.kamiina-mcoop.com/" }, "geometry": { "type": "Point", "coordinates": [ 137.927382200000011, 35.6781982 ] } },
{ "type": "Feature", "properties": { "内容": "グループホームまんてん【認知症対応型共同生活介護】長野県上伊那群飯島町飯島2880-1130", "url": "https://www.kaigokensaku.mhlw.go.jp/20/index.php?action_kouhyou_detail_004_kani=true&JigyosyoCd=2072400779-00&ServiceCd=320&Type=search", "url2": "http://manten-npo.com" }, "geometry": { "type": "Point", "coordinates": [ 137.906445599999984, 35.6726121 ] } },
{ "type": "Feature", "properties": { "内容": "グループホーム道【認知症対応型共同生活介護】長野県上伊那郡飯島町田切161-52", "url": "https://www.kaigokensaku.mhlw.go.jp/20/index.php?action_kouhyou_detail_004_kani=true&JigyosyoCd=2092400015-00&ServiceCd=320&Type=search", "url2": null }, "geometry": { "type": "Point", "coordinates": [ 137.917987399999987, 35.699425900000016 ] } },
{ "type": "Feature", "properties": { "内容": "グループホームゆりかご南箕輪【認知症対応型共同生活介護】長野県上伊那郡南箕輪村沢尻9552", "url": "https://www.kaigokensaku.mhlw.go.jp/20/index.php?action_kouhyou_detail_004_kani=true&JigyosyoCd=2092400080-00&ServiceCd=320&Type=search", "url2": "http://www.yurikago.or.jp/" }, "geometry": { "type": "Point", "coordinates": [ 137.941787400000067, 35.85873 ] } },
{ "type": "Feature", "properties": { "内容": "認知症高齢者グループホーム「麦の家・ぶどうの木１」「麦の家・ぶどうの木２」【認知症対応型共同生活介護】長野県上伊那郡中川村大草４５５９番地", "url": "https://www.kaigokensaku.mhlw.go.jp/20/index.php?action_kouhyou_detail_004_kani=true&JigyosyoCd=2072400480-00&ServiceCd=320&Type=search", "url2": "muginoie.or.jp" }, "geometry": { "type": "Point", "coordinates": [ 137.95413510000003, 35.6350366 ] } },
{ "type": "Feature", "properties": { "内容": "複合福祉施設グループホームプラムの里【認知症対応型共同生活介護】長野県上伊那郡宮田村4804-1", "url": "https://www.kaigokensaku.mhlw.go.jp/20/index.php?action_kouhyou_detail_004_kani=true&JigyosyoCd=2092400064-00&ServiceCd=320&Type=search", "url2": "http://s-sawayaka.or.jp/" }, "geometry": { "type": "Point", "coordinates": [ 137.9428292, 35.7510211 ] } },
{ "type": "Feature", "properties": { "内容": "グループホームいきいき【認知症対応型共同生活介護】長野県下伊那郡松川町元大島５２７４－２２", "url": "https://www.kaigokensaku.mhlw.go.jp/20/index.php?action_kouhyou_detail_004_kani=true&JigyosyoCd=2072501204-00&ServiceCd=320&Type=search", "url2": null }, "geometry": { "type": "Point", "coordinates": [ 137.901445400000057, 35.6026963 ] } },
{ "type": "Feature", "properties": { "内容": "グループホームコスモス松川【認知症対応型共同生活介護】長野県下伊那郡松川町元大島1629-3", "url": "https://www.kaigokensaku.mhlw.go.jp/20/index.php?action_kouhyou_detail_004_kani=true&JigyosyoCd=2072501071-00&ServiceCd=320&Type=search", "url2": "http://www.cosmosnet.or.jp/file/matsukawa_gh.html" }, "geometry": { "type": "Point", "coordinates": [ 137.916713499999986, 35.5975807 ] } },
{ "type": "Feature", "properties": { "内容": "介護センターななすぎ【認知症対応型共同生活介護】長野県下伊那郡松川町元大島2002番地2", "url": "https://www.kaigokensaku.mhlw.go.jp/20/index.php?action_kouhyou_detail_004_kani=true&JigyosyoCd=2072501154-00&ServiceCd=320&Type=search", "url2": null }, "geometry": { "type": "Point", "coordinates": [ 137.921599349551343, 35.597559765493038 ] } },
{ "type": "Feature", "properties": { "内容": "グループホーム高森ヒルズ【認知症対応型共同生活介護】長野県下伊那郡高森町牛牧2785-99", "url": "https://www.kaigokensaku.mhlw.go.jp/20/index.php?action_kouhyou_detail_004_kani=true&JigyosyoCd=2092500111-00&ServiceCd=320&Type=search", "url2": "https://madokakai.jp/takamorimachi-group-home/" }, "geometry": { "type": "Point", "coordinates": [ 137.851673451914081, 35.5608660295375 ] } },
{ "type": "Feature", "properties": { "内容": "高森町グループホーム大家族【認知症対応型共同生活介護】長野県下伊那郡高森町牛牧２４６７－２", "url": "https://www.kaigokensaku.mhlw.go.jp/20/index.php?action_kouhyou_detail_004_kani=true&JigyosyoCd=2072500776-00&ServiceCd=320&Type=search", "url2": "https://madokakai.jp/takamorimachi-group-home/" }, "geometry": { "type": "Point", "coordinates": [ 137.8509669, 35.5606536 ] } },
{ "type": "Feature", "properties": { "内容": "赤石寮グループホームやすらぎの郷【認知症対応型共同生活介護】長野県下伊那郡阿南町新野28番地6", "url": "https://www.kaigokensaku.mhlw.go.jp/20/index.php?action_kouhyou_detail_004_kani=true&JigyosyoCd=2072500768-00&ServiceCd=320&Type=search", "url2": "http://kayagakikai-anan.jp/" }, "geometry": { "type": "Point", "coordinates": [ 137.761067226458749, 35.271590277566474 ] } },
{ "type": "Feature", "properties": { "内容": "グループホーム大地【認知症対応型共同生活介護】長野県下伊那郡阿智村春日２９４８－３", "url": "https://www.kaigokensaku.mhlw.go.jp/20/index.php?action_kouhyou_detail_004_kani=true&JigyosyoCd=2092500020-00&ServiceCd=320&Type=search", "url2": "https://a-lifesupport.co.jp/" }, "geometry": { "type": "Point", "coordinates": [ 137.757767925265881, 35.443348528927274 ] } },
{ "type": "Feature", "properties": { "内容": "グループホーム北又の杜【認知症対応型共同生活介護】長野県下伊那郡下條村陽皐709-2", "url": "https://www.kaigokensaku.mhlw.go.jp/20/index.php?action_kouhyou_detail_004_kani=true&JigyosyoCd=2092500152-00&ServiceCd=320&Type=search", "url2": "https://www.nagano-koureikyo.jp/" }, "geometry": { "type": "Point", "coordinates": [ 137.794350799999989, 35.390638 ] } },
{ "type": "Feature", "properties": { "内容": "グループホームぽけっと【認知症対応型共同生活介護】長野県下伊那郡喬木村15816-1", "url": "https://www.kaigokensaku.mhlw.go.jp/20/index.php?action_kouhyou_detail_004_kani=true&JigyosyoCd=2072500842-00&ServiceCd=320&Type=search", "url2": "http://kaigo-pocket.jimdo.com" }, "geometry": { "type": "Point", "coordinates": [ 137.865137083714359, 35.506737712461863 ] } },
{ "type": "Feature", "properties": { "内容": "グループホームあぐり河野【認知症対応型共同生活介護】長野県下伊那郡豊丘村河野1669-3", "url": "https://www.kaigokensaku.mhlw.go.jp/20/index.php?action_kouhyou_detail_004_kani=true&JigyosyoCd=2092500095-00&ServiceCd=320&Type=search", "url2": null }, "geometry": { "type": "Point", "coordinates": [ 137.9085619, 35.5653177 ] } },
{ "type": "Feature", "properties": { "内容": "サンシャイン神戸の杜グループホーム【認知症対応型共同生活介護】長野県木曽郡南木曽町読書3227-4", "url": "https://www.kaigokensaku.mhlw.go.jp/20/index.php?action_kouhyou_detail_004_kani=true&JigyosyoCd=2092600069-00&ServiceCd=320&Type=search", "url2": "http://www.sunshinelife.co.jp" }, "geometry": { "type": "Point", "coordinates": [ 137.5974261, 35.5914378 ] } },
{ "type": "Feature", "properties": { "内容": "サンシャインあてらグループホーム【認知症対応型共同生活介護】長野県木曽郡大桑村野尻931-1", "url": "https://www.kaigokensaku.mhlw.go.jp/20/index.php?action_kouhyou_detail_004_kani=true&JigyosyoCd=2092600044-00&ServiceCd=320&Type=search", "url2": "http：//ｗｗｗ.sunshinelife.co.jp" }, "geometry": { "type": "Point", "coordinates": [ 137.621679099999938, 35.6630152 ] } },
{ "type": "Feature", "properties": { "内容": "のぞみの里【認知症対応型共同生活介護】長野県木曽郡木曽町福島5569", "url": "https://www.kaigokensaku.mhlw.go.jp/20/index.php?action_kouhyou_detail_004_kani=true&JigyosyoCd=2092600051-00&ServiceCd=320&Type=search", "url2": "https://nozominosato-kiso.org/" }, "geometry": { "type": "Point", "coordinates": [ 137.704287300000033, 35.8519741 ] } },
{ "type": "Feature", "properties": { "内容": "グループホームグレイスフル日義【認知症対応型共同生活介護】長野県木曽郡木曽町日義２７５２-１", "url": "https://www.kaigokensaku.mhlw.go.jp/20/index.php?action_kouhyou_detail_004_kani=true&JigyosyoCd=2072600444-00&ServiceCd=320&Type=search", "url2": "http://www.sun-vision.or.jp" }, "geometry": { "type": "Point", "coordinates": [ 137.757678, 35.8856181 ] } },
{ "type": "Feature", "properties": { "内容": "グループホーム幸楽【認知症対応型共同生活介護】長野県木曽郡木曽町日義４９０５", "url": "https://www.kaigokensaku.mhlw.go.jp/20/index.php?action_kouhyou_detail_004_kani=true&JigyosyoCd=2092600036-00&ServiceCd=320&Type=search", "url2": "http://www.kiso.ne.jp/~kouraku.ju/" }, "geometry": { "type": "Point", "coordinates": [ 137.754177700000014, 35.848667 ] } },
{ "type": "Feature", "properties": { "内容": "グループホームアイハウス日義【認知症対応型共同生活介護】長野県木曽郡木曽町日義5175", "url": "https://www.kaigokensaku.mhlw.go.jp/20/index.php?action_kouhyou_detail_004_kani=true&JigyosyoCd=2092600119-00&ServiceCd=320&Type=search", "url2": null }, "geometry": { "type": "Point", "coordinates": [ 137.751025171185887, 35.860263788744874 ] } },
{ "type": "Feature", "properties": { "内容": "認知症グループホームてとてと和合【認知症対応型共同生活介護】長野県東筑摩郡麻績村日４７６９－１", "url": "https://www.kaigokensaku.mhlw.go.jp/20/index.php?action_kouhyou_detail_004_kani=true&JigyosyoCd=2092700026-00&ServiceCd=320&Type=search", "url2": null }, "geometry": { "type": "Point", "coordinates": [ 138.014623, 36.4391759 ] } },
{ "type": "Feature", "properties": { "内容": "グループホーム　あやめ【認知症対応型共同生活介護】長野県東筑摩郡麻績村麻3612", "url": "https://www.kaigokensaku.mhlw.go.jp/20/index.php?action_kouhyou_detail_004_kani=true&JigyosyoCd=2092700075-00&ServiceCd=320&Type=search", "url2": "www.fiore-welfare.jp" }, "geometry": { "type": "Point", "coordinates": [ 138.047955799999954, 36.4576497 ] } },
{ "type": "Feature", "properties": { "内容": "特定非営利活動法人ラポールグループホーム朝日新明館【認知症対応型共同生活介護】長野県東筑摩郡朝日村古見1938", "url": "https://www.kaigokensaku.mhlw.go.jp/20/index.php?action_kouhyou_detail_004_kani=true&JigyosyoCd=2092700059-00&ServiceCd=320&Type=search", "url2": "http://rapport.nagano.jp/overview/866/" }, "geometry": { "type": "Point", "coordinates": [ 137.865602, 36.1389816 ] } },
{ "type": "Feature", "properties": { "内容": "グループホームくらし【認知症対応型共同生活介護】長野県北安曇群松川村字南神戸４３６０番地１９", "url": "https://www.kaigokensaku.mhlw.go.jp/20/index.php?action_kouhyou_detail_004_kani=true&JigyosyoCd=2072900349-00&ServiceCd=320&Type=search", "url2": "http://koushu-nagano.jp/" }, "geometry": { "type": "Point", "coordinates": [ 137.848067899999933, 36.3954319 ] } },
{ "type": "Feature", "properties": { "内容": "かたくりの郷【認知症対応型共同生活介護】長野県北安曇郡白馬村大字神城22844", "url": "https://www.kaigokensaku.mhlw.go.jp/20/index.php?action_kouhyou_detail_004_kani=true&JigyosyoCd=2072900323-00&ServiceCd=320&Type=search", "url2": "http://www.shironishi.or.jp/ha/katakurinosato.htm" }, "geometry": { "type": "Point", "coordinates": [ 137.846196599999985, 36.6639722 ] } },
{ "type": "Feature", "properties": { "内容": "グループホームひまわり【認知症対応型共同生活介護】長野県埴科郡坂城町大字上平1024-1", "url": "https://www.kaigokensaku.mhlw.go.jp/20/index.php?action_kouhyou_detail_004_kani=true&JigyosyoCd=2093100077-00&ServiceCd=320&Type=search", "url2": null }, "geometry": { "type": "Point", "coordinates": [ 138.1603574, 36.4470101 ] } },
{ "type": "Feature", "properties": { "内容": "グループホーム　サンタクロース【認知症対応型共同生活介護】長野県埴科郡坂城町南条657-1", "url": "https://www.kaigokensaku.mhlw.go.jp/20/index.php?action_kouhyou_detail_004_kani=true&JigyosyoCd=2093100051-00&ServiceCd=320&Type=search", "url2": "http://sakaki-santaclaus.jp" }, "geometry": { "type": "Point", "coordinates": [ 138.19424, 36.428569 ] } },
{ "type": "Feature", "properties": { "内容": "けんちゃん家【認知症対応型共同生活介護】上高井郡小布施町大字中松７０１－１", "url": "https://www.kaigokensaku.mhlw.go.jp/20/index.php?action_kouhyou_detail_004_kani=true&JigyosyoCd=2093200026-00&ServiceCd=320&Type=search", "url2": null }, "geometry": { "type": "Point", "coordinates": [ 138.326735900000017, 36.7000337 ] } },
{ "type": "Feature", "properties": { "内容": "ヒューマンヘリテージ小布施【認知症対応型共同生活介護】長野県上高井郡小布施町北岡松葉３４４番地", "url": "https://www.kaigokensaku.mhlw.go.jp/20/index.php?action_kouhyou_detail_004_kani=true&JigyosyoCd=2073200178-00&ServiceCd=320&Type=search", "url2": "http://www.humanheritage.net/" }, "geometry": { "type": "Point", "coordinates": [ 138.3138566, 36.7062493 ] } },
{ "type": "Feature", "properties": { "内容": "けんちゃん家【認知症対応型共同生活介護】長野県上高井郡小布施町大字中松701－1", "url": "https://www.kaigokensaku.mhlw.go.jp/20/index.php?action_kouhyou_detail_004_kani=true&JigyosyoCd=2093200042-00&ServiceCd=320&Type=search", "url2": "http://egaoobuse.com/" }, "geometry": { "type": "Point", "coordinates": [ 138.326735900000017, 36.7000337 ] } },
{ "type": "Feature", "properties": { "内容": "パウル会　やまびこの家【認知症対応型共同生活介護】長野県上高井郡小布施町小布施851-4介護・福祉事業部パウル会　小布施ケアセンター", "url": "https://www.kaigokensaku.mhlw.go.jp/20/index.php?action_kouhyou_detail_004_kani=true&JigyosyoCd=2093200125-00&ServiceCd=320&Type=search", "url2": "http://newlife.or.jp/powell_kai/" }, "geometry": { "type": "Point", "coordinates": [ 138.318174, 36.690061 ] } },
{ "type": "Feature", "properties": { "内容": "認知症対応型共同生活介護施設グループホーム朝日【認知症対応型共同生活介護】長野県上高井郡高山村大字牧１０３番地１", "url": "https://www.kaigokensaku.mhlw.go.jp/20/index.php?action_kouhyou_detail_004_kani=true&JigyosyoCd=2093200034-00&ServiceCd=320&Type=search", "url2": "http://highness-life.com" }, "geometry": { "type": "Point", "coordinates": [ 138.375540399999977, 36.6792956 ] } },
{ "type": "Feature", "properties": { "内容": "グループホーム千歳【認知症対応型共同生活介護】長野県下高井郡山ノ内町大字夜間瀬2482-1", "url": "https://www.kaigokensaku.mhlw.go.jp/20/index.php?action_kouhyou_detail_004_kani=true&JigyosyoCd=2073300283-00&ServiceCd=320&Type=search", "url2": null }, "geometry": { "type": "Point", "coordinates": [ 138.403541, 36.7598677 ] } },
{ "type": "Feature", "properties": { "内容": "ゆうあいの家桜【認知症対応型共同生活介護】長野県下高井郡山ノ内町戸狩376-3", "url": "https://www.kaigokensaku.mhlw.go.jp/20/index.php?action_kouhyou_detail_004_kani=true&JigyosyoCd=2073300176-00&ServiceCd=320&Type=search", "url2": "https://www.aguri-care.com/" }, "geometry": { "type": "Point", "coordinates": [ 138.390476, 36.7457607 ] } },
{ "type": "Feature", "properties": { "内容": "グループホームゆりかご木島平【認知症対応型共同生活介護】長野県下高井郡木島平村往郷875-1", "url": "https://www.kaigokensaku.mhlw.go.jp/20/index.php?action_kouhyou_detail_004_kani=true&JigyosyoCd=2093300073-00&ServiceCd=320&Type=search", "url2": "http://www.yuri-kago.co.jp" }, "geometry": { "type": "Point", "coordinates": [ 138.406875147221427, 36.855950576244737 ] } },
{ "type": "Feature", "properties": { "内容": "グループホームふきんと【認知症対応型共同生活介護】長野県下高井郡木島平村穂高2895-8", "url": "https://www.kaigokensaku.mhlw.go.jp/20/index.php?action_kouhyou_detail_004_kani=true&JigyosyoCd=2093300107-00&ServiceCd=320&Type=search", "url2": "https://www.kiboucare.com" }, "geometry": { "type": "Point", "coordinates": [ 138.408149526983607, 36.85961834733353 ] } },
{ "type": "Feature", "properties": { "内容": "グループホーム　絆【認知症対応型共同生活介護】長野県上水内郡信濃町大字野尻3884-258", "url": "https://www.kaigokensaku.mhlw.go.jp/20/index.php?action_kouhyou_detail_004_kani=true&JigyosyoCd=2093400048-00&ServiceCd=320&Type=search", "url2": "http://j.gmobb.jp/kizuna/" }, "geometry": { "type": "Point", "coordinates": [ 138.169705499999964, 36.8268284 ] } },
{ "type": "Feature", "properties": { "内容": "おらがの里【認知症対応型共同生活介護】長野県上水内郡信濃町柏原３４８-１", "url": "https://www.kaigokensaku.mhlw.go.jp/20/index.php?action_kouhyou_detail_004_kani=true&JigyosyoCd=2073400539-00&ServiceCd=320&Type=search", "url2": "https://oragakai.jp/" }, "geometry": { "type": "Point", "coordinates": [ 138.20497720000003, 36.8087033 ] } },
{ "type": "Feature", "properties": { "内容": "グループホーム　わが家【認知症対応型共同生活介護】長野県上水内郡飯綱町倉井2907-1グループホームわが家", "url": "https://www.kaigokensaku.mhlw.go.jp/20/index.php?action_kouhyou_detail_004_kani=true&JigyosyoCd=2093400014-00&ServiceCd=320&Type=search", "url2": "http://www.ii-shakyo.or.jp" }, "geometry": { "type": "Point", "coordinates": [ 138.2602756, 36.7539447 ] } },
{ "type": "Feature", "properties": { "内容": "グループホーム・ケアプラザみつえ【認知症対応型共同生活介護】長野県上水内郡飯綱町牟礼２５１９-１", "url": "https://www.kaigokensaku.mhlw.go.jp/20/index.php?action_kouhyou_detail_004_kani=true&JigyosyoCd=2073400679-00&ServiceCd=320&Type=search", "url2": "http://careplaza-mitsue.jp/" }, "geometry": { "type": "Point", "coordinates": [ 138.234666800000014, 36.7522108 ] } }
]
}
