{
"type": "FeatureCollection",
"name": "geo_20_1",
"crs": { "type": "name", "properties": { "name": "urn:ogc:def:crs:OGC:1.3:CRS84" } },
"features": [
{ "type": "Feature", "properties": { "ID": 2011202066038, "正式名称": "長野寿光会上山田病院", "機関区分": 1, "都道府県コード": 20, "市区町村コード": 218, "所在地": "長野県千曲市上山田温泉３丁目３４番地３号", "緯度": 36.476189, "経度": 138.145832, "url": "https://www.iryou.teikyouseido.mhlw.go.jp/znk-web/juminkanja/S2430/initialize?prefCd=20&kikanCd=1202066038&kikanKbn=1", "url2": "http://naganojukoukai.com", "内容": "長野寿光会上山田病院【1:病院】【診療科目:内科_循環器内科_神経内科_総合診療科_整形外科_形成外科_皮膚科_心療内科_歯科_リハビリテーション科】【一般病床数:120療養病床数:120精神病床数:0感染症病床数:0合計病床数:240】長野県千曲市上山田温泉３丁目３４番地３号" }, "geometry": { "type": "Point", "coordinates": [ 138.145832, 36.476189 ] } },
{ "type": "Feature", "properties": { "ID": 2011203100160, "正式名称": "厚生連　長野松代総合病院附属若穂病院", "機関区分": 1, "都道府県コード": 20, "市区町村コード": 201, "所在地": "長野県長野市若穂綿内７６１５－１", "緯度": 36.610899, "経度": 138.251679, "url": "https://www.iryou.teikyouseido.mhlw.go.jp/znk-web/juminkanja/S2430/initialize?prefCd=20&kikanCd=1203100160&kikanKbn=1", "url2": "http://www.nagano-matsushiro.or.jp/wakaho/", "内容": "厚生連　長野松代総合病院附属若穂病院【1:病院】【診療科目:内科_神経内科_外科_脳神経外科_整形外科_小児科_皮膚科_泌尿器科_精神科_心療内科_リハビリテーション科】【一般病床数:0療養病床数:120精神病床数:0感染症病床数:0合計病床数:120】長野県長野市若穂綿内７６１５－１" }, "geometry": { "type": "Point", "coordinates": [ 138.251679, 36.610899 ] } },
{ "type": "Feature", "properties": { "ID": 2011203100290, "正式名称": "山田記念　朝日病院", "機関区分": 1, "都道府県コード": 20, "市区町村コード": 201, "所在地": "長野県長野市南堀１３５番地１", "緯度": 36.664504, "経度": 138.243579, "url": "https://www.iryou.teikyouseido.mhlw.go.jp/znk-web/juminkanja/S2430/initialize?prefCd=20&kikanCd=1203100290&kikanKbn=1", "url2": "https://www.asahi-hospital.com", "内容": "山田記念　朝日病院【1:病院】【診療科目:内科_循環器内科_内科（糖尿病・代謝）_外科_脳神経外科_消化器外科_乳腺・内分泌外科_肛門外科_内視鏡外科_整形外科_婦人科_眼科_リハビリテーション科_放射線科】【一般病床数:48療養病床数:0精神病床数:0感染症病床数:0合計病床数:48】長野県長野市南堀１３５番地１" }, "geometry": { "type": "Point", "coordinates": [ 138.243579, 36.664504 ] } },
{ "type": "Feature", "properties": { "ID": 2011203100320, "正式名称": "朝日ながの病院", "機関区分": 1, "都道府県コード": 20, "市区町村コード": 201, "所在地": "長野県長野市三輪１－２－４３", "緯度": 36.655642, "経度": 138.204625, "url": "https://www.iryou.teikyouseido.mhlw.go.jp/znk-web/juminkanja/S2430/initialize?prefCd=20&kikanCd=1203100320&kikanKbn=1", "url2": "https://www.asahi-nagano.com/", "内容": "朝日ながの病院【1:病院】【診療科目:内科_内視鏡内科_婦人科_泌尿器科_歯科_リハビリテーション科】【一般病床数:0療養病床数:161精神病床数:0感染症病床数:0合計病床数:161】長野県長野市三輪１－２－４３" }, "geometry": { "type": "Point", "coordinates": [ 138.204625, 36.655642 ] } },
{ "type": "Feature", "properties": { "ID": 2011203100450, "正式名称": "小島病院", "機関区分": 1, "都道府県コード": 20, "市区町村コード": 201, "所在地": "長野県長野市若里５丁目８番６", "緯度": 36.628276, "経度": 138.185661, "url": "https://www.iryou.teikyouseido.mhlw.go.jp/znk-web/juminkanja/S2430/initialize?prefCd=20&kikanCd=1203100450&kikanKbn=1", "url2": "http://kojima-hosp.or.jp/", "内容": "小島病院【1:病院】【診療科目:内科_ペインクリニック内科_外科_消化器外科_ペインクリニック外科_婦人科_アレルギー科_麻酔科】【一般病床数:0療養病床数:77精神病床数:0感染症病床数:0合計病床数:77】長野県長野市若里５丁目８番６" }, "geometry": { "type": "Point", "coordinates": [ 138.185661, 36.628276 ] } },
{ "type": "Feature", "properties": { "ID": 2011205100180, "正式名称": "佐久市立国保浅間総合病院", "機関区分": 1, "都道府県コード": 20, "市区町村コード": 217, "所在地": "長野県佐久市岩村田１８６２－１", "緯度": 36.270693, "経度": 138.469368, "url": "https://www.iryou.teikyouseido.mhlw.go.jp/znk-web/juminkanja/S2430/initialize?prefCd=20&kikanCd=1205100180&kikanKbn=1", "url2": "http://www.asamaghp.jp/", "内容": "佐久市立国保浅間総合病院【1:病院】【診療科目:内科_糖尿病内科_循環器内科_外科_脳神経外科_血管外科_肛門外科_整形外科_形成外科_小児科_産婦人科_眼科_耳鼻いんこう科_皮膚科_泌尿器科_精神科_歯科_歯科口腔外科_リハビリテーション科_放射線科_病理診断科_麻酔科】【一般病床数:199療養病床数:0精神病床数:0感染症病床数:0合計病床数:199】長野県佐久市岩村田１８６２－１" }, "geometry": { "type": "Point", "coordinates": [ 138.469368, 36.270693 ] } },
{ "type": "Feature", "properties": { "ID": 2011205100210, "正式名称": "医療法人三世会　金澤病院", "機関区分": 1, "都道府県コード": 20, "市区町村コード": 217, "所在地": "長野県佐久市岩村田８０７", "緯度": 36.274582, "経度": 138.478672, "url": "https://www.iryou.teikyouseido.mhlw.go.jp/znk-web/juminkanja/S2430/initialize?prefCd=20&kikanCd=1205100210&kikanKbn=1", "url2": "https://www.kanazawahp.or.jp/", "内容": "医療法人三世会　金澤病院【1:病院】【診療科目:内科_糖尿病・内分泌内科_呼吸器内科_循環器内科_消化器内科_外科_整形外科_皮膚科_泌尿器科_リウマチ科_リハビリテーション科_放射線科】【一般病床数:52療養病床数:30精神病床数:0感染症病床数:0合計病床数:82】長野県佐久市岩村田８０７" }, "geometry": { "type": "Point", "coordinates": [ 138.478672, 36.274582 ] } },
{ "type": "Feature", "properties": { "ID": 2011205100470, "正式名称": "長野県厚生農業協同組合連合会佐久総合病院", "機関区分": 1, "都道府県コード": 20, "市区町村コード": 217, "所在地": "長野県佐久市臼田１９７番地", "緯度": 36.198396, "経度": 138.480897, "url": "https://www.iryou.teikyouseido.mhlw.go.jp/znk-web/juminkanja/S2430/initialize?prefCd=20&kikanCd=1205100470&kikanKbn=1", "url2": "https://sakuhp.or.jp/", "内容": "長野県厚生農業協同組合連合会佐久総合病院【1:病院】【診療科目:内科_感染症内科_血液内科_代謝・内分泌内科_脳神経内科_呼吸器内科_循環器内科_消化器内科_腎臓内科_漢方内科_外科_脳神経外科_呼吸器外科_心臓血管外科_消化器外科_乳腺外科_肛門外科_ペインクリニック外科_整形外科_形成外科_小児科_小児外科_婦人科_眼科_耳鼻いんこう科_皮膚科_泌尿器科_女性泌尿器科_精神科_心療内科_歯科_矯正歯科_歯科口腔外科_アレルギー科_リウマチ科_リハビリテーション科_放射線診断科_臨床検査科_救急科_麻酔科】【一般病床数:197療養病床数:42精神病床数:36感染症病床数:0合計病床数:275】長野県佐久市臼田１９７番地" }, "geometry": { "type": "Point", "coordinates": [ 138.480897, 36.198396 ] } },
{ "type": "Feature", "properties": { "ID": 2011205100500, "正式名称": "医療法人雨宮病院", "機関区分": 1, "都道府県コード": 20, "市区町村コード": 217, "所在地": "長野県佐久市下小田切７３", "緯度": 36.192258, "経度": 138.479148, "url": "https://www.iryou.teikyouseido.mhlw.go.jp/znk-web/juminkanja/S2430/initialize?prefCd=20&kikanCd=1205100500&kikanKbn=1", "url2": "https://www.amemiya.or.jp/", "内容": "医療法人雨宮病院【1:病院】【診療科目:内科_外科_整形外科_形成外科_皮膚科_泌尿器科_アレルギー科_リウマチ科_リハビリテーション科_放射線科】【一般病床数:54療養病床数:0精神病床数:0感染症病床数:0合計病床数:54】長野県佐久市下小田切７３" }, "geometry": { "type": "Point", "coordinates": [ 138.479148, 36.192258 ] } },
{ "type": "Feature", "properties": { "ID": 2011205100630, "正式名称": "佐久穂町立千曲病院", "機関区分": 1, "都道府県コード": 20, "市区町村コード": 309, "所在地": "長野県南佐久郡佐久穂町高野町３２８", "緯度": 36.161923, "経度": 138.477532, "url": "https://www.iryou.teikyouseido.mhlw.go.jp/znk-web/juminkanja/S2430/initialize?prefCd=20&kikanCd=1205100630&kikanKbn=1", "url2": "http://www.chikumahospital.jp/", "内容": "佐久穂町立千曲病院【1:病院】【診療科目:内科_呼吸器内科_循環器内科_消化器内科_神経内科_外科_整形外科_小児科_眼科_皮膚科_泌尿器科_リウマチ科_放射線科_麻酔科】【一般病床数:52療養病床数:27精神病床数:0感染症病床数:0合計病床数:79】長野県南佐久郡佐久穂町高野町３２８" }, "geometry": { "type": "Point", "coordinates": [ 138.477532, 36.161923 ] } },
{ "type": "Feature", "properties": { "ID": 2011205101060, "正式名称": "軽井沢町国民健康保険軽井沢病院", "機関区分": 1, "都道府県コード": 20, "市区町村コード": 321, "所在地": "長野県北佐久郡軽井沢町長倉２３７５番地１", "緯度": 36.348382, "経度": 138.598548, "url": "https://www.iryou.teikyouseido.mhlw.go.jp/znk-web/juminkanja/S2430/initialize?prefCd=20&kikanCd=1205101060&kikanKbn=1", "url2": "https://www.town.karuizawa.lg.jp/site/hospital/", "内容": "軽井沢町国民健康保険軽井沢病院【1:病院】【診療科目:内科_外科_脳神経外科_肛門外科_整形外科_形成外科_小児科_小児外科_産婦人科_眼科_耳鼻いんこう科_皮膚科_泌尿器科_リハビリテーション科_麻酔科】【一般病床数:58療養病床数:45精神病床数:0感染症病床数:0合計病床数:103】長野県北佐久郡軽井沢町長倉２３７５番地１" }, "geometry": { "type": "Point", "coordinates": [ 138.598548, 36.348382 ] } },
{ "type": "Feature", "properties": { "ID": 2011205101190, "正式名称": "長野県厚生農業協同組合連合会佐久総合病院小海分院", "機関区分": 1, "都道府県コード": 20, "市区町村コード": 303, "所在地": "長野県南佐久郡小海町大字豊里７８番地", "緯度": 36.094328, "経度": 138.483633, "url": "https://www.iryou.teikyouseido.mhlw.go.jp/znk-web/juminkanja/S2430/initialize?prefCd=20&kikanCd=1205101190&kikanKbn=1", "url2": "http://www.sakuhp.or.jp", "内容": "長野県厚生農業協同組合連合会佐久総合病院小海分院【1:病院】【診療科目:内科_外科_整形外科_小児科_リハビリテーション科】【一般病床数:50療養病床数:49精神病床数:0感染症病床数:0合計病床数:99】長野県南佐久郡小海町大字豊里７８番地" }, "geometry": { "type": "Point", "coordinates": [ 138.483633, 36.094328 ] } },
{ "type": "Feature", "properties": { "ID": 2011205101220, "正式名称": "長野県厚生農業協同組合連合会　佐久総合病院　佐久医療センター", "機関区分": 1, "都道府県コード": 20, "市区町村コード": 217, "所在地": "長野県佐久市中込３４００番地２８", "緯度": 36.251807, "経度": 138.471924, "url": "https://www.iryou.teikyouseido.mhlw.go.jp/znk-web/juminkanja/S2430/initialize?prefCd=20&kikanCd=1205101220&kikanKbn=1", "url2": "http://www.sakuhp.or.jp", "内容": "長野県厚生農業協同組合連合会　佐久総合病院　佐久医療センター【1:病院】【診療科目:内科_感染症内科_血液内科_糖尿病・内分泌内科_脳神経内科_呼吸器内科_循環器内科_消化器内科_腎臓内科_腫瘍内科_内視鏡内科_緩和ケア内科_移植内科_外科_脳神経外科_呼吸器外科_心臓血管外科_消化器外科_乳腺外科_肛門外科_移植外科_整形外科_形成外科_小児科_小児外科_産科_婦人科_眼科_耳鼻いんこう科_皮膚科_泌尿器科_精神科_心療内科_歯科口腔外科_アレルギー科_リハビリテーション科_放射線診断科_放射線治療科_病理診断科_臨床検査科_救急科_麻酔科_リウマチ・膠原病内科】【一般病床数:446療養病床数:0精神病床数:0感染症病床数:4合計病床数:450】長野県佐久市中込３４００番地２８" }, "geometry": { "type": "Point", "coordinates": [ 138.471924, 36.251807 ] } },
{ "type": "Feature", "properties": { "ID": 2011205101350, "正式名称": "くろさわ病院", "機関区分": 1, "都道府県コード": 20, "市区町村コード": 217, "所在地": "長野県佐久市中込１丁目１７番地８", "緯度": 36.230887, "経度": 138.478199, "url": "https://www.iryou.teikyouseido.mhlw.go.jp/znk-web/juminkanja/S2430/initialize?prefCd=20&kikanCd=1205101350&kikanKbn=1", "url2": "http://www.keijinnet.or.jp/", "内容": "くろさわ病院【1:病院】【診療科目:内科_外科_整形外科_形成外科_婦人科_皮膚科_泌尿器科_リハビリテーション科】【一般病床数:37療養病床数:46精神病床数:0感染症病床数:0合計病床数:83】長野県佐久市中込１丁目１７番地８" }, "geometry": { "type": "Point", "coordinates": [ 138.478199, 36.230887 ] } },
{ "type": "Feature", "properties": { "ID": 2011205101480, "正式名称": "長野県厚生農業協同組合連合会　浅間南麓こもろ医療センター", "機関区分": 1, "都道府県コード": 20, "市区町村コード": 208, "所在地": "長野県小諸市相生町三丁目３番２１号", "緯度": 36.328152, "経度": 138.425191, "url": "https://www.iryou.teikyouseido.mhlw.go.jp/znk-web/juminkanja/S2430/initialize?prefCd=20&kikanCd=1205101480&kikanKbn=1", "url2": "http://www.komoro-mc.com", "内容": "長野県厚生農業協同組合連合会　浅間南麓こもろ医療センター【1:病院】【診療科目:内科_糖尿病内科_内分泌内科_脳神経内科_呼吸器内科_循環器内科_消化器内科_腎臓内科_外科_脳神経外科_消化器外科_乳腺外科_肛門外科_整形外科_形成外科_小児科_小児外科_産婦人科_眼科_耳鼻いんこう科_皮膚科_泌尿器科_精神科_歯科口腔外科_リウマチ科_リハビリテーション科_放射線科_病理診断科_麻酔科】【一般病床数:246療養病床数:0精神病床数:0感染症病床数:0合計病床数:246】長野県小諸市相生町三丁目３番２１号" }, "geometry": { "type": "Point", "coordinates": [ 138.425191, 36.328152 ] } },
{ "type": "Feature", "properties": { "ID": 2011205200110, "正式名称": "独立行政法人国立病院機構　小諸高原病院", "機関区分": 1, "都道府県コード": 20, "市区町村コード": 208, "所在地": "長野県小諸市甲４５９８", "緯度": 36.346101, "経度": 138.448422, "url": "https://www.iryou.teikyouseido.mhlw.go.jp/znk-web/juminkanja/S2430/initialize?prefCd=20&kikanCd=1205200110&kikanKbn=1", "url2": "https://komorokogen.hosp.go.jp/", "内容": "独立行政法人国立病院機構　小諸高原病院【1:病院】【診療科目:内科_小児科_精神科_心療内科】【一般病床数:60療養病床数:0精神病床数:185感染症病床数:0合計病床数:245】長野県小諸市甲４５９８" }, "geometry": { "type": "Point", "coordinates": [ 138.448422, 36.346101 ] } },
{ "type": "Feature", "properties": { "ID": 2011205200660, "正式名称": "日本赤十字社　川西赤十字病院", "機関区分": 1, "都道府県コード": 20, "市区町村コード": 217, "所在地": "長野県佐久市望月３１８", "緯度": 36.265719, "経度": 138.358572, "url": "https://www.iryou.teikyouseido.mhlw.go.jp/znk-web/juminkanja/S2430/initialize?prefCd=20&kikanCd=1205200660&kikanKbn=1", "url2": "https://kawanishi.jrc.or.jp", "内容": "日本赤十字社　川西赤十字病院【1:病院】【診療科目:内科_循環器内科_消化器内科_外科_整形外科_小児科_眼科_泌尿器科_リウマチ科_リハビリテーション科】【一般病床数:51療養病床数:33精神病床数:0感染症病床数:0合計病床数:84】長野県佐久市望月３１８" }, "geometry": { "type": "Point", "coordinates": [ 138.358572, 36.265719 ] } },
{ "type": "Feature", "properties": { "ID": 2011205200950, "正式名称": "医療法人社団軽井沢西部総合病院", "機関区分": 1, "都道府県コード": 20, "市区町村コード": 323, "所在地": "長野県北佐久郡御代田町御代田４１０７－４０", "緯度": 36.311801, "経度": 138.515779, "url": "https://www.iryou.teikyouseido.mhlw.go.jp/znk-web/juminkanja/S2430/initialize?prefCd=20&kikanCd=1205200950&kikanKbn=1", "url2": "https://miyotahp.jp/", "内容": "医療法人社団軽井沢西部総合病院【1:病院】【診療科目:内科_糖尿病内科_循環器内科_外科_心臓血管外科_消化器外科_整形外科_産婦人科_眼科_耳鼻いんこう科_皮膚科_心療内科_歯科_歯科口腔外科_小児歯科_リウマチ科_リハビリテーション科_放射線科_救急科】【一般病床数:116療養病床数:42精神病床数:0感染症病床数:0合計病床数:158】長野県北佐久郡御代田町御代田４１０７－４０" }, "geometry": { "type": "Point", "coordinates": [ 138.515779, 36.311801 ] } },
{ "type": "Feature", "properties": { "ID": 2011205300140, "正式名称": "独立行政法人国立病院機構　信州上田医療センター", "機関区分": 1, "都道府県コード": 20, "市区町村コード": 203, "所在地": "長野県上田市緑が丘１－２７－２１", "緯度": 36.413005, "経度": 138.251437, "url": "https://www.iryou.teikyouseido.mhlw.go.jp/znk-web/juminkanja/S2430/initialize?prefCd=20&kikanCd=1205300140&kikanKbn=1", "url2": "https://shinshuueda.hosp.go.jp/", "内容": "独立行政法人国立病院機構　信州上田医療センター【1:病院】【診療科目:内科_血液内科_糖尿病・内分泌内科_脳神経内科_呼吸器内科_循環器内科_消化器内科_腎臓内科_腫瘍内科_緩和ケア内科_脳神経内科_外科_脳神経外科_呼吸器外科_心臓血管外科_消化器外科_乳腺・内分泌外科_整形外科_形成外科_小児科_産科_婦人科_眼科_耳鼻いんこう科_皮膚科_泌尿器科_精神科_心療内科_歯科口腔外科_リウマチ科_リハビリテーション科_放射線診断科_放射線治療科_病理診断科_救急科_麻酔科_膠原病内科】【一般病床数:416療養病床数:0精神病床数:0感染症病床数:4合計病床数:420】長野県上田市緑が丘１－２７－２１" }, "geometry": { "type": "Point", "coordinates": [ 138.251437, 36.413005 ] } },
{ "type": "Feature", "properties": { "ID": 2011205300300, "正式名称": "医療法人健救会柳澤病院", "機関区分": 1, "都道府県コード": 20, "市区町村コード": 203, "所在地": "長野県上田市中央西１－２－１０", "緯度": 36.4052, "経度": 138.248076, "url": "https://www.iryou.teikyouseido.mhlw.go.jp/znk-web/juminkanja/S2430/initialize?prefCd=20&kikanCd=1205300300&kikanKbn=1", "url2": "http://kenkyukai.or.jp", "内容": "医療法人健救会柳澤病院【1:病院】【診療科目:内科_糖尿病内科_循環器内科_消化器内科_神経内科_外科_整形外科_形成外科_リハビリテーション科】【一般病床数:35療養病床数:63精神病床数:0感染症病床数:0合計病床数:98】長野県上田市中央西１－２－１０" }, "geometry": { "type": "Point", "coordinates": [ 138.248076, 36.4052 ] } },
{ "type": "Feature", "properties": { "ID": 2011205300430, "正式名称": "医療法人慈善会安藤病院", "機関区分": 1, "都道府県コード": 20, "市区町村コード": 203, "所在地": "長野県上田市中央西１ー１－２０", "緯度": 36.405311, "経度": 138.249576, "url": "https://www.iryou.teikyouseido.mhlw.go.jp/znk-web/juminkanja/S2430/initialize?prefCd=20&kikanCd=1205300430&kikanKbn=1", "url2": "http://www.ando-hp.com", "内容": "医療法人慈善会安藤病院【1:病院】【診療科目:内科_呼吸器内科_消化器内科_胃腸内科_外科_整形外科_皮膚科_精神科_心療内科_リハビリテーション科】【一般病床数:70療養病床数:44精神病床数:104感染症病床数:0合計病床数:218】長野県上田市中央西１ー１－２０" }, "geometry": { "type": "Point", "coordinates": [ 138.249576, 36.405311 ] } },
{ "type": "Feature", "properties": { "ID": 2011205300560, "正式名称": "医療法人健静会上田病院", "機関区分": 1, "都道府県コード": 20, "市区町村コード": 203, "所在地": "長野県上田市中央１－３－３", "緯度": 36.398784, "経度": 138.251576, "url": "https://www.iryou.teikyouseido.mhlw.go.jp/znk-web/juminkanja/S2430/initialize?prefCd=20&kikanCd=1205300560&kikanKbn=1", "url2": "http://www.ueda-hp.or.jp/", "内容": "医療法人健静会上田病院【1:病院】【診療科目:内科_外科_心臓血管外科_消化器外科_肛門外科_整形外科_小児科_婦人科_皮膚科_泌尿器科_リウマチ科_リハビリテーション科_放射線科_麻酔科】【一般病床数:35療養病床数:37精神病床数:0感染症病床数:0合計病床数:72】長野県上田市中央１－３－３" }, "geometry": { "type": "Point", "coordinates": [ 138.251576, 36.398784 ] } },
{ "type": "Feature", "properties": { "ID": 2011205300720, "正式名称": "医療法人友愛会千曲荘病院", "機関区分": 1, "都道府県コード": 20, "市区町村コード": 203, "所在地": "長野県上田市中央東４－６１", "緯度": 36.403145, "経度": 138.266408, "url": "https://www.iryou.teikyouseido.mhlw.go.jp/znk-web/juminkanja/S2430/initialize?prefCd=20&kikanCd=1205300720&kikanKbn=1", "url2": "http://tikumaso.jp", "内容": "医療法人友愛会千曲荘病院【1:病院】【診療科目:内科_精神科_神経科_心療内科】【一般病床数:0療養病床数:0精神病床数:230感染症病床数:0合計病床数:230】長野県上田市中央東４－６１" }, "geometry": { "type": "Point", "coordinates": [ 138.266408, 36.403145 ] } },
{ "type": "Feature", "properties": { "ID": 2011205300850, "正式名称": "医療法人共和会塩田病院", "機関区分": 1, "都道府県コード": 20, "市区町村コード": 203, "所在地": "長野県上田市中野２９番地２", "緯度": 36.36462, "経度": 138.191805, "url": "https://www.iryou.teikyouseido.mhlw.go.jp/znk-web/juminkanja/S2430/initialize?prefCd=20&kikanCd=1205300850&kikanKbn=1", "url2": "http://shioda-hp.jp/", "内容": "医療法人共和会塩田病院【1:病院】【診療科目:内科_糖尿病内科_呼吸器内科_外科_消化器外科_肛門外科_整形外科_小児科_歯科_歯科口腔外科】【一般病床数:47療養病床数:0精神病床数:0感染症病床数:0合計病床数:47】長野県上田市中野２９番地２" }, "geometry": { "type": "Point", "coordinates": [ 138.191805, 36.36462 ] } },
{ "type": "Feature", "properties": { "ID": 2011205300980, "正式名称": "医療法人仁和会　整形外科上田花園病院", "機関区分": 1, "都道府県コード": 20, "市区町村コード": 203, "所在地": "長野県上田市中央西１－１５－２５", "緯度": 36.408005, "経度": 138.24852, "url": "https://www.iryou.teikyouseido.mhlw.go.jp/znk-web/juminkanja/S2430/initialize?prefCd=20&kikanCd=1205300980&kikanKbn=1", "url2": "http://hanazono.life.coocan.jp/", "内容": "医療法人仁和会　整形外科上田花園病院【1:病院】【診療科目:内科_循環器内科_整形外科_リウマチ科_リハビリテーション科】【一般病床数:36療養病床数:0精神病床数:0感染症病床数:0合計病床数:36】長野県上田市中央西１－１５－２５" }, "geometry": { "type": "Point", "coordinates": [ 138.24852, 36.408005 ] } },
{ "type": "Feature", "properties": { "ID": 2011205301020, "正式名称": "医療法人健和会　小林脳神経外科・神経内科病院", "機関区分": 1, "都道府県コード": 20, "市区町村コード": 203, "所在地": "長野県上田市常田３‐１５‐４１", "緯度": 36.393868, "経度": 138.265158, "url": "https://www.iryou.teikyouseido.mhlw.go.jp/znk-web/juminkanja/S2430/initialize?prefCd=20&kikanCd=1205301020&kikanKbn=1", "url2": "http://www.k-nougeka.or.jp", "内容": "医療法人健和会　小林脳神経外科・神経内科病院【1:病院】【診療科目:神経内科_脳神経外科_リハビリテーション科】【一般病床数:88療養病床数:0精神病床数:0感染症病床数:0合計病床数:88】長野県上田市常田３‐１５‐４１" }, "geometry": { "type": "Point", "coordinates": [ 138.265158, 36.393868 ] } },
{ "type": "Feature", "properties": { "ID": 2011205301280, "正式名称": "長野県厚生農業協同組合連合会　鹿教湯三才山リハビリテーションセンター　鹿教湯病院", "機関区分": 1, "都道府県コード": 20, "市区町村コード": 203, "所在地": "長野県上田市鹿教湯温泉１３０８", "緯度": 36.301987, "経度": 138.135757, "url": "https://www.iryou.teikyouseido.mhlw.go.jp/znk-web/juminkanja/S2430/initialize?prefCd=20&kikanCd=1205301280&kikanKbn=1", "url2": "https://km-rehacenter.jp/", "内容": "長野県厚生農業協同組合連合会　鹿教湯三才山リハビリテーションセンター　鹿教湯病院【1:病院】【診療科目:内科_脳神経内科_呼吸器内科_循環器内科_消化器内科_外科_脳神経外科_整形外科_小児科_眼科_耳鼻いんこう科_皮膚科_泌尿器科_精神科_歯科_リウマチ科_リハビリテーション科_放射線診断科_リウマチ・膠原病内科】【一般病床数:235療養病床数:240精神病床数:0感染症病床数:0合計病床数:475】長野県上田市鹿教湯温泉１３０８" }, "geometry": { "type": "Point", "coordinates": [ 138.135757, 36.301987 ] } },
{ "type": "Feature", "properties": { "ID": 2011205301440, "正式名称": "メンタルサポートそよかぜ病院", "機関区分": 1, "都道府県コード": 20, "市区町村コード": 203, "所在地": "長野県上田市塩川３０５７－１", "緯度": 36.363511, "経度": 138.294296, "url": "https://www.iryou.teikyouseido.mhlw.go.jp/znk-web/juminkanja/S2430/initialize?prefCd=20&kikanCd=1205301440&kikanKbn=1", "url2": "https://www.seitaikai.or.jp/", "内容": "メンタルサポートそよかぜ病院【1:病院】【診療科目:内科_精神科】【一般病床数:0療養病床数:0精神病床数:113感染症病床数:0合計病床数:113】長野県上田市塩川３０５７－１" }, "geometry": { "type": "Point", "coordinates": [ 138.294296, 36.363511 ] } },
{ "type": "Feature", "properties": { "ID": 2011205301730, "正式名称": "国民健康保険依田窪病院", "機関区分": 1, "都道府県コード": 20, "市区町村コード": 350, "所在地": "長野県小県郡長和町古町２８５７", "緯度": 36.273466, "経度": 138.265996, "url": "https://www.iryou.teikyouseido.mhlw.go.jp/znk-web/juminkanja/S2430/initialize?prefCd=20&kikanCd=1205301730&kikanKbn=1", "url2": "http://www.yodakubo-hp.jp/", "内容": "国民健康保険依田窪病院【1:病院】【診療科目:内科_呼吸器内科_循環器内科_消化器内科_外科_脳神経外科_心臓血管外科_整形外科_小児科_眼科_耳鼻いんこう科_皮膚科_泌尿器科_リウマチ科_リハビリテーション科】【一般病床数:131療養病床数:0精神病床数:0感染症病床数:0合計病床数:131】長野県小県郡長和町古町２８５７" }, "geometry": { "type": "Point", "coordinates": [ 138.265996, 36.273466 ] } },
{ "type": "Feature", "properties": { "ID": 2011205301990, "正式名称": "信濃病院", "機関区分": 1, "都道府県コード": 20, "市区町村コード": 219, "所在地": "長野県東御市滋野乙３２９７番地", "緯度": 36.353765, "経度": 138.382428, "url": "https://www.iryou.teikyouseido.mhlw.go.jp/znk-web/juminkanja/S2430/initialize?prefCd=20&kikanCd=1205301990&kikanKbn=1", "url2": "http://www.shinanohospital.com", "内容": "信濃病院【1:病院】【診療科目:内科_精神科_神経科】【一般病床数:0療養病床数:0精神病床数:101感染症病床数:0合計病床数:101】長野県東御市滋野乙３２９７番地" }, "geometry": { "type": "Point", "coordinates": [ 138.382428, 36.353765 ] } },
{ "type": "Feature", "properties": { "ID": 2011205302160, "正式名称": "東御市民病院", "機関区分": 1, "都道府県コード": 20, "市区町村コード": 219, "所在地": "長野県東御市鞍掛１９８", "緯度": 36.359763, "経度": 138.350097, "url": "https://www.iryou.teikyouseido.mhlw.go.jp/znk-web/juminkanja/S2430/initialize?prefCd=20&kikanCd=1205302160&kikanKbn=1", "url2": "http://hospital.city.tomi.nagano.jp/simin/", "内容": "東御市民病院【1:病院】【診療科目:内科_外科_整形外科_小児科_産婦人科_眼科_泌尿器科_人工透析_アレルギー科_リハビリテーション科】【一般病床数:60療養病床数:0精神病床数:0感染症病床数:0合計病床数:60】長野県東御市鞍掛１９８" }, "geometry": { "type": "Point", "coordinates": [ 138.350097, 36.359763 ] } },
{ "type": "Feature", "properties": { "ID": 2011205302320, "正式名称": "丸子中央病院", "機関区分": 1, "都道府県コード": 20, "市区町村コード": 203, "所在地": "長野県上田市中丸子１７７１－１", "緯度": 36.33818, "経度": 138.270521, "url": "https://www.iryou.teikyouseido.mhlw.go.jp/znk-web/juminkanja/S2430/initialize?prefCd=20&kikanCd=1205302320&kikanKbn=1", "url2": "http://maruko-hp.jp/", "内容": "丸子中央病院【1:病院】【診療科目:内科_糖尿病内科_呼吸器内科_循環器内科_消化器内科_腎臓内科_人工透析内科_神経内科_内視鏡内科_外科_脳神経外科_呼吸器外科_心臓血管外科_整形外科_形成外科_小児科_眼科_耳鼻いんこう科_皮膚科_泌尿器科_精神科_心療内科_歯科_歯科口腔外科_リウマチ科_リハビリテーション科_放射線科_臨床検査科_救急科_麻酔科】【一般病床数:149療養病床数:50精神病床数:0感染症病床数:0合計病床数:199】長野県上田市中丸子１７７１－１" }, "geometry": { "type": "Point", "coordinates": [ 138.270521, 36.33818 ] } },
{ "type": "Feature", "properties": { "ID": 2011205400330, "正式名称": "医療法人超年会上諏訪病院", "機関区分": 1, "都道府県コード": 20, "市区町村コード": 206, "所在地": "長野県諏訪市大手１－１７－７", "緯度": 36.043405, "経度": 138.115213, "url": "https://www.iryou.teikyouseido.mhlw.go.jp/znk-web/juminkanja/S2430/initialize?prefCd=20&kikanCd=1205400330&kikanKbn=1", "url2": "http://www.kamisuwa-hp.or.jp", "内容": "医療法人超年会上諏訪病院【1:病院】【診療科目:精神科_心療内科】【一般病床数:0療養病床数:0精神病床数:77感染症病床数:0合計病床数:77】長野県諏訪市大手１－１７－７" }, "geometry": { "type": "Point", "coordinates": [ 138.115213, 36.043405 ] } },
{ "type": "Feature", "properties": { "ID": 2011205400590, "正式名称": "諏訪城東病院", "機関区分": 1, "都道府県コード": 20, "市区町村コード": 206, "所在地": "長野県諏訪市大手二丁目３番５号", "緯度": 36.043182, "経度": 138.11638, "url": "https://www.iryou.teikyouseido.mhlw.go.jp/znk-web/juminkanja/S2430/initialize?prefCd=20&kikanCd=1205400590&kikanKbn=1", "url2": null, "内容": "諏訪城東病院【1:病院】【診療科目:内科_循環器内科_消化器内科_外科_精神科_神経科_心療内科】【一般病床数:0療養病床数:48精神病床数:0感染症病床数:0合計病床数:48】長野県諏訪市大手二丁目３番５号" }, "geometry": { "type": "Point", "coordinates": [ 138.11638, 36.043182 ] } },
{ "type": "Feature", "properties": { "ID": 2011205401050, "正式名称": "長野県厚生農業協同組合連合会　富士見高原医療福祉センター　富士見高原病院", "機関区分": 1, "都道府県コード": 20, "市区町村コード": 362, "所在地": "長野県諏訪郡富士見町落合１１１００番地", "緯度": 35.914617, "経度": 138.243096, "url": "https://www.iryou.teikyouseido.mhlw.go.jp/znk-web/juminkanja/S2430/initialize?prefCd=20&kikanCd=1205401050&kikanKbn=1", "url2": "http://www.fujimihp.com/", "内容": "長野県厚生農業協同組合連合会　富士見高原医療福祉センター　富士見高原病院【1:病院】【診療科目:内科_呼吸器内科_循環器内科_消化器内科_神経内科_外科_肛門外科_整形外科_形成外科_小児科_産婦人科_眼科_耳鼻いんこう科_皮膚科_泌尿器科_精神科_歯科口腔外科_リハビリテーション科_放射線科_麻酔科】【一般病床数:161療養病床数:0精神病床数:0感染症病床数:0合計病床数:161】長野県諏訪郡富士見町落合１１１００番地" }, "geometry": { "type": "Point", "coordinates": [ 138.243096, 35.914617 ] } },
{ "type": "Feature", "properties": { "ID": 2011205401180, "正式名称": "組合立　諏訪中央病院", "機関区分": 1, "都道府県コード": 20, "市区町村コード": 214, "所在地": "長野県茅野市玉川４３００番地", "緯度": 35.990996, "経度": 138.176904, "url": "https://www.iryou.teikyouseido.mhlw.go.jp/znk-web/juminkanja/S2430/initialize?prefCd=20&kikanCd=1205401180&kikanKbn=1", "url2": "http://www.suwachuo.jp/", "内容": "組合立　諏訪中央病院【1:病院】【診療科目:内科_感染症内科_血液内科_代謝内科_内分泌内科_脳神経内科_呼吸器内科_循環器内科_消化器内科_腎臓内科_腫瘍内科_漢方内科_外科_脳神経外科_消化器外科_乳腺外科_肛門外科_整形外科_小児科_産婦人科_眼科_耳鼻いんこう科_皮膚科_泌尿器科_精神科_歯科口腔外科_リウマチ科_リハビリテーション科_放射線科_病理診断科_救急科_麻酔科】【一般病床数:315療養病床数:45精神病床数:0感染症病床数:0合計病床数:360】長野県茅野市玉川４３００番地" }, "geometry": { "type": "Point", "coordinates": [ 138.176904, 35.990996 ] } },
{ "type": "Feature", "properties": { "ID": 2011205401210, "正式名称": "諏訪赤十字病院", "機関区分": 1, "都道府県コード": 20, "市区町村コード": 206, "所在地": "長野県諏訪市湖岸通り５丁目１１番５０号", "緯度": 36.043016, "経度": 138.10688, "url": "https://www.iryou.teikyouseido.mhlw.go.jp/znk-web/juminkanja/S2430/initialize?prefCd=20&kikanCd=1205401210&kikanKbn=1", "url2": "https://www.suwa.jrc.or.jp", "内容": "諏訪赤十字病院【1:病院】【診療科目:内科_血液内科_糖尿病・内分泌内科_脳神経内科_呼吸器内科_循環器内科_消化器内科_腎臓内科_腫瘍内科_緩和ケア内科_外科_脳神経外科_呼吸器外科_心臓血管外科_消化器外科_乳腺・内分泌外科_整形外科_形成外科_小児科_産婦人科_眼科_頭頸部・耳鼻いんこう科_皮膚科_泌尿器科_精神科_歯科口腔外科_リハビリテーション科_放射線科_病理診断科_救急科_麻酔科_リウマチ・膠原病内科】【一般病床数:425療養病床数:0精神病床数:30感染症病床数:0合計病床数:455】長野県諏訪市湖岸通り５丁目１１番５０号" }, "geometry": { "type": "Point", "coordinates": [ 138.10688, 36.043016 ] } },
{ "type": "Feature", "properties": { "ID": 2011205401340, "正式名称": "岡谷市民病院", "機関区分": 1, "都道府県コード": 20, "市区町村コード": 204, "所在地": "長野県岡谷市本町四丁目１１番３３号", "緯度": 36.065407, "経度": 138.047031, "url": "https://www.iryou.teikyouseido.mhlw.go.jp/znk-web/juminkanja/S2430/initialize?prefCd=20&kikanCd=1205401340&kikanKbn=1", "url2": "https://www.okaya-hosp.jp/", "内容": "岡谷市民病院【1:病院】【診療科目:内科_脳神経内科_呼吸器内科_循環器内科_消化器内科_腎臓内科_腫瘍内科_緩和ケア内科_糖尿病・内分泌代謝内科、総合診療科（内科）_外科_呼吸器外科_心臓血管外科_消化器外科_肝臓・胆のう・膵臓外科_乳腺外科_整形外科_総合診療科（外科）_小児科_小児外科_産婦人科_眼科_耳鼻咽喉科・頭頸部外科_皮膚科_泌尿器科_精神科_心療内科_歯科口腔外科_リウマチ科_リハビリテーション科_病理診断科_麻酔科】【一般病床数:266療養病床数:25精神病床数:0感染症病床数:4合計病床数:295】長野県岡谷市本町四丁目１１番３３号" }, "geometry": { "type": "Point", "coordinates": [ 138.047031, 36.065407 ] } },
{ "type": "Feature", "properties": { "ID": 2011205500360, "正式名称": "医療法人研成会諏訪湖畔病院", "機関区分": 1, "都道府県コード": 20, "市区町村コード": 204, "所在地": "長野県岡谷市長地小萩１－１１－３０", "緯度": 36.080954, "経度": 138.056078, "url": "https://www.iryou.teikyouseido.mhlw.go.jp/znk-web/juminkanja/S2430/initialize?prefCd=20&kikanCd=1205500360&kikanKbn=1", "url2": "https://www.suwakohan-hp.jp", "内容": "医療法人研成会諏訪湖畔病院【1:病院】【診療科目:内科_脳神経内科_循環器内科_消化器内科_脳神経外科_整形外科_泌尿器科_精神科_心療内科_歯科_歯科口腔外科_リハビリテーション科】【一般病床数:140療養病床数:0精神病床数:105感染症病床数:0合計病床数:245】長野県岡谷市長地小萩１－１１－３０" }, "geometry": { "type": "Point", "coordinates": [ 138.056078, 36.080954 ] } },
{ "type": "Feature", "properties": { "ID": 2011205500520, "正式名称": "諏訪共立病院", "機関区分": 1, "都道府県コード": 20, "市区町村コード": 361, "所在地": "長野県諏訪郡下諏訪町矢木町", "緯度": 36.077317, "経度": 138.082131, "url": "https://www.iryou.teikyouseido.mhlw.go.jp/znk-web/juminkanja/S2430/initialize?prefCd=20&kikanCd=1205500520&kikanKbn=1", "url2": "http://www.skhp.or.jp/", "内容": "諏訪共立病院【1:病院】【診療科目:内科_循環器内科_消化器内科_外科_心療内科】【一般病床数:56療養病床数:54精神病床数:0感染症病床数:0合計病床数:110】長野県諏訪郡下諏訪町矢木町" }, "geometry": { "type": "Point", "coordinates": [ 138.082131, 36.077317 ] } },
{ "type": "Feature", "properties": { "ID": 2011205500650, "正式名称": "信濃医療福祉センター", "機関区分": 1, "都道府県コード": 20, "市区町村コード": 361, "所在地": "長野県諏訪郡下諏訪町東山田６５２５－１", "緯度": 36.080288, "経度": 138.073993, "url": "https://www.iryou.teikyouseido.mhlw.go.jp/znk-web/juminkanja/S2430/initialize?prefCd=20&kikanCd=1205500650&kikanKbn=1", "url2": "http://www.shinano-iryo.jp", "内容": "信濃医療福祉センター【1:病院】【診療科目:整形外科_小児科_精神科_歯科_リハビリテーション科】【一般病床数:127療養病床数:0精神病床数:0感染症病床数:0合計病床数:127】長野県諏訪郡下諏訪町東山田６５２５－１" }, "geometry": { "type": "Point", "coordinates": [ 138.073993, 36.080288 ] } },
{ "type": "Feature", "properties": { "ID": 2011205500780, "正式名称": "諏訪マタニティークリニック", "機関区分": 1, "都道府県コード": 20, "市区町村コード": 361, "所在地": "長野県諏訪郡下諏訪町矢木町１１２番地１３", "緯度": 36.078039, "経度": 138.079465, "url": "https://www.iryou.teikyouseido.mhlw.go.jp/znk-web/juminkanja/S2430/initialize?prefCd=20&kikanCd=1205500780&kikanKbn=1", "url2": "http://e-smc.jp/", "内容": "諏訪マタニティークリニック【1:病院】【診療科目:小児科_産科_婦人科_産婦人科（生殖医療）】【一般病床数:33療養病床数:0精神病床数:0感染症病床数:0合計病床数:33】長野県諏訪郡下諏訪町矢木町１１２番地１３" }, "geometry": { "type": "Point", "coordinates": [ 138.079465, 36.078039 ] } },
{ "type": "Feature", "properties": { "ID": 2011205500810, "正式名称": "祐愛病院", "機関区分": 1, "都道府県コード": 20, "市区町村コード": 204, "所在地": "長野県岡谷市南宮２－２－３４", "緯度": 36.061262, "経度": 138.063883, "url": "https://www.iryou.teikyouseido.mhlw.go.jp/znk-web/juminkanja/S2430/initialize?prefCd=20&kikanCd=1205500810&kikanKbn=1", "url2": "http://www.yuai-hosp.or.jp", "内容": "祐愛病院【1:病院】【診療科目:内科_胃腸内科_外科_脳神経外科_消化器外科_整形外科_形成外科】【一般病床数:0療養病床数:49精神病床数:0感染症病床数:0合計病床数:49】長野県岡谷市南宮２－２－３４" }, "geometry": { "type": "Point", "coordinates": [ 138.063883, 36.061262 ] } },
{ "type": "Feature", "properties": { "ID": 2011205600390, "正式名称": "伊那中央病院救命救急センター", "機関区分": 1, "都道府県コード": 20, "市区町村コード": 209, "所在地": "長野県伊那市小四郎久保１３１３－１", "緯度": 35.856144, "経度": 137.954707, "url": "https://www.iryou.teikyouseido.mhlw.go.jp/znk-web/juminkanja/S2430/initialize?prefCd=20&kikanCd=1205600390&kikanKbn=1", "url2": "https://www.inahp.jp/", "内容": "伊那中央病院救命救急センター【1:病院】【診療科目:内科】【一般病床数:0療養病床数:0精神病床数:0感染症病床数:0合計病床数:0】長野県伊那市小四郎久保１３１３－１" }, "geometry": { "type": "Point", "coordinates": [ 137.954707, 35.856144 ] } },
{ "type": "Feature", "properties": { "ID": 2011205600420, "正式名称": "医療法人暁会　仁愛病院", "機関区分": 1, "都道府県コード": 20, "市区町村コード": 209, "所在地": "長野県伊那市西町４９０６", "緯度": 35.835758, "経度": 137.957346, "url": "https://www.iryou.teikyouseido.mhlw.go.jp/znk-web/juminkanja/S2430/initialize?prefCd=20&kikanCd=1205600420&kikanKbn=1", "url2": "http://www.jinai-h.org", "内容": "医療法人暁会　仁愛病院【1:病院】【診療科目:内科_呼吸器内科_循環器内科_消化器内科_外科_消化器外科_肛門外科_整形外科_婦人科_皮膚科_美容皮膚科_泌尿器科_リハビリテーション科】【一般病床数:73療養病床数:94精神病床数:0感染症病床数:0合計病床数:167】長野県伊那市西町４９０６" }, "geometry": { "type": "Point", "coordinates": [ 137.957346, 35.835758 ] } },
{ "type": "Feature", "properties": { "ID": 2011205600680, "正式名称": "伊那神経科病院", "機関区分": 1, "都道府県コード": 20, "市区町村コード": 209, "所在地": "長野県伊那市荒井３８３１", "緯度": 35.849561, "経度": 137.943347, "url": "https://www.iryou.teikyouseido.mhlw.go.jp/znk-web/juminkanja/S2430/initialize?prefCd=20&kikanCd=1205600680&kikanKbn=1", "url2": "http://www.e-seizankai.or.jp", "内容": "伊那神経科病院【1:病院】【診療科目:精神科_神経科】【一般病床数:0療養病床数:0精神病床数:112感染症病床数:0合計病床数:112】長野県伊那市荒井３８３１" }, "geometry": { "type": "Point", "coordinates": [ 137.943347, 35.849561 ] } },
{ "type": "Feature", "properties": { "ID": 2011205600710, "正式名称": "南信病院", "機関区分": 1, "都道府県コード": 20, "市区町村コード": 385, "所在地": "長野県上伊那郡南箕輪村８８１１", "緯度": 35.862005, "経度": 137.951318, "url": "https://www.iryou.teikyouseido.mhlw.go.jp/znk-web/juminkanja/S2430/initialize?prefCd=20&kikanCd=1205600710&kikanKbn=1", "url2": "http://nanshin-hospital.shinsyu.jp/", "内容": "南信病院【1:病院】【診療科目:精神科】【一般病床数:0療養病床数:0精神病床数:85感染症病床数:0合計病床数:85】長野県上伊那郡南箕輪村８８１１" }, "geometry": { "type": "Point", "coordinates": [ 137.951318, 35.862005 ] } },
{ "type": "Feature", "properties": { "ID": 2011205600840, "正式名称": "長野県立こころの医療センター駒ケ根", "機関区分": 1, "都道府県コード": 20, "市区町村コード": 210, "所在地": "長野県駒ヶ根市下平２９０１", "緯度": 35.747323, "経度": 137.96096, "url": "https://www.iryou.teikyouseido.mhlw.go.jp/znk-web/juminkanja/S2430/initialize?prefCd=20&kikanCd=1205600840&kikanKbn=1", "url2": "http://kokokoma-hosp.or.jp/", "内容": "長野県立こころの医療センター駒ケ根【1:病院】【診療科目:精神科_児童精神科外来】【一般病床数:0療養病床数:0精神病床数:129感染症病床数:0合計病床数:129】長野県駒ヶ根市下平２９０１" }, "geometry": { "type": "Point", "coordinates": [ 137.96096, 35.747323 ] } },
{ "type": "Feature", "properties": { "ID": 2011205601850, "正式名称": "昭和伊南総合病院", "機関区分": 1, "都道府県コード": 20, "市区町村コード": 210, "所在地": "長野県駒ヶ根市赤穂３２３０", "緯度": 35.737712, "経度": 137.92002, "url": "https://www.iryou.teikyouseido.mhlw.go.jp/znk-web/juminkanja/S2430/initialize?prefCd=20&kikanCd=1205601850&kikanKbn=1", "url2": "http://www.sihp.jp", "内容": "昭和伊南総合病院【1:病院】【診療科目:内科_脳神経内科_循環器内科_消化器内科_外科_脳神経外科_整形外科_形成外科_小児科_産婦人科_眼科_耳鼻いんこう科_皮膚科_泌尿器科_歯科_リハビリテーション科_放射線科_病理診断科_麻酔科】【一般病床数:300療養病床数:0精神病床数:0感染症病床数:0合計病床数:300】長野県駒ヶ根市赤穂３２３０" }, "geometry": { "type": "Point", "coordinates": [ 137.92002, 35.737712 ] } },
{ "type": "Feature", "properties": { "ID": 2011205601980, "正式名称": "伊那中央病院", "機関区分": 1, "都道府県コード": 20, "市区町村コード": 209, "所在地": "長野県伊那市小四郎久保１３１３－１", "緯度": 35.855811, "経度": 137.955095, "url": "https://www.iryou.teikyouseido.mhlw.go.jp/znk-web/juminkanja/S2430/initialize?prefCd=20&kikanCd=1205601980&kikanKbn=1", "url2": "https://www.inahp.jp/", "内容": "伊那中央病院【1:病院】【診療科目:内科_脳神経内科_呼吸器内科_循環器内科_消化器内科_腎臓内科_神経内科_腫瘍内科_外科_脳神経外科_呼吸器外科_心臓血管外科_消化器外科_乳腺・内分泌外科_整形外科_形成外科_美容外科_小児科_産婦人科_眼科_頭頸部・耳鼻いんこう科_皮膚科_泌尿器科_歯科口腔外科_放射線診断科_放射線治療科_病理診断科_救急科_麻酔科】【一般病床数:390療養病床数:0精神病床数:0感染症病床数:4合計病床数:394】長野県伊那市小四郎久保１３１３－１" }, "geometry": { "type": "Point", "coordinates": [ 137.955095, 35.855811 ] } },
{ "type": "Feature", "properties": { "ID": 2011205602020, "正式名称": "医療法人　保健同人会　田中病院", "機関区分": 1, "都道府県コード": 20, "市区町村コード": 209, "所在地": "長野県伊那市下新田３１９３", "緯度": 35.829647, "経度": 137.954763, "url": "https://www.iryou.teikyouseido.mhlw.go.jp/znk-web/juminkanja/S2430/initialize?prefCd=20&kikanCd=1205602020&kikanKbn=1", "url2": "https://tanaka-hp.jp", "内容": "医療法人　保健同人会　田中病院【1:病院】【診療科目:内科_循環器内科_消化器内科_外科_整形外科_小児科_小児循環器内科_アレルギー科_放射線科】【一般病床数:0療養病床数:68精神病床数:0感染症病床数:0合計病床数:68】長野県伊那市下新田３１９３" }, "geometry": { "type": "Point", "coordinates": [ 137.954763, 35.829647 ] } },
{ "type": "Feature", "properties": { "ID": 2011205602150, "正式名称": "上伊那生協病院", "機関区分": 1, "都道府県コード": 20, "市区町村コード": 383, "所在地": "長野県上伊那郡箕輪町中箕輪１１３２４", "緯度": 35.903584, "経度": 137.992701, "url": "https://www.iryou.teikyouseido.mhlw.go.jp/znk-web/juminkanja/S2430/initialize?prefCd=20&kikanCd=1205602150&kikanKbn=1", "url2": "http://www.kamiina-mcoop.com", "内容": "上伊那生協病院【1:病院】【診療科目:内科_循環器内科_消化器内科_小児科_リハビリテーション科】【一般病床数:56療養病床数:108精神病床数:0感染症病床数:0合計病床数:164】長野県上伊那郡箕輪町中箕輪１１３２４" }, "geometry": { "type": "Point", "coordinates": [ 137.992701, 35.903584 ] } },
{ "type": "Feature", "properties": { "ID": 2011205602280, "正式名称": "町立辰野病院", "機関区分": 1, "都道府県コード": 20, "市区町村コード": 382, "所在地": "長野県上伊那郡辰野町大字辰野１４４５番地５", "緯度": 35.984191, "経度": 137.991495, "url": "https://www.iryou.teikyouseido.mhlw.go.jp/znk-web/juminkanja/S2430/initialize?prefCd=20&kikanCd=1205602280&kikanKbn=1", "url2": "http://hosp.town.tatsuno.nagano.jp/", "内容": "町立辰野病院【1:病院】【診療科目:内科_外科_整形外科_小児科_産婦人科_眼科_耳鼻いんこう科_皮膚科_泌尿器科】【一般病床数:100療養病床数:0精神病床数:0感染症病床数:0合計病床数:100】長野県上伊那郡辰野町大字辰野１４４５番地５" }, "geometry": { "type": "Point", "coordinates": [ 137.991495, 35.984191 ] } },
{ "type": "Feature", "properties": { "ID": 2011205700450, "正式名称": "飯田病院", "機関区分": 1, "都道府県コード": 20, "市区町村コード": 205, "所在地": "長野県飯田市大通１丁目１５番地", "緯度": 35.516652, "経度": 137.818731, "url": "https://www.iryou.teikyouseido.mhlw.go.jp/znk-web/juminkanja/S2430/initialize?prefCd=20&kikanCd=1205700450&kikanKbn=1", "url2": "http://www.iida.or.jp/", "内容": "飯田病院【1:病院】【診療科目:内科_循環器内科_消化器内科_腎臓内科_神経内科_外科_消化器外科_整形外科_小児外科_婦人科_眼科_耳鼻いんこう科_泌尿器科_精神科_アレルギー科_リハビリテーション科_放射線科_病理診断科_臨床検査科_麻酔科】【一般病床数:199療養病床数:0精神病床数:225感染症病床数:0合計病床数:424】長野県飯田市大通１丁目１５番地" }, "geometry": { "type": "Point", "coordinates": [ 137.818731, 35.516652 ] } },
{ "type": "Feature", "properties": { "ID": 2011205700610, "正式名称": "医療法人　輝山会　輝山会記念病院", "機関区分": 1, "都道府県コード": 20, "市区町村コード": 205, "所在地": "長野県飯田市毛賀１７０７", "緯度": 35.476768, "経度": 137.841675, "url": "https://www.iryou.teikyouseido.mhlw.go.jp/znk-web/juminkanja/S2430/initialize?prefCd=20&kikanCd=1205700610&kikanKbn=1", "url2": "http://www.kizankai.or.jp/", "内容": "医療法人　輝山会　輝山会記念病院【1:病院】【診療科目:内科_糖尿病・代謝内科_呼吸器内科_循環器内科_胃腸内科_腎臓内科_腫瘍内科_内視鏡内科_ペインクリニック内科_外科_呼吸器外科_食道外科_胃腸外科_腎臓外科_肝臓・胆のう・膵臓外科_乳腺外科_大腸・肛門外科_ペインクリニック外科_腫瘍外科_胸部外科_内視鏡外科_整形外科_人工透析外科・頚部外科_婦人科_眼科_皮膚科_泌尿器科_アレルギー科_リハビリテーション科_放射線科_救急科】【一般病床数:52療養病床数:147精神病床数:0感染症病床数:0合計病床数:199】長野県飯田市毛賀１７０７" }, "geometry": { "type": "Point", "coordinates": [ 137.841675, 35.476768 ] } },
{ "type": "Feature", "properties": { "ID": 2011205701040, "正式名称": "社会医療法人健和会　健和会病院", "機関区分": 1, "都道府県コード": 20, "市区町村コード": 205, "所在地": "長野県飯田市鼎中平１９３６", "緯度": 35.505403, "経度": 137.824981, "url": "https://www.iryou.teikyouseido.mhlw.go.jp/znk-web/juminkanja/S2430/initialize?prefCd=20&kikanCd=1205701040&kikanKbn=1", "url2": "http://www.kenwakai.or.jp/", "内容": "社会医療法人健和会　健和会病院【1:病院】【診療科目:内科_糖尿病内科_脳神経内科_呼吸器内科_循環器内科_消化器内科_腎臓内科_人工透析内科_外科_脳神経外科_呼吸器外科_消化器外科_乳腺外科_肛門外科_形成外科_小児科_婦人科_眼科_泌尿器科_精神科_心療内科_リハビリテーション科_放射線科_病理診断科_臨床検査科_麻酔科】【一般病床数:107療養病床数:82精神病床数:0感染症病床数:0合計病床数:189】長野県飯田市鼎中平１９３６" }, "geometry": { "type": "Point", "coordinates": [ 137.824981, 35.505403 ] } },
{ "type": "Feature", "properties": { "ID": 2011205701330, "正式名称": "下伊那赤十字病院", "機関区分": 1, "都道府県コード": 20, "市区町村コード": 402, "所在地": "長野県下伊那郡松川町元大島３１５９－１", "緯度": 35.600367, "経度": 137.911414, "url": "https://www.iryou.teikyouseido.mhlw.go.jp/znk-web/juminkanja/S2430/initialize?prefCd=20&kikanCd=1205701330&kikanKbn=1", "url2": "https://shimoina.jrc.or.jp/", "内容": "下伊那赤十字病院【1:病院】【診療科目:内科_外科_消化器外科_整形外科_小児科_産婦人科_眼科_耳鼻いんこう科_皮膚科_泌尿器科_精神科_心療内科_リハビリテーション科_放射線科_麻酔科】【一般病床数:56療養病床数:6精神病床数:0感染症病床数:0合計病床数:62】長野県下伊那郡松川町元大島３１５９－１" }, "geometry": { "type": "Point", "coordinates": [ 137.911414, 35.600367 ] } },
{ "type": "Feature", "properties": { "ID": 2011205701460, "正式名称": "長野県立阿南病院", "機関区分": 1, "都道府県コード": 20, "市区町村コード": 404, "所在地": "長野県下伊那郡阿南町北條２００９－１", "緯度": 35.333978, "経度": 137.834987, "url": "https://www.iryou.teikyouseido.mhlw.go.jp/znk-web/juminkanja/S2430/initialize?prefCd=20&kikanCd=1205701460&kikanKbn=1", "url2": "https://anan-hosp.jp/", "内容": "長野県立阿南病院【1:病院】【診療科目:内科_外科_整形外科_小児科_婦人科_眼科_皮膚科_泌尿器科_精神科_リハビリテーション科_放射線科_麻酔科】【一般病床数:52療養病床数:0精神病床数:0感染症病床数:0合計病床数:52】長野県下伊那郡阿南町北條２００９－１" }, "geometry": { "type": "Point", "coordinates": [ 137.834987, 35.333978 ] } },
{ "type": "Feature", "properties": { "ID": 2011205702050, "正式名称": "瀬口脳神経外科病院", "機関区分": 1, "都道府県コード": 20, "市区町村コード": 205, "所在地": "長野県飯田市上郷黒田２１８－２", "緯度": 35.528595, "経度": 137.836118, "url": "https://www.iryou.teikyouseido.mhlw.go.jp/znk-web/juminkanja/S2430/initialize?prefCd=20&kikanCd=1205702050&kikanKbn=1", "url2": "https://seguchi-nouge.madokakai.jp/", "内容": "瀬口脳神経外科病院【1:病院】【診療科目:脳神経内科_循環器内科_脳神経外科_リハビリテーション科】【一般病床数:66療養病床数:0精神病床数:0感染症病床数:0合計病床数:66】長野県飯田市上郷黒田２１８－２" }, "geometry": { "type": "Point", "coordinates": [ 137.836118, 35.528595 ] } },
{ "type": "Feature", "properties": { "ID": 2011205702210, "正式名称": "菅沼病院", "機関区分": 1, "都道府県コード": 20, "市区町村コード": 205, "所在地": "長野県飯田市鼎中平１９７０", "緯度": 35.507375, "経度": 137.825287, "url": "https://www.iryou.teikyouseido.mhlw.go.jp/znk-web/juminkanja/S2430/initialize?prefCd=20&kikanCd=1205702210&kikanKbn=1", "url2": "https://suganumahp.or.jp/", "内容": "菅沼病院【1:病院】【診療科目:内科_循環器内科_胃腸内科_小児科_リハビリテーション科】【一般病床数:0療養病床数:22精神病床数:0感染症病床数:0合計病床数:22】長野県飯田市鼎中平１９７０" }, "geometry": { "type": "Point", "coordinates": [ 137.825287, 35.507375 ] } },
{ "type": "Feature", "properties": { "ID": 2011205702470, "正式名称": "飯田市立病院", "機関区分": 1, "都道府県コード": 20, "市区町村コード": 205, "所在地": "長野県飯田市八幡町４３８", "緯度": 35.499321, "経度": 137.836203, "url": "https://www.iryou.teikyouseido.mhlw.go.jp/znk-web/juminkanja/S2430/initialize?prefCd=20&kikanCd=1205702470&kikanKbn=1", "url2": "https://www.imh.jp/", "内容": "飯田市立病院【1:病院】【診療科目:内科_内分泌内科_糖尿病・代謝内科_脳神経内科_呼吸器内科_循環器内科_消化器内科_腎臓内科_緩和ケア内科_外科_脳神経外科_呼吸器外科_心臓血管外科_消化器外科_乳腺・内分泌外科_整形外科_形成外科_小児科_産婦人科_眼科_耳鼻いんこう科_皮膚科_泌尿器科_歯科_歯科口腔外科_リウマチ科_リハビリテーション科_放射線科_病理診断科_臨床検査科_救急科_麻酔科】【一般病床数:403療養病床数:0精神病床数:0感染症病床数:4合計病床数:407】長野県飯田市八幡町４３８" }, "geometry": { "type": "Point", "coordinates": [ 137.836203, 35.499321 ] } },
{ "type": "Feature", "properties": { "ID": 2011205702500, "正式名称": "長野県厚生農業協同組合連合会　下伊那厚生病院", "機関区分": 1, "都道府県コード": 20, "市区町村コード": 403, "所在地": "長野県下伊那郡高森町吉田", "緯度": 35.551177, "経度": 137.888252, "url": "https://www.iryou.teikyouseido.mhlw.go.jp/znk-web/juminkanja/S2430/initialize?prefCd=20&kikanCd=1205702500&kikanKbn=1", "url2": "https://shimoina-hp.jp", "内容": "長野県厚生農業協同組合連合会　下伊那厚生病院【1:病院】【診療科目:内科_脳神経内科_循環器内科_整形外科_小児科（検診のみ）_婦人科_眼科_耳鼻いんこう科_皮膚科_泌尿器科_精神科_心療内科_リハビリテーション科】【一般病床数:53療養病床数:20精神病床数:0感染症病床数:0合計病床数:73】長野県下伊那郡高森町吉田" }, "geometry": { "type": "Point", "coordinates": [ 137.888252, 35.551177 ] } },
{ "type": "Feature", "properties": { "ID": 2011205800220, "正式名称": "長野県立木曽病院", "機関区分": 1, "都道府県コード": 20, "市区町村コード": 432, "所在地": "長野県木曽郡木曽町福島６６１３－４", "緯度": 35.83539, "経度": 137.683425, "url": "https://www.iryou.teikyouseido.mhlw.go.jp/znk-web/juminkanja/S2430/initialize?prefCd=20&kikanCd=1205800220&kikanKbn=1", "url2": "https://kiso-hosp.jp/", "内容": "長野県立木曽病院【1:病院】【診療科目:内科_脳神経内科_循環器内科_消化器内科_外科_脳神経外科_心臓血管外科_整形外科_形成外科_小児科_産婦人科_眼科_耳鼻いんこう科_皮膚科_泌尿器科_精神科_歯科口腔外科_リハビリテーション科_放射線科_麻酔科】【一般病床数:126療養病床数:19精神病床数:0感染症病床数:4合計病床数:149】長野県木曽郡木曽町福島６６１３－４" }, "geometry": { "type": "Point", "coordinates": [ 137.683425, 35.83539 ] } },
{ "type": "Feature", "properties": { "ID": 2011205900380, "正式名称": "独立行政法人国立病院機構まつもと医療センター", "機関区分": 1, "都道府県コード": 20, "市区町村コード": 202, "所在地": "長野県松本市村井町南２－２０－３０", "緯度": 36.175247, "経度": 137.963943, "url": "https://www.iryou.teikyouseido.mhlw.go.jp/znk-web/juminkanja/S2430/initialize?prefCd=20&kikanCd=1205900380&kikanKbn=1", "url2": "http://mmccenta.jp/index.html", "内容": "独立行政法人国立病院機構まつもと医療センター【1:病院】【診療科目:内科_血液内科_糖尿病・内分泌内科_脳神経内科_呼吸器内科_循環器内科_消化器内科_腎臓内科_外科_脳神経外科_呼吸器外科_心臓血管外科_整形外科_小児科_婦人科_眼科_耳鼻いんこう科_皮膚科_泌尿器科_歯科_リハビリテーション科_放射線科_病理診断科_救急科_麻酔科】【一般病床数:437療養病床数:0精神病床数:0感染症病床数:0合計病床数:458】長野県松本市村井町南２－２０－３０" }, "geometry": { "type": "Point", "coordinates": [ 137.963943, 36.175247 ] } },
{ "type": "Feature", "properties": { "ID": 2011205900410, "正式名称": "信州大学医学部附属病院", "機関区分": 1, "都道府県コード": 20, "市区町村コード": 202, "所在地": "長野県松本市旭３丁目１－１", "緯度": 36.249377, "経度": 137.978717, "url": "https://www.iryou.teikyouseido.mhlw.go.jp/znk-web/juminkanja/S2430/initialize?prefCd=20&kikanCd=1205900410&kikanKbn=1", "url2": "http://wwwhp.md.shinshu-u.ac.jp/", "内容": "信州大学医学部附属病院【1:病院】【診療科目:内科_感染症内科_血液内科_糖尿病・内分泌内科_脳神経内科_呼吸器内科_循環器内科_消化器内科_腎臓内科_腫瘍内科_アレルギー疾患内科_緩和ケア内科_脳神経外科_呼吸器外科_心臓血管外科_消化器外科_乳腺・内分泌外科_移植外科_整形外科_形成外科_児童精神科_小児外科_小児・新生児科_産婦人科_眼科_頭頸部・耳鼻いんこう科_皮膚科_泌尿器科_精神科_歯科口腔外科_リウマチ科_リハビリテーション科_放射線科_病理診断科_救急科_麻酔科】【一般病床数:664療養病床数:0精神病床数:34感染症病床数:0合計病床数:698】長野県松本市旭３丁目１－１" }, "geometry": { "type": "Point", "coordinates": [ 137.978717, 36.249377 ] } },
{ "type": "Feature", "properties": { "ID": 2011205900540, "正式名称": "医療法人城西医療財団城西病院", "機関区分": 1, "都道府県コード": 20, "市区町村コード": 202, "所在地": "長野県松本市城西１丁目５－１６", "緯度": 36.239517, "経度": 137.962496, "url": "https://www.iryou.teikyouseido.mhlw.go.jp/znk-web/juminkanja/S2430/initialize?prefCd=20&kikanCd=1205900540&kikanKbn=1", "url2": "http://www.shironishi.or.jp", "内容": "医療法人城西医療財団城西病院【1:病院】【診療科目:内科_呼吸器内科_循環器内科_消化器内科_神経内科_外科_整形外科_小児科_婦人科_耳鼻いんこう科_皮膚科_精神科_心療内科_歯科_歯科口腔外科_アレルギー科_リハビリテーション科】【一般病床数:99療養病床数:30精神病床数:70感染症病床数:0合計病床数:199】長野県松本市城西１丁目５－１６" }, "geometry": { "type": "Point", "coordinates": [ 137.962496, 36.239517 ] } },
{ "type": "Feature", "properties": { "ID": 2011205900700, "正式名称": "藤森病院", "機関区分": 1, "都道府県コード": 20, "市区町村コード": 202, "所在地": "長野県松本市中央２－９－８", "緯度": 36.233268, "経度": 137.970996, "url": "https://www.iryou.teikyouseido.mhlw.go.jp/znk-web/juminkanja/S2430/initialize?prefCd=20&kikanCd=1205900700&kikanKbn=1", "url2": "http://www.fujimori-hosp.jp", "内容": "藤森病院【1:病院】【診療科目:内科_糖尿病内科_循環器内科_消化器内科_腎臓内科_人工透析内科_肝臓内科_内視鏡内科_外科_血管外科_消化器外科_乳腺外科_整形外科_形成外科_泌尿器科_リハビリテーション科_放射線科_麻酔科】【一般病床数:64療養病床数:0精神病床数:0感染症病床数:0合計病床数:64】長野県松本市中央２－９－８" }, "geometry": { "type": "Point", "coordinates": [ 137.970996, 36.233268 ] } },
{ "type": "Feature", "properties": { "ID": 2011205900830, "正式名称": "医療法人和心会松南病院", "機関区分": 1, "都道府県コード": 20, "市区町村コード": 202, "所在地": "長野県松本市笹部３－１３－２９", "緯度": 36.219158, "経度": 137.946721, "url": "https://www.iryou.teikyouseido.mhlw.go.jp/znk-web/juminkanja/S2430/initialize?prefCd=20&kikanCd=1205900830&kikanKbn=1", "url2": "https://shounan-hp.jp", "内容": "医療法人和心会松南病院【1:病院】【診療科目:内科_精神科_神経科_心療内科_児童・思春期精神科_歯科】【一般病床数:0療養病床数:39精神病床数:200感染症病床数:0合計病床数:239】長野県松本市笹部３－１３－２９" }, "geometry": { "type": "Point", "coordinates": [ 137.946721, 36.219158 ] } },
{ "type": "Feature", "properties": { "ID": 2011205900960, "正式名称": "医療法人芳州会村井病院", "機関区分": 1, "都道府県コード": 20, "市区町村コード": 202, "所在地": "長野県松本市村井町西２丁目１５番１号", "緯度": 36.173335, "経度": 137.947774, "url": "https://www.iryou.teikyouseido.mhlw.go.jp/znk-web/juminkanja/S2430/initialize?prefCd=20&kikanCd=1205900960&kikanKbn=1", "url2": "http://www.murai-h.or.jp/", "内容": "医療法人芳州会村井病院【1:病院】【診療科目:内科_精神科】【一般病床数:0療養病床数:0精神病床数:215感染症病床数:0合計病床数:215】長野県松本市村井町西２丁目１５番１号" }, "geometry": { "type": "Point", "coordinates": [ 137.947774, 36.173335 ] } },
{ "type": "Feature", "properties": { "ID": 2011205901130, "正式名称": "社会医療法人財団慈泉会　相澤病院", "機関区分": 1, "都道府県コード": 20, "市区町村コード": 202, "所在地": "長野県松本市本庄２丁目５－１", "緯度": 36.226686, "経度": 137.973496, "url": "https://www.iryou.teikyouseido.mhlw.go.jp/znk-web/juminkanja/S2430/initialize?prefCd=20&kikanCd=1205901130&kikanKbn=1", "url2": "https://aizawahospital.jp/", "内容": "社会医療法人財団慈泉会　相澤病院【1:病院】【診療科目:内科_糖尿病内科_脳神経内科_呼吸器内科_循環器内科_消化器内科_腎臓内科_人工透析内科_腫瘍内科_内視鏡内科_緩和ケア内科_外科_脳神経外科_呼吸器外科_気管食道外科_心臓血管外科_消化器外科_乳腺外科_整形外科_形成外科_小児科_小児外科_産婦人科_眼科_耳鼻いんこう科_皮膚科_泌尿器科_精神科_腫瘍精神科_歯科口腔外科_リハビリテーション科_放射線診断科_放射線治療科_病理診断科_臨床検査科_救急科_麻酔科_リウマチ・膠原病内科】【一般病床数:456療養病床数:0精神病床数:0感染症病床数:0合計病床数:456】長野県松本市本庄２丁目５－１" }, "geometry": { "type": "Point", "coordinates": [ 137.973496, 36.226686 ] } },
{ "type": "Feature", "properties": { "ID": 2011205901390, "正式名称": "医療法人　愛生会　松岡病院", "機関区分": 1, "都道府県コード": 20, "市区町村コード": 202, "所在地": "長野県松本市寿北２－６－２", "緯度": 36.204966, "経度": 137.976913, "url": "https://www.iryou.teikyouseido.mhlw.go.jp/znk-web/juminkanja/S2430/initialize?prefCd=20&kikanCd=1205901390&kikanKbn=1", "url2": "http://www.matuokahp.com", "内容": "医療法人　愛生会　松岡病院【1:病院】【診療科目:内科_精神科】【一般病床数:0療養病床数:0精神病床数:128感染症病床数:0合計病床数:128】長野県松本市寿北２－６－２" }, "geometry": { "type": "Point", "coordinates": [ 137.976913, 36.204966 ] } },
{ "type": "Feature", "properties": { "ID": 2011205901550, "正式名称": "医療法人青雲会倉田病院", "機関区分": 1, "都道府県コード": 20, "市区町村コード": 202, "所在地": "長野県松本市寿北８丁目２１番２号", "緯度": 36.190884, "経度": 137.977219, "url": "https://www.iryou.teikyouseido.mhlw.go.jp/znk-web/juminkanja/S2430/initialize?prefCd=20&kikanCd=1205901550&kikanKbn=1", "url2": "http://www.seiunkai.or.jp/", "内容": "医療法人青雲会倉田病院【1:病院】【診療科目:内科_精神科】【一般病床数:0療養病床数:0精神病床数:178感染症病床数:0合計病床数:178】長野県松本市寿北８丁目２１番２号" }, "geometry": { "type": "Point", "coordinates": [ 137.977219, 36.190884 ] } },
{ "type": "Feature", "properties": { "ID": 2011205901680, "正式名称": "松本協立病院", "機関区分": 1, "都道府県コード": 20, "市区町村コード": 202, "所在地": "長野県松本市巾上９－２６", "緯度": 36.229768, "経度": 137.963108, "url": "https://www.iryou.teikyouseido.mhlw.go.jp/znk-web/juminkanja/S2430/initialize?prefCd=20&kikanCd=1205901680&kikanKbn=1", "url2": "https://www.chushin-miniren.gr.jp/", "内容": "松本協立病院【1:病院】【診療科目:内科_呼吸器内科_循環器内科_消化器内科_外科_心臓血管外科_肛門外科_小児科_泌尿器科_精神科_歯科_リハビリテーション科_放射線科_麻酔科】【一般病床数:199療養病床数:0精神病床数:0感染症病床数:0合計病床数:199】長野県松本市巾上９－２６" }, "geometry": { "type": "Point", "coordinates": [ 137.963108, 36.229768 ] } },
{ "type": "Feature", "properties": { "ID": 2011205901710, "正式名称": "塩尻病院", "機関区分": 1, "都道府県コード": 20, "市区町村コード": 215, "所在地": "長野県塩尻市大門六番町４－３６", "緯度": 36.114587, "経度": 137.954835, "url": "https://www.iryou.teikyouseido.mhlw.go.jp/znk-web/juminkanja/S2430/initialize?prefCd=20&kikanCd=1205901710&kikanKbn=1", "url2": "http://shiojiri-hp.jp/", "内容": "塩尻病院【1:病院】【診療科目:内科_胃腸内科_外科_整形外科_皮膚科_リハビリテーション科】【一般病床数:40療養病床数:0精神病床数:0感染症病床数:0合計病床数:40】長野県塩尻市大門六番町４－３６" }, "geometry": { "type": "Point", "coordinates": [ 137.954835, 36.114587 ] } },
{ "type": "Feature", "properties": { "ID": 2011205901840, "正式名称": "松本歯科大学病院", "機関区分": 1, "都道府県コード": 20, "市区町村コード": 215, "所在地": "長野県塩尻市広丘郷原１７８０", "緯度": 36.127807, "経度": 137.940308, "url": "https://www.iryou.teikyouseido.mhlw.go.jp/znk-web/juminkanja/S2430/initialize?prefCd=20&kikanCd=1205901840&kikanKbn=1", "url2": "http://www.mdu.ac.jp/hospital/", "内容": "松本歯科大学病院【1:病院】【診療科目:内科_消化器内科_神経内科_整形外科_婦人科_歯科_矯正歯科_歯科口腔外科_小児歯科】【一般病床数:31療養病床数:0精神病床数:0感染症病床数:0合計病床数:31】長野県塩尻市広丘郷原１７８０" }, "geometry": { "type": "Point", "coordinates": [ 137.940308, 36.127807 ] } },
{ "type": "Feature", "properties": { "ID": 2011205901970, "正式名称": "医療法人元山会　中村病院", "機関区分": 1, "都道府県コード": 20, "市区町村コード": 215, "所在地": "長野県塩尻市広丘高出１６１４番地２", "緯度": 36.122142, "経度": 137.958848, "url": "https://www.iryou.teikyouseido.mhlw.go.jp/znk-web/juminkanja/S2430/initialize?prefCd=20&kikanCd=1205901970&kikanKbn=1", "url2": null, "内容": "医療法人元山会　中村病院【1:病院】【診療科目:内科_循環器内科_外科_消化器外科_リハビリテーション科】【一般病床数:56療養病床数:0精神病床数:0感染症病床数:0合計病床数:56】長野県塩尻市広丘高出１６１４番地２" }, "geometry": { "type": "Point", "coordinates": [ 137.958848, 36.122142 ] } },
{ "type": "Feature", "properties": { "ID": 2011205902270, "正式名称": "桔梗ケ原病院", "機関区分": 1, "都道府県コード": 20, "市区町村コード": 215, "所在地": "長野県塩尻市宗賀１２９５番地", "緯度": 36.111503, "経度": 137.933393, "url": "https://www.iryou.teikyouseido.mhlw.go.jp/znk-web/juminkanja/S2430/initialize?prefCd=20&kikanCd=1205902270&kikanKbn=1", "url2": "http://www.keijin-kai.jp", "内容": "桔梗ケ原病院【1:病院】【診療科目:内科_循環器内科_神経内科_外科_呼吸器外科_整形外科_婦人科_眼科_耳鼻いんこう科_泌尿器科_リハビリテーション科】【一般病床数:45療養病床数:100精神病床数:0感染症病床数:0合計病床数:145】長野県塩尻市宗賀１２９５番地" }, "geometry": { "type": "Point", "coordinates": [ 137.933393, 36.111503 ] } },
{ "type": "Feature", "properties": { "ID": 2011205902300, "正式名称": "医療法人心泉会　上條記念病院", "機関区分": 1, "都道府県コード": 20, "市区町村コード": 202, "所在地": "長野県松本市村井町西２丁目１６番１号", "緯度": 36.172293, "経度": 137.947488, "url": "https://www.iryou.teikyouseido.mhlw.go.jp/znk-web/juminkanja/S2430/initialize?prefCd=20&kikanCd=1205902300&kikanKbn=1", "url2": "http://www.kamijyomhp.or.jp/", "内容": "医療法人心泉会　上條記念病院【1:病院】【診療科目:内科_脳神経外科_整形外科_精神科_心療内科_歯科_歯科口腔外科_リハビリテーション科_放射線科_麻酔科】【一般病床数:34療養病床数:59精神病床数:0感染症病床数:0合計病床数:93】長野県松本市村井町西２丁目１６番１号" }, "geometry": { "type": "Point", "coordinates": [ 137.947488, 36.172293 ] } },
{ "type": "Feature", "properties": { "ID": 2011205902430, "正式名称": "松本市立病院", "機関区分": 1, "都道府県コード": 20, "市区町村コード": 202, "所在地": "長野県松本市波田４４１７－１８０", "緯度": 36.19888, "経度": 137.854396, "url": "https://www.iryou.teikyouseido.mhlw.go.jp/znk-web/juminkanja/S2430/initialize?prefCd=20&kikanCd=1205902430&kikanKbn=1", "url2": "https://www.mt-hsp.jp", "内容": "松本市立病院【1:病院】【診療科目:内科_糖尿病内科_内分泌内科_呼吸器内科_循環器内科_消化器内科_人工透析内科_外科_脳神経外科_消化器外科_乳腺外科_肛門外科_ペインクリニック外科_整形外科_形成外科_小児科_産科_婦人科_眼科_耳鼻いんこう科_皮膚科_泌尿器科_歯科口腔外科_リハビリテーション科_放射線科_救急科_麻酔科】【一般病床数:193療養病床数:0精神病床数:0感染症病床数:6合計病床数:199】長野県松本市波田４４１７－１８０" }, "geometry": { "type": "Point", "coordinates": [ 137.854396, 36.19888 ] } },
{ "type": "Feature", "properties": { "ID": 2011205902690, "正式名称": "一之瀬脳神経外科病院", "機関区分": 1, "都道府県コード": 20, "市区町村コード": 202, "所在地": "長野県松本市島立２０９３番地", "緯度": 36.22924, "経度": 137.937388, "url": "https://www.iryou.teikyouseido.mhlw.go.jp/znk-web/juminkanja/S2430/initialize?prefCd=20&kikanCd=1205902690&kikanKbn=1", "url2": "https://inh.or.jp/", "内容": "一之瀬脳神経外科病院【1:病院】【診療科目:神経内科_脳神経外科_形成外科_リハビリテーション科_放射線科_麻酔科】【一般病床数:77療養病床数:0精神病床数:0感染症病床数:0合計病床数:77】長野県松本市島立２０９３番地" }, "geometry": { "type": "Point", "coordinates": [ 137.937388, 36.22924 ] } },
{ "type": "Feature", "properties": { "ID": 2011205902850, "正式名称": "塩尻協立病院", "機関区分": 1, "都道府県コード": 20, "市区町村コード": 215, "所在地": "長野県塩尻市桟敷４３７", "緯度": 36.11467, "経度": 137.968806, "url": "https://www.iryou.teikyouseido.mhlw.go.jp/znk-web/juminkanja/S2430/initialize?prefCd=20&kikanCd=1205902850&kikanKbn=1", "url2": "https://www.chushin-miniren.gr.jp/shiojiri/", "内容": "塩尻協立病院【1:病院】【診療科目:内科_循環器内科_人工透析内科_小児科_リハビリテーション科】【一般病床数:42療養病床数:57精神病床数:0感染症病床数:0合計病床数:99】長野県塩尻市桟敷４３７" }, "geometry": { "type": "Point", "coordinates": [ 137.968806, 36.11467 ] } },
{ "type": "Feature", "properties": { "ID": 2011205902980, "正式名称": "松本中川病院", "機関区分": 1, "都道府県コード": 20, "市区町村コード": 202, "所在地": "長野県松本市野溝西２－３－１６", "緯度": 36.200938, "経度": 137.954304, "url": "https://www.iryou.teikyouseido.mhlw.go.jp/znk-web/juminkanja/S2430/initialize?prefCd=20&kikanCd=1205902980&kikanKbn=1", "url2": "http://www.mnh2001.jp", "内容": "松本中川病院【1:病院】【診療科目:内科_糖尿病内科_脳神経内科_外科_脳神経外科_整形外科_眼科_リハビリテーション科】【一般病床数:82療養病床数:0精神病床数:0感染症病床数:0合計病床数:82】長野県松本市野溝西２－３－１６" }, "geometry": { "type": "Point", "coordinates": [ 137.954304, 36.200938 ] } },
{ "type": "Feature", "properties": { "ID": 2011205903150, "正式名称": "社会医療法人抱生会丸の内病院", "機関区分": 1, "都道府県コード": 20, "市区町村コード": 202, "所在地": "長野県松本市渚１丁目７番４５号", "緯度": 36.235656, "経度": 137.955358, "url": "https://www.iryou.teikyouseido.mhlw.go.jp/znk-web/juminkanja/S2430/initialize?prefCd=20&kikanCd=1205903150&kikanKbn=1", "url2": "http://www.marunouchi.or.jp/", "内容": "社会医療法人抱生会丸の内病院【1:病院】【診療科目:内科_呼吸器内科_循環器内科_消化器内科_緩和ケア内科_膠原病内科_外科_脳神経外科_消化器外科_肛門外科_整形外科_形成外科_小児科_小児外科_産科_婦人科_泌尿器科_精神科_歯科_歯科口腔外科_リウマチ科_リハビリテーション科_放射線科_病理診断科_麻酔科】【一般病床数:199療養病床数:0精神病床数:0感染症病床数:0合計病床数:199】長野県松本市渚１丁目７番４５号" }, "geometry": { "type": "Point", "coordinates": [ 137.955358, 36.235656 ] } },
{ "type": "Feature", "properties": { "ID": 2011205903280, "正式名称": "安曇野赤十字病院", "機関区分": 1, "都道府県コード": 20, "市区町村コード": 220, "所在地": "長野県安曇野市豊科５６８５", "緯度": 36.302703, "経度": 137.90786, "url": "https://www.iryou.teikyouseido.mhlw.go.jp/znk-web/juminkanja/S2430/initialize?prefCd=20&kikanCd=1205903280&kikanKbn=1", "url2": "https://www.azumino.jrc.or.jp/", "内容": "安曇野赤十字病院【1:病院】【診療科目:内科_糖尿病・内分泌内科_脳神経内科_呼吸器内科_循環器内科_消化器内科_腎臓内科_外科_脳神経外科_心臓血管外科_消化器外科_整形外科_形成外科_小児科_産婦人科_眼科_耳鼻いんこう科_皮膚科_泌尿器科_歯科口腔外科_リハビリテーション科_病理診断科_救急科_麻酔科】【一般病床数:306療養病床数:0精神病床数:0感染症病床数:0合計病床数:306】長野県安曇野市豊科５６８５" }, "geometry": { "type": "Point", "coordinates": [ 137.90786, 36.302703 ] } },
{ "type": "Feature", "properties": { "ID": 2011205903310, "正式名称": "社会医療法人財団慈泉会相澤東病院", "機関区分": 1, "都道府県コード": 20, "市区町村コード": 202, "所在地": "長野県松本市本庄２丁目１１番１６号", "緯度": 36.226824, "経度": 137.97344, "url": "https://www.iryou.teikyouseido.mhlw.go.jp/znk-web/juminkanja/S2430/initialize?prefCd=20&kikanCd=1205903310&kikanKbn=1", "url2": "http://www.ai-hosp.or.jp/higashi/", "内容": "社会医療法人財団慈泉会相澤東病院【1:病院】【診療科目:内科_消化器内科_神経内科_乳腺外科_形成外科_リハビリテーション科】【一般病床数:54療養病床数:0精神病床数:0感染症病床数:0合計病床数:54】長野県松本市本庄２丁目１１番１６号" }, "geometry": { "type": "Point", "coordinates": [ 137.97344, 36.226824 ] } },
{ "type": "Feature", "properties": { "ID": 2011206000290, "正式名称": "豊科病院", "機関区分": 1, "都道府県コード": 20, "市区町村コード": 220, "所在地": "長野県安曇野市豊科５７７７番地１", "緯度": 36.303369, "経度": 137.90411, "url": "https://www.iryou.teikyouseido.mhlw.go.jp/znk-web/juminkanja/S2430/initialize?prefCd=20&kikanCd=1206000290&kikanKbn=1", "url2": "http://www.shironishi.or.jp/", "内容": "豊科病院【1:病院】【診療科目:内科_精神科】【一般病床数:0療養病床数:0精神病床数:140感染症病床数:0合計病床数:140】長野県安曇野市豊科５７７７番地１" }, "geometry": { "type": "Point", "coordinates": [ 137.90411, 36.303369 ] } },
{ "type": "Feature", "properties": { "ID": 2011206000450, "正式名称": "医療法人仁雄会　穂高病院", "機関区分": 1, "都道府県コード": 20, "市区町村コード": 220, "所在地": "長野県安曇野市穂高４６３４", "緯度": 36.331782, "経度": 137.887333, "url": "https://www.iryou.teikyouseido.mhlw.go.jp/znk-web/juminkanja/S2430/initialize?prefCd=20&kikanCd=1206000450&kikanKbn=1", "url2": "http://www.hotaka-hospital.or.jp/", "内容": "医療法人仁雄会　穂高病院【1:病院】【診療科目:内科_外科_整形外科_形成外科_小児科_産婦人科_眼科_リハビリテーション科_放射線科_麻酔科】【一般病床数:79療養病床数:48精神病床数:0感染症病床数:0合計病床数:127】長野県安曇野市穂高４６３４" }, "geometry": { "type": "Point", "coordinates": [ 137.887333, 36.331782 ] } },
{ "type": "Feature", "properties": { "ID": 2011206000580, "正式名称": "長野県立こども病院", "機関区分": 1, "都道府県コード": 20, "市区町村コード": 220, "所在地": "長野県安曇野市豊科３１００", "緯度": 36.284789, "経度": 137.920554, "url": "https://www.iryou.teikyouseido.mhlw.go.jp/znk-web/juminkanja/S2430/initialize?prefCd=20&kikanCd=1206000580&kikanKbn=1", "url2": "https://nagano-child.jp/", "内容": "長野県立こども病院【1:病院】【診療科目:循環器小児科，神経小児科_脳神経外科_心臓血管外科_整形外科_形成外科_小児科_小児外科_産科_婦人科_眼科_耳鼻いんこう科_皮膚科_泌尿器科_精神科_アレルギー科_リハビリテーション科_放射線科_麻酔科】【一般病床数:193療養病床数:0精神病床数:0感染症病床数:0合計病床数:193】長野県安曇野市豊科３１００" }, "geometry": { "type": "Point", "coordinates": [ 137.920554, 36.284789 ] } },
{ "type": "Feature", "properties": { "ID": 2011206100190, "正式名称": "市立大町総合病院", "機関区分": 1, "都道府県コード": 20, "市区町村コード": 212, "所在地": "長野県大町市大町３１３０番地", "緯度": 36.501095, "経度": 137.857912, "url": "https://www.iryou.teikyouseido.mhlw.go.jp/znk-web/juminkanja/S2430/initialize?prefCd=20&kikanCd=1206100190&kikanKbn=1", "url2": "https://www.omachi-hospital.jp/", "内容": "市立大町総合病院【1:病院】【診療科目:内科_感染症内科_血液内科_糖尿病・内分泌内科_呼吸器内科_循環器内科_消化器内科_腎臓内科_神経内科_漢方内科_外科_脳神経外科_整形外科_形成外科_小児科_産婦人科_眼科_耳鼻いんこう科_皮膚科_泌尿器科_歯科口腔外科_リウマチ科】【一般病床数:147療養病床数:48精神病床数:0感染症病床数:4合計病床数:199】長野県大町市大町３１３０番地" }, "geometry": { "type": "Point", "coordinates": [ 137.857912, 36.501095 ] } },
{ "type": "Feature", "properties": { "ID": 2011206100350, "正式名称": "長野県厚生農業協同組合連合会　北アルプス医療センターあづみ病院", "機関区分": 1, "都道府県コード": 20, "市区町村コード": 481, "所在地": "長野県北安曇郡池田町大字池田３２０７－１", "緯度": 36.421299, "経度": 137.872914, "url": "https://www.iryou.teikyouseido.mhlw.go.jp/znk-web/juminkanja/S2430/initialize?prefCd=20&kikanCd=1206100350&kikanKbn=1", "url2": "http://www.azumi-ghp.jp/", "内容": "長野県厚生農業協同組合連合会　北アルプス医療センターあづみ病院【1:病院】【診療科目:内科_血液内科_脳神経内科_呼吸器内科_循環器内科_消化器内科_腎臓内科_外科_脳神経外科_呼吸器外科_消化器外科_整形外科_形成外科_小児科_産婦人科_眼科_耳鼻いんこう科_皮膚科_泌尿器科_精神科_歯科口腔外科_リウマチ科_リハビリテーション科_放射線科_病理診断科_麻酔科】【一般病床数:204療養病床数:0精神病床数:120感染症病床数:0合計病床数:324】長野県北安曇郡池田町大字池田３２０７－１" }, "geometry": { "type": "Point", "coordinates": [ 137.872914, 36.421299 ] } },
{ "type": "Feature", "properties": { "ID": 2011206200120, "正式名称": "厚生連　南長野医療センター篠ノ井総合病院", "機関区分": 1, "都道府県コード": 20, "市区町村コード": 201, "所在地": "長野県長野市篠ノ井会６６６－１", "緯度": 36.575428, "経度": 138.149328, "url": "https://www.iryou.teikyouseido.mhlw.go.jp/znk-web/juminkanja/S2430/initialize?prefCd=20&kikanCd=1206200120&kikanKbn=1", "url2": "http://www.shinonoi-ghp.jp/", "内容": "厚生連　南長野医療センター篠ノ井総合病院【1:病院】【診療科目:内科_呼吸器内科_循環器内科_消化器内科_腎臓内科_糖尿病・内分泌・代謝内科_外科_脳神経外科_呼吸器外科_心臓血管外科_消化器外科_肛門外科_整形外科_形成外科_小児科_産婦人科_眼科_耳鼻いんこう科_皮膚科_泌尿器科_精神科_心療内科_歯科口腔外科_リウマチ科_リハビリテーション科_放射線科_病理診断科_臨床検査科_救急科_麻酔科】【一般病床数:418療養病床数:0精神病床数:0感染症病床数:0合計病床数:418】長野県長野市篠ノ井会６６６－１" }, "geometry": { "type": "Point", "coordinates": [ 138.149328, 36.575428 ] } },
{ "type": "Feature", "properties": { "ID": 2011206200410, "正式名称": "ナカジマ外科病院", "機関区分": 1, "都道府県コード": 20, "市区町村コード": 201, "所在地": "長野県長野市青木島１－２３－３", "緯度": 36.617285, "経度": 138.178046, "url": "https://www.iryou.teikyouseido.mhlw.go.jp/znk-web/juminkanja/S2430/initialize?prefCd=20&kikanCd=1206200410&kikanKbn=1", "url2": "http://www7a.biglobe.ne.jp/~nakajimahp", "内容": "ナカジマ外科病院【1:病院】【診療科目:外科_呼吸器外科_気管食道外科_胃腸外科_肛門外科_放射線科】【一般病床数:0療養病床数:48精神病床数:0感染症病床数:0合計病床数:48】長野県長野市青木島１－２３－３" }, "geometry": { "type": "Point", "coordinates": [ 138.178046, 36.617285 ] } },
{ "type": "Feature", "properties": { "ID": 2011206300150, "正式名称": "社会医療法人大西会千曲中央病院", "機関区分": 1, "都道府県コード": 20, "市区町村コード": 218, "所在地": "長野県千曲市大字杭瀬下５８", "緯度": 36.53071, "経度": 138.118832, "url": "https://www.iryou.teikyouseido.mhlw.go.jp/znk-web/juminkanja/S2430/initialize?prefCd=20&kikanCd=1206300150&kikanKbn=1", "url2": "http://www.chikuma-chp.com", "内容": "社会医療法人大西会千曲中央病院【1:病院】【診療科目:内科_代謝内科_糖尿病・内分泌内科_呼吸器内科_循環器内科_消化器内科_外科_脳神経外科_消化器外科_膵臓外科_胆のう外科_整形外科_形成外科_婦人科_泌尿器科_歯科_リハビリテーション科_放射線科_救急科_麻酔科】【一般病床数:155療養病床数:40精神病床数:0感染症病床数:0合計病床数:195】長野県千曲市大字杭瀬下５８" }, "geometry": { "type": "Point", "coordinates": [ 138.118832, 36.53071 ] } },
{ "type": "Feature", "properties": { "ID": 2011206300280, "正式名称": "稲荷山医療福祉センター", "機関区分": 1, "都道府県コード": 20, "市区町村コード": 218, "所在地": "長野県千曲市野高場１８３５－９", "緯度": 36.538598, "経度": 138.108666, "url": "https://www.iryou.teikyouseido.mhlw.go.jp/znk-web/juminkanja/S2430/initialize?prefCd=20&kikanCd=1206300280&kikanKbn=1", "url2": "http://www.timelyhit.ne.jp/inasenta/", "内容": "稲荷山医療福祉センター【1:病院】【診療科目:内科_整形外科_小児科_専門小児科_精神科_心療内科_小児精神科_障害歯科_リハビリテーション科】【一般病床数:80療養病床数:0精神病床数:0感染症病床数:0合計病床数:80】長野県千曲市野高場１８３５－９" }, "geometry": { "type": "Point", "coordinates": [ 138.108666, 36.538598 ] } },
{ "type": "Feature", "properties": { "ID": 2011206300310, "正式名称": "篠ノ井橋病院", "機関区分": 1, "都道府県コード": 20, "市区町村コード": 218, "所在地": "長野県千曲市雨宮１６３６", "緯度": 36.555513, "経度": 138.140607, "url": "https://www.iryou.teikyouseido.mhlw.go.jp/znk-web/juminkanja/S2430/initialize?prefCd=20&kikanCd=1206300310&kikanKbn=1", "url2": "https://www.shinonoibashi-hp.jp/", "内容": "篠ノ井橋病院【1:病院】【診療科目:精神科】【一般病床数:0療養病床数:0精神病床数:96感染症病床数:0合計病床数:96】長野県千曲市雨宮１６３６" }, "geometry": { "type": "Point", "coordinates": [ 138.140607, 36.555513 ] } },
{ "type": "Feature", "properties": { "ID": 2011206400180, "正式名称": "長野県立信州医療センター", "機関区分": 1, "都道府県コード": 20, "市区町村コード": 207, "所在地": "長野県須坂市大字須坂１３３２", "緯度": 36.65409, "経度": 138.309491, "url": "https://www.iryou.teikyouseido.mhlw.go.jp/znk-web/juminkanja/S2430/initialize?prefCd=20&kikanCd=1206400180&kikanKbn=1", "url2": "https://shinshumedicalcenter.jp/", "内容": "長野県立信州医療センター【1:病院】【診療科目:内科_感染症内科_血液内科_脳神経内科_呼吸器内科_循環器内科_消化器内科_外科_脳神経外科_呼吸器外科_血管外科_心臓血管外科_整形外科_形成外科_小児科_産婦人科_眼科_耳鼻いんこう科_皮膚科_泌尿器科_精神科_リハビリテーション科_放射線科_病理診断科_救急科_麻酔科】【一般病床数:261療養病床数:0精神病床数:0感染症病床数:4合計病床数:289】長野県須坂市大字須坂１３３２" }, "geometry": { "type": "Point", "coordinates": [ 138.309491, 36.65409 ] } },
{ "type": "Feature", "properties": { "ID": 2011206400340, "正式名称": "医療法人公仁会轟病院", "機関区分": 1, "都道府県コード": 20, "市区町村コード": 207, "所在地": "長野県須坂市須坂１２３９番地", "緯度": 36.657756, "経度": 138.308505, "url": "https://www.iryou.teikyouseido.mhlw.go.jp/znk-web/juminkanja/S2430/initialize?prefCd=20&kikanCd=1206400340&kikanKbn=1", "url2": "http://www.todoroki-h.com", "内容": "医療法人公仁会轟病院【1:病院】【診療科目:内科_外科_肛門外科_整形外科_形成外科_皮膚科_歯科_矯正歯科_歯科口腔外科_小児歯科_リハビリテーション科】【一般病床数:39療養病床数:60精神病床数:0感染症病床数:0合計病床数:99】長野県須坂市須坂１２３９番地" }, "geometry": { "type": "Point", "coordinates": [ 138.308505, 36.657756 ] } },
{ "type": "Feature", "properties": { "ID": 2011206400470, "正式名称": "特定医療法人新生病院", "機関区分": 1, "都道府県コード": 20, "市区町村コード": 541, "所在地": "長野県上高井郡小布施町小布施８５１番地", "緯度": 36.689836, "経度": 138.318475, "url": "https://www.iryou.teikyouseido.mhlw.go.jp/znk-web/juminkanja/S2430/initialize?prefCd=20&kikanCd=1206400470&kikanKbn=1", "url2": "http://www.newlife.or.jp", "内容": "特定医療法人新生病院【1:病院】【診療科目:内科_循環器内科_消化器内科_緩和ケア内科_脳神経外科_整形外科_形成外科_婦人科_皮膚科_泌尿器科_歯科_歯科口腔外科_リハビリテーション科_放射線科】【一般病床数:100療養病床数:55精神病床数:0感染症病床数:0合計病床数:155】長野県上高井郡小布施町小布施８５１番地" }, "geometry": { "type": "Point", "coordinates": [ 138.318475, 36.689836 ] } },
{ "type": "Feature", "properties": { "ID": 2011206500110, "正式名称": "長野県厚生農業協同組合連合会北信総合病院", "機関区分": 1, "都道府県コード": 20, "市区町村コード": 211, "所在地": "長野県中野市西１丁目５番６３号", "緯度": 36.746414, "経度": 138.365996, "url": "https://www.iryou.teikyouseido.mhlw.go.jp/znk-web/juminkanja/S2430/initialize?prefCd=20&kikanCd=1206500110&kikanKbn=1", "url2": "http://www.hokushin-hosp.jp/", "内容": "長野県厚生農業協同組合連合会北信総合病院【1:病院】【診療科目:内科_内分泌内科_脳神経内科_呼吸器内科_循環器内科_消化器内科_腎臓内科_緩和ケア内科_外科_脳神経外科_呼吸器外科_心臓血管外科_整形外科_形成外科_美容外科_小児科_産婦人科_眼科_頭頸部・耳鼻いんこう科_皮膚科_泌尿器科_精神科_歯科口腔外科_リハビリテーション科_放射線科_病理診断科_麻酔科】【一般病床数:337療養病床数:38精神病床数:40感染症病床数:4合計病床数:419】長野県中野市西１丁目５番６３号" }, "geometry": { "type": "Point", "coordinates": [ 138.365996, 36.746414 ] } },
{ "type": "Feature", "properties": { "ID": 2011206600140, "正式名称": "長野県厚生農業協同組合連合会　長野松代総合病院", "機関区分": 1, "都道府県コード": 20, "市区町村コード": 201, "所在地": "長野県長野市松代町松代１８３", "緯度": 36.563791, "経度": 138.199241, "url": "https://www.iryou.teikyouseido.mhlw.go.jp/znk-web/juminkanja/S2430/initialize?prefCd=20&kikanCd=1206600140&kikanKbn=1", "url2": "http://www.nagano-matsushiro.or.jp/", "内容": "長野県厚生農業協同組合連合会　長野松代総合病院【1:病院】【診療科目:内科_呼吸器内科_循環器内科_消化器内科_神経内科_外科_脳神経外科_呼吸器外科_心臓血管外科_整形外科_形成外科_小児科_産婦人科_眼科_耳鼻いんこう科_皮膚科_泌尿器科_精神科_心療内科_歯科口腔外科_アレルギー科_リウマチ科_リハビリテーション科_放射線科_麻酔科】【一般病床数:352療養病床数:0精神病床数:0感染症病床数:4合計病床数:356】長野県長野市松代町松代１８３" }, "geometry": { "type": "Point", "coordinates": [ 138.199241, 36.563791 ] } },
{ "type": "Feature", "properties": { "ID": 2011206600270, "正式名称": "独立行政法人国立病院機構東長野病院", "機関区分": 1, "都道府県コード": 20, "市区町村コード": 201, "所在地": "長野県長野市上野２丁目４７７番地", "緯度": 36.687806, "経度": 138.23951, "url": "https://www.iryou.teikyouseido.mhlw.go.jp/znk-web/juminkanja/S2430/initialize?prefCd=20&kikanCd=1206600270&kikanKbn=1", "url2": "https://higashinagano.hosp.go.jp/", "内容": "独立行政法人国立病院機構東長野病院【1:病院】【診療科目:内科_呼吸器内科_循環器内科_消化器内科_外科_整形外科_小児科_児童精神科_耳鼻いんこう科_アレルギー科_リハビリテーション科_放射線科】【一般病床数:219療養病床数:0精神病床数:0感染症病床数:0合計病床数:219】長野県長野市上野２丁目４７７番地" }, "geometry": { "type": "Point", "coordinates": [ 138.23951, 36.687806 ] } },
{ "type": "Feature", "properties": { "ID": 2011206600720, "正式名称": "医療法人慈恵会吉田病院", "機関区分": 1, "都道府県コード": 20, "市区町村コード": 201, "所在地": "長野県長野市吉田２−１−２６", "緯度": 36.670113, "経度": 138.218374, "url": "https://www.iryou.teikyouseido.mhlw.go.jp/znk-web/juminkanja/S2430/initialize?prefCd=20&kikanCd=1206600720&kikanKbn=1", "url2": "http://www.yoshida-hospital.or.jp", "内容": "医療法人慈恵会吉田病院【1:病院】【診療科目:産婦人科_麻酔科】【一般病床数:24療養病床数:0精神病床数:0感染症病床数:0合計病床数:24】長野県長野市吉田２−１−２６" }, "geometry": { "type": "Point", "coordinates": [ 138.218374, 36.670113 ] } },
{ "type": "Feature", "properties": { "ID": 2011206601150, "正式名称": "医療法人公生会　竹重病院", "機関区分": 1, "都道府県コード": 20, "市区町村コード": 201, "所在地": "長野県長野市田町２０９９", "緯度": 36.654753, "経度": 138.197209, "url": "https://www.iryou.teikyouseido.mhlw.go.jp/znk-web/juminkanja/S2430/initialize?prefCd=20&kikanCd=1206601150&kikanKbn=1", "url2": "http://www.takeshige-hosp.com", "内容": "医療法人公生会　竹重病院【1:病院】【診療科目:内科_糖尿病・内分泌内科_呼吸器内科_循環器内科_消化器内科_胃腸内科_外科_整形外科_小児科_児童精神科_皮膚泌尿器科_児童精神科_リハビリテーション科_放射線科_救急科】【一般病床数:72療養病床数:0精神病床数:0感染症病床数:0合計病床数:72】長野県長野市田町２０９９" }, "geometry": { "type": "Point", "coordinates": [ 138.197209, 36.654753 ] } },
{ "type": "Feature", "properties": { "ID": 2011206601280, "正式名称": "医療法人鶴賀会　鶴賀病院", "機関区分": 1, "都道府県コード": 20, "市区町村コード": 201, "所在地": "長野県長野市鶴賀居町１７５０", "緯度": 36.649226, "経度": 138.198904, "url": "https://www.iryou.teikyouseido.mhlw.go.jp/znk-web/juminkanja/S2430/initialize?prefCd=20&kikanCd=1206601280&kikanKbn=1", "url2": "http://www.tsurugahp.jp", "内容": "医療法人鶴賀会　鶴賀病院【1:病院】【診療科目:内科_精神科_神経科】【一般病床数:0療養病床数:0精神病床数:368感染症病床数:0合計病床数:368】長野県長野市鶴賀居町１７５０" }, "geometry": { "type": "Point", "coordinates": [ 138.198904, 36.649226 ] } },
{ "type": "Feature", "properties": { "ID": 2011206601570, "正式名称": "医療法人博和会　上松病院", "機関区分": 1, "都道府県コード": 20, "市区町村コード": 201, "所在地": "長野県長野市上松５丁目３番地１０号", "緯度": 36.679112, "経度": 138.19918, "url": "https://www.iryou.teikyouseido.mhlw.go.jp/znk-web/juminkanja/S2430/initialize?prefCd=20&kikanCd=1206601570&kikanKbn=1", "url2": "https://uematsuhosp.or.jp/", "内容": "医療法人博和会　上松病院【1:病院】【診療科目:内科_精神科_神経科_心療内科（漢方）】【一般病床数:0療養病床数:0精神病床数:160感染症病床数:0合計病床数:160】長野県長野市上松５丁目３番地１０号" }, "geometry": { "type": "Point", "coordinates": [ 138.19918, 36.679112 ] } },
{ "type": "Feature", "properties": { "ID": 2011206601600, "正式名称": "北野病院", "機関区分": 1, "都道府県コード": 20, "市区町村コード": 201, "所在地": "長野県長野市三輪３丁目６番１０号", "緯度": 36.66178, "経度": 138.203792, "url": "https://www.iryou.teikyouseido.mhlw.go.jp/znk-web/juminkanja/S2430/initialize?prefCd=20&kikanCd=1206601600&kikanKbn=1", "url2": "http://www.kitanohospital.com", "内容": "北野病院【1:病院】【診療科目:内科_循環器内科_腎臓内科_人工透析内科_内視鏡内科_小児科】【一般病床数:35療養病床数:0精神病床数:0感染症病床数:0合計病床数:35】長野県長野市三輪３丁目６番１０号" }, "geometry": { "type": "Point", "coordinates": [ 138.203792, 36.66178 ] } },
{ "type": "Feature", "properties": { "ID": 2011206601860, "正式名称": "公益財団法人　倉石地域振興財団　栗田病院", "機関区分": 1, "都道府県コード": 20, "市区町村コード": 201, "所在地": "長野県長野市栗田６９５", "緯度": 36.637863, "経度": 138.199249, "url": "https://www.iryou.teikyouseido.mhlw.go.jp/znk-web/juminkanja/S2430/initialize?prefCd=20&kikanCd=1206601860&kikanKbn=1", "url2": "https://www.kuritahp.or.jp/", "内容": "公益財団法人　倉石地域振興財団　栗田病院【1:病院】【診療科目:内科_呼吸器内科_循環器内科_消化器内科_精神科_心療内科_老年精神科_児童思春期精神科_歯科_小児歯科】【一般病床数:0療養病床数:84精神病床数:643感染症病床数:0合計病床数:727】長野県長野市栗田６９５" }, "geometry": { "type": "Point", "coordinates": [ 138.199249, 36.637863 ] } },
{ "type": "Feature", "properties": { "ID": 2011206602580, "正式名称": "田中病院", "機関区分": 1, "都道府県コード": 20, "市区町村コード": 201, "所在地": "長野県長野市西和田１－２９－８", "緯度": 36.653809, "経度": 138.219874, "url": "https://www.iryou.teikyouseido.mhlw.go.jp/znk-web/juminkanja/S2430/initialize?prefCd=20&kikanCd=1206602580&kikanKbn=1", "url2": "http://www.tanaka-hp.com", "内容": "田中病院【1:病院】【診療科目:内科_消化器内科_胃腸内科_外科_肛門外科_小児科】【一般病床数:39療養病床数:0精神病床数:0感染症病床数:0合計病床数:39】長野県長野市西和田１－２９－８" }, "geometry": { "type": "Point", "coordinates": [ 138.219874, 36.653809 ] } },
{ "type": "Feature", "properties": { "ID": 2011206602610, "正式名称": "長野県立総合リハビリテーションセンター", "機関区分": 1, "都道府県コード": 20, "市区町村コード": 201, "所在地": "長野県長野市大字下駒沢６１８－１", "緯度": 36.682529, "経度": 138.255981, "url": "https://www.iryou.teikyouseido.mhlw.go.jp/znk-web/juminkanja/S2430/initialize?prefCd=20&kikanCd=1206602610&kikanKbn=1", "url2": "https://www.nagano-reha.pref.nagano.lg.jp/", "内容": "長野県立総合リハビリテーションセンター【1:病院】【診療科目:内科_脳神経内科_整形外科_泌尿器科_リハビリテーション科_麻酔科】【一般病床数:80療養病床数:0精神病床数:0感染症病床数:0合計病床数:80】長野県長野市大字下駒沢６１８－１" }, "geometry": { "type": "Point", "coordinates": [ 138.255981, 36.682529 ] } },
{ "type": "Feature", "properties": { "ID": 2011206602900, "正式名称": "長野医療生活協同組合長野中央病院", "機関区分": 1, "都道府県コード": 20, "市区町村コード": 201, "所在地": "長野県長野市西鶴賀町１５７０番地", "緯度": 36.651309, "経度": 138.195626, "url": "https://www.iryou.teikyouseido.mhlw.go.jp/znk-web/juminkanja/S2430/initialize?prefCd=20&kikanCd=1206602900&kikanKbn=1", "url2": "http://www.nagano-chuo-hospital.jp/", "内容": "長野医療生活協同組合長野中央病院【1:病院】【診療科目:内科_糖尿病・内分泌内科_呼吸器内科_循環器内科_消化器内科_腎臓内科_透析内科_外科_脳神経外科_呼吸器外科_心臓血管外科_消化器外科_乳腺外科_肛門外科_整形外科_小児科_婦人科_眼科_耳鼻いんこう科_皮膚科_リウマチ科_リハビリテーション科_放射線科_病理診断科_救急科_麻酔科】【一般病床数:322療養病床数:0精神病床数:0感染症病床数:0合計病床数:322】長野県長野市西鶴賀町１５７０番地" }, "geometry": { "type": "Point", "coordinates": [ 138.195626, 36.651309 ] } },
{ "type": "Feature", "properties": { "ID": 2011206603200, "正式名称": "医療法人健成会　小林脳神経外科病院", "機関区分": 1, "都道府県コード": 20, "市区町村コード": 201, "所在地": "長野県長野市三輪１－５－２１", "緯度": 36.656587, "経度": 138.206514, "url": "https://www.iryou.teikyouseido.mhlw.go.jp/znk-web/juminkanja/S2430/initialize?prefCd=20&kikanCd=1206603200&kikanKbn=1", "url2": "https://kobayashi-noushinkeigeka.com", "内容": "医療法人健成会　小林脳神経外科病院【1:病院】【診療科目:脳神経外科_リハビリテーション科_麻酔科】【一般病床数:50療養病床数:0精神病床数:0感染症病床数:0合計病床数:50】長野県長野市三輪１－５－２１" }, "geometry": { "type": "Point", "coordinates": [ 138.206514, 36.656587 ] } },
{ "type": "Feature", "properties": { "ID": 2011206603330, "正式名称": "東口病院", "機関区分": 1, "都道府県コード": 20, "市区町村コード": 201, "所在地": "長野県長野市大字栗田１６１８番地１", "緯度": 36.639937, "経度": 138.189804, "url": "https://www.iryou.teikyouseido.mhlw.go.jp/znk-web/juminkanja/S2430/initialize?prefCd=20&kikanCd=1206603330&kikanKbn=1", "url2": "https://higashiguchi-hosp.or.jp/", "内容": "東口病院【1:病院】【診療科目:消化器内科_こう門内科_外科_消化器外科_肛門外科_麻酔科】【一般病床数:39療養病床数:0精神病床数:0感染症病床数:0合計病床数:39】長野県長野市大字栗田１６１８番地１" }, "geometry": { "type": "Point", "coordinates": [ 138.189804, 36.639937 ] } },
{ "type": "Feature", "properties": { "ID": 2011206603460, "正式名称": "長野県厚生農業協同組合連合会南長野医療センター新町病院", "機関区分": 1, "都道府県コード": 20, "市区町村コード": 201, "所在地": "長野県長野市信州新町上条１３７", "緯度": 36.57323, "経度": 138.021284, "url": "https://www.iryou.teikyouseido.mhlw.go.jp/znk-web/juminkanja/S2430/initialize?prefCd=20&kikanCd=1206603460&kikanKbn=1", "url2": "http://www.shinmachi-hsp.com/", "内容": "長野県厚生農業協同組合連合会南長野医療センター新町病院【1:病院】【診療科目:内科_脳神経内科_外科_整形外科_小児科_婦人科_眼科_耳鼻いんこう科_皮膚科_泌尿器科_精神科_心療内科_リハビリテーション科】【一般病床数:100療養病床数:40精神病床数:0感染症病床数:0合計病床数:140】長野県長野市信州新町上条１３７" }, "geometry": { "type": "Point", "coordinates": [ 138.021284, 36.57323 ] } },
{ "type": "Feature", "properties": { "ID": 2011206603750, "正式名称": "飯綱町立飯綱病院", "機関区分": 1, "都道府県コード": 20, "市区町村コード": 590, "所在地": "長野県上水内郡飯綱町牟礼２２２０番地", "緯度": 36.748827, "経度": 138.235619, "url": "https://www.iryou.teikyouseido.mhlw.go.jp/znk-web/juminkanja/S2430/initialize?prefCd=20&kikanCd=1206603750&kikanKbn=1", "url2": "http://iizuna-hp.jp/", "内容": "飯綱町立飯綱病院【1:病院】【診療科目:内科_循環器内科_消化器内科_外科_脳神経外科_整形外科_形成外科_小児科_眼科_耳鼻いんこう科_泌尿器科_歯科_矯正歯科_リウマチ科_リハビリテーション科_麻酔科】【一般病床数:110療養病床数:30精神病床数:0感染症病床数:0合計病床数:140】長野県上水内郡飯綱町牟礼２２２０番地" }, "geometry": { "type": "Point", "coordinates": [ 138.235619, 36.748827 ] } },
{ "type": "Feature", "properties": { "ID": 2011206603910, "正式名称": "長野赤十字病院", "機関区分": 1, "都道府県コード": 20, "市区町村コード": 201, "所在地": "長野県長野市若里５丁目２２－１", "緯度": 36.627117, "経度": 138.1901, "url": "https://www.iryou.teikyouseido.mhlw.go.jp/znk-web/juminkanja/S2430/initialize?prefCd=20&kikanCd=1206603910&kikanKbn=1", "url2": "https://www.nagano-med.jrc.or.jp/", "内容": "長野赤十字病院【1:病院】【診療科目:内科_感染症内科_血液内科_糖尿病・内分泌内科_呼吸器内科_循環器内科_消化器内科_腎臓内科_神経内科_腫瘍内科_外科_脳神経外科_呼吸器外科_心臓血管外科_消化器外科_肝臓・胆のう・膵臓外科_乳腺・内分泌外科_整形外科_形成外科_小児科_小児外科_産婦人科_婦人腫瘍科_眼科_頭頸部・耳鼻いんこう科_皮膚科_泌尿器科_精神科_歯科口腔外科_アレルギー科_リウマチ科_リハビリテーション科_放射線診断科_放射線治療科_病理診断科_臨床検査科_救急科_麻酔科】【一般病床数:617療養病床数:0精神病床数:35感染症病床数:0合計病床数:652】長野県長野市若里５丁目２２－１" }, "geometry": { "type": "Point", "coordinates": [ 138.1901, 36.627117 ] } },
{ "type": "Feature", "properties": { "ID": 2011206604050, "正式名称": "長野市民病院", "機関区分": 1, "都道府県コード": 20, "市区町村コード": 201, "所在地": "長野県長野市大字富竹１３３３番地１", "緯度": 36.66967, "経度": 138.254259, "url": "https://www.iryou.teikyouseido.mhlw.go.jp/znk-web/juminkanja/S2430/initialize?prefCd=20&kikanCd=1206604050&kikanKbn=1", "url2": "http://www.hospital.nagano.nagano.jp/", "内容": "長野市民病院【1:病院】【診療科目:内科_血液内科_糖尿病・内分泌内科_脳神経内科_呼吸器内科_循環器内科_消化器内科_腎臓内科_肝臓内科_緩和ケア内科_外科_脳神経外科_呼吸器外科_食道外科_心臓血管外科_消化器外科_大腸外科_肝臓・胆のう・膵臓外科_乳腺・内分泌外科_頭頸部外科_整形外科_形成外科_小児科_婦人科_眼科_耳鼻いんこう科_皮膚科_泌尿器科_精神科_歯科_歯科口腔外科_リウマチ科_リハビリテーション科_放射線診断科_放射線治療科_病理診断科_救急科_麻酔科】【一般病床数:400療養病床数:0精神病床数:0感染症病床数:0合計病床数:400】長野県長野市大字富竹１３３３番地１" }, "geometry": { "type": "Point", "coordinates": [ 138.254259, 36.66967 ] } },
{ "type": "Feature", "properties": { "ID": 2011206604180, "正式名称": "医療法人愛和会　愛和病院", "機関区分": 1, "都道府県コード": 20, "市区町村コード": 201, "所在地": "長野県長野市鶴賀１０４４－２", "緯度": 36.646231, "経度": 138.195024, "url": "https://www.iryou.teikyouseido.mhlw.go.jp/znk-web/juminkanja/S2430/initialize?prefCd=20&kikanCd=1206604180&kikanKbn=1", "url2": "https://aiwahp.net", "内容": "医療法人愛和会　愛和病院【1:病院】【診療科目:内科_神経内科_緩和ケア内科_歯科】【一般病床数:64療養病床数:0精神病床数:0感染症病床数:0合計病床数:64】長野県長野市鶴賀１０４４－２" }, "geometry": { "type": "Point", "coordinates": [ 138.195024, 36.646231 ] } },
{ "type": "Feature", "properties": { "ID": 201120660421, "正式名称": "信越病院", "機関区分": 1, "都道府県コード": 20, "市区町村コード": 583, "所在地": "長野県上水内郡信濃町柏原２４３７", "緯度": 36.809711, "経度": 138.199257, "url": "https://www.iryou.teikyouseido.mhlw.go.jp/znk-web/juminkanja/S2430/initialize?prefCd=20&kikanCd=120660421&kikanKbn=1", "url2": "http://shin-etsu-hsp.jp/", "内容": "信越病院【1:病院】【診療科目:内科_外科_整形外科_小児科_眼科_リハビリテーション科】【一般病床数:32療養病床数:20精神病床数:0感染症病床数:0合計病床数:52】長野県上水内郡信濃町柏原２４３７" }, "geometry": { "type": "Point", "coordinates": [ 138.199257, 36.809711 ] } },
{ "type": "Feature", "properties": { "ID": 2011206700200, "正式名称": "医療法人聖峰会佐藤病院", "機関区分": 1, "都道府県コード": 20, "市区町村コード": 211, "所在地": "長野県中野市上今井", "緯度": 36.753023, "経度": 138.318834, "url": "https://www.iryou.teikyouseido.mhlw.go.jp/znk-web/juminkanja/S2430/initialize?prefCd=20&kikanCd=1206700200&kikanKbn=1", "url2": "http://www.issh.jp/", "内容": "医療法人聖峰会佐藤病院【1:病院】【診療科目:内科_精神科_心療内科_リハビリテーション科】【一般病床数:20療養病床数:0精神病床数:100感染症病床数:0合計病床数:120】長野県中野市上今井" }, "geometry": { "type": "Point", "coordinates": [ 138.318834, 36.753023 ] } },
{ "type": "Feature", "properties": { "ID": 2011206700330, "正式名称": "飯山赤十字病院", "機関区分": 1, "都道府県コード": 20, "市区町村コード": 213, "所在地": "長野県飯山市大字飯山２２６番地１", "緯度": 36.84793, "経度": 138.359854, "url": "https://www.iryou.teikyouseido.mhlw.go.jp/znk-web/juminkanja/S2430/initialize?prefCd=20&kikanCd=1206700330&kikanKbn=1", "url2": "http://www.iiyama.jrc.or.jp", "内容": "飯山赤十字病院【1:病院】【診療科目:内科_脳神経内科_呼吸器内科_循環器内科_消化器内科_外科_脳神経外科_整形外科_形成外科_小児科_産婦人科_眼科_耳鼻いんこう科_皮膚科_泌尿器科_精神科_心療内科_リハビリテーション科_放射線科_救急科_麻酔科】【一般病床数:230療養病床数:44精神病床数:0感染症病床数:0合計病床数:274】長野県飯山市大字飯山２２６番地１" }, "geometry": { "type": "Point", "coordinates": [ 138.359854, 36.84793 ] } },
{ "type": "Feature", "properties": { "ID": 2012205430035, "正式名称": "高浜医院", "機関区分": 1, "都道府県コード": 20, "市区町村コード": 361, "所在地": "長野県諏訪郡下諏訪町西豊６１７０番地１１", "緯度": 36.06515, "経度": 138.09142, "url": "https://www.iryou.teikyouseido.mhlw.go.jp/znk-web/juminkanja/S2430/initialize?prefCd=20&kikanCd=2205430035&kikanKbn=1", "url2": "https://takahama-suwa.jp/", "内容": "高浜医院【1:病院】【診療科目:内科_消化器内科_小児科】【一般病床数:0療養病床数:0精神病床数:0感染症病床数:0合計病床数:0】長野県諏訪郡下諏訪町西豊６１７０番地１１" }, "geometry": { "type": "Point", "coordinates": [ 138.09142, 36.06515 ] } }
]
}
