{
"type": "FeatureCollection",
"name": "geo_20_地域密着型特定施設入居者生活介護（有料老人ホーム）",
"crs": { "type": "name", "properties": { "name": "urn:ogc:def:crs:OGC:1.3:CRS84" } },
"features": [
{ "type": "Feature", "properties": { "内容": "介護付有料老人ホームコスモスあもり【地域密着型特定施設入居者生活介護（有料老人ホーム）】長野県長野市安茂里伊勢宮１７８３番地１７", "url": "https://www.kaigokensaku.mhlw.go.jp/20/index.php?action_kouhyou_detail_004_kani=true&JigyosyoCd=2090100526-00&ServiceCd=361&Type=search", "url2": "http://cosmosnet.or.jp" }, "geometry": { "type": "Point", "coordinates": [ 138.172406446310447, 36.635979028439976 ] } },
{ "type": "Feature", "properties": { "内容": "地域密着型特定施設入居者生活介護　七瀬の杜【地域密着型特定施設入居者生活介護（有料老人ホーム）】長野県長野市鶴賀111-3七瀬の杜", "url": "https://www.kaigokensaku.mhlw.go.jp/20/index.php?action_kouhyou_detail_004_kani=true&JigyosyoCd=2090100252-00&ServiceCd=361&Type=search", "url2": "http://www.lifecare-mayu.com/index.php" }, "geometry": { "type": "Point", "coordinates": [ 138.189457700000048, 36.6527487 ] } },
{ "type": "Feature", "properties": { "内容": "ケアライフ柳原【地域密着型特定施設入居者生活介護（有料老人ホーム）】長野県長野市大字小島７８５番地", "url": "https://www.kaigokensaku.mhlw.go.jp/20/index.php?action_kouhyou_detail_004_kani=true&JigyosyoCd=2090100179-00&ServiceCd=361&Type=search", "url2": "http://www.fb-kaigo.co.jp/" }, "geometry": { "type": "Point", "coordinates": [ 138.258494599999949, 36.6656101 ] } },
{ "type": "Feature", "properties": { "内容": "介護付有料老人ホームコスモスプラネット篠ノ井【地域密着型特定施設入居者生活介護（有料老人ホーム）】長野県長野市篠ノ井会６１８-２", "url": "https://www.kaigokensaku.mhlw.go.jp/20/index.php?action_kouhyou_detail_004_kani=true&JigyosyoCd=2090100153-00&ServiceCd=361&Type=search", "url2": "http://www.cosmosnet.or.jp/planet.html" }, "geometry": { "type": "Point", "coordinates": [ 138.150595409956395, 36.571297423653171 ] } },
{ "type": "Feature", "properties": { "内容": "やすら木の家とくま【地域密着型特定施設入居者生活介護（有料老人ホーム）】長野県長野市大字徳間字中南555－2", "url": "https://www.kaigokensaku.mhlw.go.jp/20/index.php?action_kouhyou_detail_004_kani=true&JigyosyoCd=2090100138-00&ServiceCd=361&Type=search", "url2": "http://fuji-miya.co.jp/care/" }, "geometry": { "type": "Point", "coordinates": [ 138.22542222582544, 36.676805420518093 ] } },
{ "type": "Feature", "properties": { "内容": "ことぶきの家若穂【地域密着型特定施設入居者生活介護（有料老人ホーム）】長野県長野市若穂綿内８５３９－１", "url": "https://www.kaigokensaku.mhlw.go.jp/20/index.php?action_kouhyou_detail_004_kani=true&JigyosyoCd=2090100104-00&ServiceCd=361&Type=search", "url2": "http://www.kotobuki-group.jp/about/index.php" }, "geometry": { "type": "Point", "coordinates": [ 138.2563404, 36.6213393 ] } },
{ "type": "Feature", "properties": { "内容": "介護付有料老人ホームコスモスさいなみ【地域密着型特定施設入居者生活介護（有料老人ホーム）】長野県長野市小島田町449", "url": "https://www.kaigokensaku.mhlw.go.jp/20/index.php?action_kouhyou_detail_004_kani=true&JigyosyoCd=2090101284-00&ServiceCd=361&Type=search", "url2": "http://www.cosmosnet.or.jp/" }, "geometry": { "type": "Point", "coordinates": [ 138.1810537, 36.5954652 ] } },
{ "type": "Feature", "properties": { "内容": "上松ホーム【地域密着型特定施設入居者生活介護（有料老人ホーム）】長野県長野市上松２丁目２０－８", "url": "https://www.kaigokensaku.mhlw.go.jp/20/index.php?action_kouhyou_detail_004_kani=true&JigyosyoCd=2090100187-00&ServiceCd=361&Type=search", "url2": "http://tomitake-carenet.com/" }, "geometry": { "type": "Point", "coordinates": [ 138.196989391401644, 36.668772360734174 ] } },
{ "type": "Feature", "properties": { "内容": "地域密着型特定施設　有料老人ホームインターコート藤【地域密着型特定施設入居者生活介護（有料老人ホーム）】長野県長野市青木島町綱島７８０－１０", "url": "https://www.kaigokensaku.mhlw.go.jp/20/index.php?action_kouhyou_detail_004_kani=true&JigyosyoCd=2090100021-00&ServiceCd=361&Type=search", "url2": "https://intercourt-fuji.com/" }, "geometry": { "type": "Point", "coordinates": [ 138.20675768836054, 36.611249579274158 ] } },
{ "type": "Feature", "properties": { "内容": "介護付き有料老人ホーム愛ランドまめじま【地域密着型特定施設入居者生活介護（有料老人ホーム）】長野県長野市大字大豆島５２８０－１", "url": "https://www.kaigokensaku.mhlw.go.jp/20/index.php?action_kouhyou_detail_004_kani=true&JigyosyoCd=2090100245-00&ServiceCd=361&Type=search", "url2": "http://www.iland-ishida.jp/shisetsu.html" }, "geometry": { "type": "Point", "coordinates": [ 138.2348518, 36.6276129 ] } },
{ "type": "Feature", "properties": { "内容": "ケアライフ笹賀【地域密着型特定施設入居者生活介護（有料老人ホーム）】長野県松本市野溝西2-10-22", "url": "https://www.kaigokensaku.mhlw.go.jp/20/index.php?action_kouhyou_detail_004_kani=true&JigyosyoCd=2090200383-00&ServiceCd=361&Type=search", "url2": "http://www.fb-kaigo.co.jp" }, "geometry": { "type": "Point", "coordinates": [ 137.949746299999987, 36.2005165 ] } },
{ "type": "Feature", "properties": { "内容": "ラ・ナシカ　まつもと【地域密着型特定施設入居者生活介護（有料老人ホーム）】長野県松本市高宮中4-13", "url": "https://www.kaigokensaku.mhlw.go.jp/20/index.php?action_kouhyou_detail_004_kani=true&JigyosyoCd=2090200227-00&ServiceCd=361&Type=search", "url2": "https://www.cedar-group.co.jp" }, "geometry": { "type": "Point", "coordinates": [ 137.958239400000025, 36.2115884 ] } },
{ "type": "Feature", "properties": { "内容": "まるのうちラクシア【地域密着型特定施設入居者生活介護（有料老人ホーム）】長野県松本市島内3579-1", "url": "https://www.kaigokensaku.mhlw.go.jp/20/index.php?action_kouhyou_detail_004_kani=true&JigyosyoCd=2090200367-00&ServiceCd=361&Type=search", "url2": "http://www.marunouchi.or.jp/at-home_care/rakushia/" }, "geometry": { "type": "Point", "coordinates": [ 137.95016140000007, 36.2392757 ] } },
{ "type": "Feature", "properties": { "内容": "オーチャード開智『地域密着型』【地域密着型特定施設入居者生活介護（有料老人ホーム）】長野県松本市開智二丁目3-50", "url": "https://www.kaigokensaku.mhlw.go.jp/20/index.php?action_kouhyou_detail_004_kani=true&JigyosyoCd=2090200284-00&ServiceCd=361&Type=search", "url2": "http://elysion-gr.com" }, "geometry": { "type": "Point", "coordinates": [ 137.970431400000052, 36.2418236 ] } },
{ "type": "Feature", "properties": { "内容": "ソレイユ暖暖【地域密着型特定施設入居者生活介護（有料老人ホーム）】長野県上田市中野418-1", "url": "https://www.kaigokensaku.mhlw.go.jp/20/index.php?action_kouhyou_detail_004_kani=true&JigyosyoCd=2090300688-00&ServiceCd=361&Type=search", "url2": "http://www.shomezon.jp/dandan/" }, "geometry": { "type": "Point", "coordinates": [ 139.6694446, 35.7056767 ] } },
{ "type": "Feature", "properties": { "内容": "地域密着型特定有料老人ホーム一期一会中之条【地域密着型特定施設入居者生活介護（有料老人ホーム）】長野県上田市中之条１２０", "url": "https://www.kaigokensaku.mhlw.go.jp/20/index.php?action_kouhyou_detail_004_kani=true&JigyosyoCd=2090300480-00&ServiceCd=361&Type=search", "url2": "www.ichigoichie-kaigo.com" }, "geometry": { "type": "Point", "coordinates": [ 138.23179319999997, 36.3946122 ] } },
{ "type": "Feature", "properties": { "内容": "地域密着型特定有料老人ホーム上田大手門【地域密着型特定施設入居者生活介護（有料老人ホーム）】長野県上田市中央2-3-8複合型老人福祉施設上田大手門", "url": "https://www.kaigokensaku.mhlw.go.jp/20/index.php?action_kouhyou_detail_004_kani=true&JigyosyoCd=2090300217-00&ServiceCd=361&Type=search", "url2": "http://taishikai.or.jp/kaigo/sub10.html" }, "geometry": { "type": "Point", "coordinates": [ 138.251431829955351, 36.401918756333792 ] } },
{ "type": "Feature", "properties": { "内容": "地域密着型特定有料老人ホーム一期一会別所【地域密着型特定施設入居者生活介護（有料老人ホーム）】長野県上田市別所温泉２１４", "url": "https://www.kaigokensaku.mhlw.go.jp/20/index.php?action_kouhyou_detail_004_kani=true&JigyosyoCd=2090300399-00&ServiceCd=361&Type=search", "url2": "http://www.ichigoichie-kaigo.com/" }, "geometry": { "type": "Point", "coordinates": [ 138.159668600000032, 36.3492715 ] } },
{ "type": "Feature", "properties": { "内容": "地域密着型特定有料老人ホーム仙寿の里こもれび【地域密着型特定施設入居者生活介護（有料老人ホーム）】長野県上田市長瀬1724番地1", "url": "https://www.kaigokensaku.mhlw.go.jp/20/index.php?action_kouhyou_detail_004_kani=true&JigyosyoCd=2090300522-00&ServiceCd=361&Type=search", "url2": "http://www.6sense.jp" }, "geometry": { "type": "Point", "coordinates": [ 138.289837, 36.3460139 ] } },
{ "type": "Feature", "properties": { "内容": "地域密着型特定有料老人ホームまど花【地域密着型特定施設入居者生活介護（有料老人ホーム）】長野県上田市秋和1147-4", "url": "https://www.kaigokensaku.mhlw.go.jp/20/index.php?action_kouhyou_detail_004_kani=true&JigyosyoCd=2090300472-00&ServiceCd=361&Type=search", "url2": "http://www.ma-do-ka.com/" }, "geometry": { "type": "Point", "coordinates": [ 138.229825793359907, 36.417019369050337 ] } },
{ "type": "Feature", "properties": { "内容": "おはな　和が家【地域密着型特定施設入居者生活介護（有料老人ホーム）】長野県岡谷市山手町2-3-26", "url": "https://www.kaigokensaku.mhlw.go.jp/20/index.php?action_kouhyou_detail_004_kani=true&JigyosyoCd=2090400181-00&ServiceCd=361&Type=search", "url2": null }, "geometry": { "type": "Point", "coordinates": [ 138.0422446, 36.0650205 ] } },
{ "type": "Feature", "properties": { "内容": "わくわくホーム【地域密着型特定施設入居者生活介護（有料老人ホーム）】長野県飯田市松尾寺所7043番地1", "url": "https://www.kaigokensaku.mhlw.go.jp/20/index.php?action_kouhyou_detail_004_kani=true&JigyosyoCd=2090500055-00&ServiceCd=361&Type=search", "url2": "https://wak-wak.net/" }, "geometry": { "type": "Point", "coordinates": [ 137.855694399999948, 35.4959004 ] } },
{ "type": "Feature", "properties": { "内容": "介護付き有料老人ホームたまゆら【地域密着型特定施設入居者生活介護（有料老人ホーム）】長野県飯田市北方２６８８－２", "url": "https://www.kaigokensaku.mhlw.go.jp/20/index.php?action_kouhyou_detail_004_kani=true&JigyosyoCd=2090500030-00&ServiceCd=361&Type=search", "url2": "https://nagano-tamayura.com" }, "geometry": { "type": "Point", "coordinates": [ 137.793050499999907, 35.5066065 ] } },
{ "type": "Feature", "properties": { "内容": "サクラポート八幡【地域密着型特定施設入居者生活介護（有料老人ホーム）】長野県千曲市八幡1975番地", "url": "https://www.kaigokensaku.mhlw.go.jp/20/index.php?action_kouhyou_detail_004_kani=true&JigyosyoCd=2091800082-00&ServiceCd=361&Type=search", "url2": "http://www.sakura-care.co.jp" }, "geometry": { "type": "Point", "coordinates": [ 138.097304643238374, 36.5207298330848 ] } },
{ "type": "Feature", "properties": { "内容": "特定施設入居者生活介護第２グレイスフル辰野【地域密着型特定施設入居者生活介護（有料老人ホーム）】長野県上伊那郡辰野町樋口４５４－１", "url": "https://www.kaigokensaku.mhlw.go.jp/20/index.php?action_kouhyou_detail_004_kani=true&JigyosyoCd=2092400056-00&ServiceCd=361&Type=search", "url2": "https://sun-vision.or.jp/facility/463/" }, "geometry": { "type": "Point", "coordinates": [ 137.999558100000058, 35.9639067 ] } }
]
}
