{
"type": "FeatureCollection",
"name": "geo_20_小規模多機能型居宅介護",
"crs": { "type": "name", "properties": { "name": "urn:ogc:def:crs:OGC:1.3:CRS84" } },
"features": [
{ "type": "Feature", "properties": { "内容": "けやき【小規模多機能型居宅介護】長野県長野市鶴賀緑町１５９６番地１５", "url": "https://www.kaigokensaku.mhlw.go.jp/20/index.php?action_kouhyou_detail_004_kani=true&JigyosyoCd=2090100146-00&ServiceCd=730&Type=search", "url2": null }, "geometry": { "type": "Point", "coordinates": [ 138.194021, 36.6499216 ] } },
{ "type": "Feature", "properties": { "内容": "宅老所手と手【小規模多機能型居宅介護】長野県長野市若槻団地３番地１７", "url": "https://www.kaigokensaku.mhlw.go.jp/20/index.php?action_kouhyou_detail_004_kani=true&JigyosyoCd=2090100047-00&ServiceCd=730&Type=search", "url2": null }, "geometry": { "type": "Point", "coordinates": [ 138.21565140000007, 36.682737 ] } },
{ "type": "Feature", "properties": { "内容": "ツクイ長野風間【小規模多機能型居宅介護】長野県長野市風間1756-1", "url": "https://www.kaigokensaku.mhlw.go.jp/20/index.php?action_kouhyou_detail_004_kani=true&JigyosyoCd=2090100757-00&ServiceCd=730&Type=search", "url2": "http://www.tsukui.net/search/2519/detail.html" }, "geometry": { "type": "Point", "coordinates": [ 138.228130599999986, 36.636506 ] } },
{ "type": "Feature", "properties": { "内容": "小規模多機能型居宅介護　あったかほーむ稲葉【小規模多機能型居宅介護】長野県長野市稲葉1680-1", "url": "https://www.kaigokensaku.mhlw.go.jp/20/index.php?action_kouhyou_detail_004_kani=true&JigyosyoCd=2090100534-00&ServiceCd=730&Type=search", "url2": "http://www.fb-kaigo.co.jp/" }, "geometry": { "type": "Point", "coordinates": [ 138.213871400000016, 36.6326197 ] } },
{ "type": "Feature", "properties": { "内容": "たわわ善光寺下【小規模多機能型居宅介護】長野県長野市三輪6丁目17-10-1", "url": "https://www.kaigokensaku.mhlw.go.jp/20/index.php?action_kouhyou_detail_004_kani=true&JigyosyoCd=2090100369-00&ServiceCd=730&Type=search", "url2": null }, "geometry": { "type": "Point", "coordinates": [ 138.19704510092788, 36.658985024607205 ] } },
{ "type": "Feature", "properties": { "内容": "むつみ家いきいき【小規模多機能型居宅介護】長野県長野市松代町柴３３０番地１", "url": "https://www.kaigokensaku.mhlw.go.jp/20/index.php?action_kouhyou_detail_004_kani=true&JigyosyoCd=2090100492-00&ServiceCd=730&Type=search", "url2": "https://m-yasuragi.com" }, "geometry": { "type": "Point", "coordinates": [ 138.202123700000016, 36.5926431 ] } },
{ "type": "Feature", "properties": { "内容": "小規模多機能ホーム科の風【小規模多機能型居宅介護】長野県長野市豊野町浅野1594-1", "url": "https://www.kaigokensaku.mhlw.go.jp/20/index.php?action_kouhyou_detail_004_kani=true&JigyosyoCd=2090100955-00&ServiceCd=730&Type=search", "url2": null }, "geometry": { "type": "Point", "coordinates": [ 138.2928715, 36.719904900000017 ] } },
{ "type": "Feature", "properties": { "内容": "むつみ家ほのぼの【小規模多機能型居宅介護】長野県長野市篠ノ井杵淵字北村１０４３番地１", "url": "https://www.kaigokensaku.mhlw.go.jp/20/index.php?action_kouhyou_detail_004_kani=true&JigyosyoCd=2090100096-00&ServiceCd=730&Type=search", "url2": "https://m-yasuragi.com" }, "geometry": { "type": "Point", "coordinates": [ 138.189723, 36.5836458 ] } },
{ "type": "Feature", "properties": { "内容": "小規模多機能ホーム　みんなのあもり【小規模多機能型居宅介護】長野県長野市安茂里葭ヶ渕１８６１", "url": "https://www.kaigokensaku.mhlw.go.jp/20/index.php?action_kouhyou_detail_004_kani=true&JigyosyoCd=2090100054-00&ServiceCd=730&Type=search", "url2": "http://www.group-momiji.com" }, "geometry": { "type": "Point", "coordinates": [ 138.177658753195146, 36.63745195365653 ] } },
{ "type": "Feature", "properties": { "内容": "まゆ川中島【小規模多機能型居宅介護】長野県長野市下氷鉋１丁目１５－２", "url": "https://www.kaigokensaku.mhlw.go.jp/20/index.php?action_kouhyou_detail_004_kani=true&JigyosyoCd=2090101193-00&ServiceCd=730&Type=search", "url2": "https://lifecare-mayu.com/" }, "geometry": { "type": "Point", "coordinates": [ 138.1768596, 36.6118852 ] } },
{ "type": "Feature", "properties": { "内容": "小規模多機能型居宅介護博仁会川中島桜荘【小規模多機能型居宅介護】長野県長野市川中島町今里字石原1034-1", "url": "https://www.kaigokensaku.mhlw.go.jp/20/index.php?action_kouhyou_detail_004_kani=true&JigyosyoCd=2090101078-00&ServiceCd=730&Type=search", "url2": "https://hakujinkai-nagano.or.jp/" }, "geometry": { "type": "Point", "coordinates": [ 138.142708, 36.602148 ] } },
{ "type": "Feature", "properties": { "内容": "小規模多機能型居宅介護事業所　夕やけ小やけ【小規模多機能型居宅介護】長野県松本市並柳１丁目3-18", "url": "https://www.kaigokensaku.mhlw.go.jp/20/index.php?action_kouhyou_detail_004_kani=true&JigyosyoCd=2090200219-00&ServiceCd=730&Type=search", "url2": "http://www.group-momiji.com/" }, "geometry": { "type": "Point", "coordinates": [ 137.977578981684104, 36.212909571841685 ] } },
{ "type": "Feature", "properties": { "内容": "小規模多機能型居宅介護さんぽみち【小規模多機能型居宅介護】長野県松本市梓川倭2682番地1さんぽみち", "url": "https://www.kaigokensaku.mhlw.go.jp/20/index.php?action_kouhyou_detail_004_kani=true&JigyosyoCd=2090200490-00&ServiceCd=730&Type=search", "url2": "http://azusanosato-salvia.jp/" }, "geometry": { "type": "Point", "coordinates": [ 137.901071927647422, 36.238519375113455 ] } },
{ "type": "Feature", "properties": { "内容": "小規模多機能型居宅介護となりの縁側おかだ【小規模多機能型居宅介護】長野県松本市岡田下岡田８５番１", "url": "https://www.kaigokensaku.mhlw.go.jp/20/index.php?action_kouhyou_detail_004_kani=true&JigyosyoCd=2090200102-00&ServiceCd=730&Type=search", "url2": "http://www.heisei-kai.jp/sisetu/okada.htm" }, "geometry": { "type": "Point", "coordinates": [ 137.975713, 36.2676676 ] } },
{ "type": "Feature", "properties": { "内容": "四季の風【小規模多機能型居宅介護】長野県松本市島立674-1", "url": "https://www.kaigokensaku.mhlw.go.jp/20/index.php?action_kouhyou_detail_004_kani=true&JigyosyoCd=2090200250-00&ServiceCd=730&Type=search", "url2": "http://www.marunouchi.or.jp/at-home_care/shikinokaze/" }, "geometry": { "type": "Point", "coordinates": [ 137.952067, 36.23634 ] } },
{ "type": "Feature", "properties": { "内容": "かがやきの家笹部【小規模多機能型居宅介護】長野県松本市笹部1丁目5番14号", "url": "https://www.kaigokensaku.mhlw.go.jp/20/index.php?action_kouhyou_detail_004_kani=true&JigyosyoCd=2090200201-00&ServiceCd=730&Type=search", "url2": "http://nagano.koureikyou.or.jp/" }, "geometry": { "type": "Point", "coordinates": [ 137.949887100000069, 36.2164429 ] } },
{ "type": "Feature", "properties": { "内容": "ニチイケアセンター上田緑が丘【小規模多機能型居宅介護】緑が丘3-21-12", "url": "https://www.kaigokensaku.mhlw.go.jp/20/index.php?action_kouhyou_detail_004_kani=true&JigyosyoCd=2090300233-00&ServiceCd=730&Type=search", "url2": null }, "geometry": { "type": "Point", "coordinates": [ 135.484176199999979, 34.8096904 ] } },
{ "type": "Feature", "properties": { "内容": "ほほ笑みホーム大屋【小規模多機能型居宅介護】長野県上田市大屋248-1", "url": "https://www.kaigokensaku.mhlw.go.jp/20/index.php?action_kouhyou_detail_004_kani=true&JigyosyoCd=2090300431-00&ServiceCd=730&Type=search", "url2": "http://hohoemikaigo.com" }, "geometry": { "type": "Point", "coordinates": [ 138.295867, 36.369321 ] } },
{ "type": "Feature", "properties": { "内容": "ほほ笑みナースホーム神科【小規模多機能型居宅介護】長野県上田市住吉367-1", "url": "https://www.kaigokensaku.mhlw.go.jp/20/index.php?action_kouhyou_detail_004_kani=true&JigyosyoCd=2090300696-00&ServiceCd=730&Type=search", "url2": null }, "geometry": { "type": "Point", "coordinates": [ 138.2765243, 36.4105975 ] } },
{ "type": "Feature", "properties": { "内容": "小規模多機能あったかほーむ御嶽堂【小規模多機能型居宅介護】長野県上田市御嶽堂316-1", "url": "https://www.kaigokensaku.mhlw.go.jp/20/index.php?action_kouhyou_detail_004_kani=true&JigyosyoCd=2090300613-00&ServiceCd=730&Type=search", "url2": null }, "geometry": { "type": "Point", "coordinates": [ 138.26562340000001, 36.333442 ] } },
{ "type": "Feature", "properties": { "内容": "小規模多機能型居宅介護事業所　かわべちょう敬老園【小規模多機能型居宅介護】長野県上田市上田原字二ノ口854-2", "url": "https://www.kaigokensaku.mhlw.go.jp/20/index.php?action_kouhyou_detail_004_kani=true&JigyosyoCd=2090300258-00&ServiceCd=730&Type=search", "url2": null }, "geometry": { "type": "Point", "coordinates": [ 138.221280699999966, 36.3871795 ] } },
{ "type": "Feature", "properties": { "内容": "新田の家【小規模多機能型居宅介護】長野県上田市上田2545-5", "url": "https://www.kaigokensaku.mhlw.go.jp/20/index.php?action_kouhyou_detail_004_kani=true&JigyosyoCd=2090300274-00&ServiceCd=730&Type=search", "url2": null }, "geometry": { "type": "Point", "coordinates": [ 138.25764, 36.4180069 ] } },
{ "type": "Feature", "properties": { "内容": "大畑の家【小規模多機能型居宅介護】長野県上田市真田町本原７７２－２", "url": "https://www.kaigokensaku.mhlw.go.jp/20/index.php?action_kouhyou_detail_004_kani=true&JigyosyoCd=2090300035-00&ServiceCd=730&Type=search", "url2": null }, "geometry": { "type": "Point", "coordinates": [ 138.297422, 36.4260451 ] } },
{ "type": "Feature", "properties": { "内容": "ニチイケアセンター中塩田（やわらぎ）【小規模多機能型居宅介護】長野県上田市本郷８２０－１", "url": "https://www.kaigokensaku.mhlw.go.jp/20/index.php?action_kouhyou_detail_004_kani=true&JigyosyoCd=2090300282-00&ServiceCd=730&Type=search", "url2": "http:/www.nichiigakkan.co.jp" }, "geometry": { "type": "Point", "coordinates": [ 138.203077990768406, 36.368698731655407 ] } },
{ "type": "Feature", "properties": { "内容": "ローマンうえだ小規模多機能型居宅介護上野の家【小規模多機能型居宅介護】長野県上田市上野298番地1", "url": "https://www.kaigokensaku.mhlw.go.jp/20/index.php?action_kouhyou_detail_004_kani=true&JigyosyoCd=2090300134-00&ServiceCd=730&Type=search", "url2": "http://www.ja-naganokai.or.jp/" }, "geometry": { "type": "Point", "coordinates": [ 138.294215200000053, 36.4065223 ] } },
{ "type": "Feature", "properties": { "内容": "豊殿の家【小規模多機能型居宅介護】長野県上田市芳田1192-1", "url": "https://www.kaigokensaku.mhlw.go.jp/20/index.php?action_kouhyou_detail_004_kani=true&JigyosyoCd=2090300456-00&ServiceCd=730&Type=search", "url2": "http://www.ja-naganokai.or.jp/" }, "geometry": { "type": "Point", "coordinates": [ 138.301886, 36.3930564 ] } },
{ "type": "Feature", "properties": { "内容": "小規模多機能型居宅介護うえだはら敬老園【小規模多機能型居宅介護】長野県上田市上田原1068", "url": "https://www.kaigokensaku.mhlw.go.jp/20/index.php?action_kouhyou_detail_004_kani=true&JigyosyoCd=2090300639-00&ServiceCd=730&Type=search", "url2": "http://www.keiroen.or.jp" }, "geometry": { "type": "Point", "coordinates": [ 138.228585399999986, 36.388949 ] } },
{ "type": "Feature", "properties": { "内容": "医療法人　緑風会　ささいの家　ーきらめきー【小規模多機能型居宅介護】長野県上田市古里１２２０", "url": "https://www.kaigokensaku.mhlw.go.jp/20/index.php?action_kouhyou_detail_004_kani=true&JigyosyoCd=2090300209-00&ServiceCd=730&Type=search", "url2": "http://www.ryokufuukai.or.jp/group.html" }, "geometry": { "type": "Point", "coordinates": [ 138.277742100000069, 36.3994285 ] } },
{ "type": "Feature", "properties": { "内容": "スマートケアタウン株式会社　梨久保【小規模多機能型居宅介護】長野県岡谷市長地梨久保2-18-1", "url": "https://www.kaigokensaku.mhlw.go.jp/20/index.php?action_kouhyou_detail_004_kani=true&JigyosyoCd=2090400157-00&ServiceCd=730&Type=search", "url2": null }, "geometry": { "type": "Point", "coordinates": [ 138.063648699999931, 36.0845514 ] } },
{ "type": "Feature", "properties": { "内容": "小規模多機能型居宅介護第２グレイスフル岡谷【小規模多機能型居宅介護】長野県岡谷市加茂町３－８－７", "url": "https://www.kaigokensaku.mhlw.go.jp/20/index.php?action_kouhyou_detail_004_kani=true&JigyosyoCd=2090400017-00&ServiceCd=730&Type=search", "url2": "http://www.e-sunlife.or.jp/service/nagano03/index.html" }, "geometry": { "type": "Point", "coordinates": [ 138.05325270000003, 36.075263400000011 ] } },
{ "type": "Feature", "properties": { "内容": "宅老所　和が家【小規模多機能型居宅介護】長野県岡谷市湖畔4－1－27", "url": "https://www.kaigokensaku.mhlw.go.jp/20/index.php?action_kouhyou_detail_004_kani=true&JigyosyoCd=2090400090-00&ServiceCd=730&Type=search", "url2": "http://www.wagaya.co.jp/index.html" }, "geometry": { "type": "Point", "coordinates": [ 138.061299700000063, 36.0582157 ] } },
{ "type": "Feature", "properties": { "内容": "サテライト型小規模多機能型居宅介護　和が家　間下【小規模多機能型居宅介護】長野県岡谷市山手町2-3-26", "url": "https://www.kaigokensaku.mhlw.go.jp/20/index.php?action_kouhyou_detail_004_kani=true&JigyosyoCd=2090400108-00&ServiceCd=730&Type=search", "url2": "https://wagaya.co.jp" }, "geometry": { "type": "Point", "coordinates": [ 138.042223400000012, 36.065081 ] } },
{ "type": "Feature", "properties": { "内容": "和が家　新倉【小規模多機能型居宅介護】長野県岡谷市川岸中3-4-1", "url": "https://www.kaigokensaku.mhlw.go.jp/20/index.php?action_kouhyou_detail_004_kani=true&JigyosyoCd=2090400256-00&ServiceCd=730&Type=search", "url2": "http://www.wagaya.co.jp/index.html" }, "geometry": { "type": "Point", "coordinates": [ 138.023851, 36.0377134 ] } },
{ "type": "Feature", "properties": { "内容": "和が家日和【小規模多機能型居宅介護】長野県岡谷市山下町1-1-22", "url": "https://www.kaigokensaku.mhlw.go.jp/20/index.php?action_kouhyou_detail_004_kani=true&JigyosyoCd=2090400066-00&ServiceCd=730&Type=search", "url2": "http://www1a.biglobe.ne.jp/wagaya/index.html" }, "geometry": { "type": "Point", "coordinates": [ 138.04247620000001, 36.0653421 ] } },
{ "type": "Feature", "properties": { "内容": "小規模多機能型居宅介護あんきの森【小規模多機能型居宅介護】長野県飯田市毛賀１１３９-２８", "url": "https://www.kaigokensaku.mhlw.go.jp/20/index.php?action_kouhyou_detail_004_kani=true&JigyosyoCd=2090500097-00&ServiceCd=730&Type=search", "url2": "http://www.heartcareiida.com." }, "geometry": { "type": "Point", "coordinates": [ 137.833938399999965, 35.4909448 ] } },
{ "type": "Feature", "properties": { "内容": "さくらまち【小規模多機能型居宅介護】長野県飯田市桜町１－１３－１", "url": "https://www.kaigokensaku.mhlw.go.jp/20/index.php?action_kouhyou_detail_004_kani=true&JigyosyoCd=2090500113-00&ServiceCd=730&Type=search", "url2": "https://oinanyo.iida-city.com" }, "geometry": { "type": "Point", "coordinates": [ 137.829778799999985, 35.5198079 ] } },
{ "type": "Feature", "properties": { "内容": "小規模多機能型居宅介護施設あぐりかなえ【小規模多機能型居宅介護】長野県飯田市鼎上山2662-1", "url": "https://www.kaigokensaku.mhlw.go.jp/20/index.php?action_kouhyou_detail_004_kani=true&JigyosyoCd=2090500220-00&ServiceCd=730&Type=search", "url2": "http://www.ja-naganokai.or.jp/" }, "geometry": { "type": "Point", "coordinates": [ 137.820531538006321, 35.504775765228992 ] } },
{ "type": "Feature", "properties": { "内容": "ことぶき庵【小規模多機能型居宅介護】長野県飯田市上郷飯沼４７９－３", "url": "https://www.kaigokensaku.mhlw.go.jp/20/index.php?action_kouhyou_detail_004_kani=true&JigyosyoCd=2090500022-00&ServiceCd=730&Type=search", "url2": "http://hattanda.jp/" }, "geometry": { "type": "Point", "coordinates": [ 137.858570800000052, 35.5173535 ] } },
{ "type": "Feature", "properties": { "内容": "サテライト三日市場【小規模多機能型居宅介護】長野県飯田市三日市場1291-31", "url": "https://www.kaigokensaku.mhlw.go.jp/20/index.php?action_kouhyou_detail_004_kani=true&JigyosyoCd=2090500188-00&ServiceCd=730&Type=search", "url2": "https://oinanyo.iida-city.com" }, "geometry": { "type": "Point", "coordinates": [ 137.791098899999952, 35.490389 ] } },
{ "type": "Feature", "properties": { "内容": "小規模多機能型居宅介護サテライト松島【小規模多機能型居宅介護】長野県飯田市桜町１－２１", "url": "https://www.kaigokensaku.mhlw.go.jp/20/index.php?action_kouhyou_detail_004_kani=true&JigyosyoCd=2090500196-00&ServiceCd=730&Type=search", "url2": "https://oinanyo.iida-city.com/" }, "geometry": { "type": "Point", "coordinates": [ 137.829767700000048, 35.5204162 ] } },
{ "type": "Feature", "properties": { "内容": "小規模多機能ホーム　集皆所とよだ【小規模多機能型居宅介護】長野県諏訪市豊田101", "url": "https://www.kaigokensaku.mhlw.go.jp/20/index.php?action_kouhyou_detail_004_kani=true&JigyosyoCd=2090600053-00&ServiceCd=730&Type=search", "url2": "https://www.toyodanomori.jp" }, "geometry": { "type": "Point", "coordinates": [ 138.107290465095502, 36.022106922141354 ] } },
{ "type": "Feature", "properties": { "内容": "いぶきゆいの家【小規模多機能型居宅介護】長野県諏訪市大字中洲2536番地1", "url": "https://www.kaigokensaku.mhlw.go.jp/20/index.php?action_kouhyou_detail_004_kani=true&JigyosyoCd=2090600111-00&ServiceCd=730&Type=search", "url2": "http://www.ibuki-ikiiki.com" }, "geometry": { "type": "Point", "coordinates": [ 138.124359499999969, 36.0039852 ] } },
{ "type": "Feature", "properties": { "内容": "こころのひろば小規模多機能型居宅介護事業所【小規模多機能型居宅介護】長野県諏訪市高島一丁目21番14号", "url": "https://www.kaigokensaku.mhlw.go.jp/20/index.php?action_kouhyou_detail_004_kani=true&JigyosyoCd=2090600079-00&ServiceCd=730&Type=search", "url2": "http://www.kokoro5560.or.jp" }, "geometry": { "type": "Point", "coordinates": [ 138.114601, 36.0395889 ] } },
{ "type": "Feature", "properties": { "内容": "宅老所いぶき【小規模多機能型居宅介護】長野県諏訪市大字中洲5373番地1", "url": "https://www.kaigokensaku.mhlw.go.jp/20/index.php?action_kouhyou_detail_004_kani=true&JigyosyoCd=2090600202-00&ServiceCd=730&Type=search", "url2": "http://www.ibuki-ikiiki.com" }, "geometry": { "type": "Point", "coordinates": [ 138.121105565144632, 36.017671767661554 ] } },
{ "type": "Feature", "properties": { "内容": "小規模多機能居宅介護事業所　倶楽部いずみ【小規模多機能型居宅介護】長野県諏訪市大手2丁目17-2", "url": "https://www.kaigokensaku.mhlw.go.jp/20/index.php?action_kouhyou_detail_004_kani=true&JigyosyoCd=2090600087-00&ServiceCd=730&Type=search", "url2": null }, "geometry": { "type": "Point", "coordinates": [ 138.11699509999994, 36.0426413 ] } },
{ "type": "Feature", "properties": { "内容": "悠々オアシス【小規模多機能型居宅介護】長野県須坂市大字小河原１５６４-１", "url": "https://www.kaigokensaku.mhlw.go.jp/20/index.php?action_kouhyou_detail_004_kani=true&JigyosyoCd=2090700028-00&ServiceCd=730&Type=search", "url2": "https://www.npo-oasis.net/" }, "geometry": { "type": "Point", "coordinates": [ 138.302454787171882, 36.675229075558754 ] } },
{ "type": "Feature", "properties": { "内容": "小規模多機能型居宅介護事業所　日滝の家【小規模多機能型居宅介護】長野県須坂市大字日滝2923-1", "url": "https://www.kaigokensaku.mhlw.go.jp/20/index.php?action_kouhyou_detail_004_kani=true&JigyosyoCd=2090700044-00&ServiceCd=730&Type=search", "url2": "http://suzaka-yasuraginosono.com/index" }, "geometry": { "type": "Point", "coordinates": [ 138.328892099999962, 36.67169 ] } },
{ "type": "Feature", "properties": { "内容": "小規模多機能型居宅介護　グリーンベリー【小規模多機能型居宅介護】長野県須坂市大字塩野951番地", "url": "https://www.kaigokensaku.mhlw.go.jp/20/index.php?action_kouhyou_detail_004_kani=true&JigyosyoCd=2090700127-00&ServiceCd=730&Type=search", "url2": "http://www.greenarum.jp/" }, "geometry": { "type": "Point", "coordinates": [ 138.33422528095096, 36.626226989478525 ] } },
{ "type": "Feature", "properties": { "内容": "小規模多機能　あったかほーむ桜花【小規模多機能型居宅介護】長野県小諸市八満68-9", "url": "https://www.kaigokensaku.mhlw.go.jp/20/index.php?action_kouhyou_detail_004_kani=true&JigyosyoCd=2090800034-00&ServiceCd=730&Type=search", "url2": "http://www.fb-kaigo.co.jp/" }, "geometry": { "type": "Point", "coordinates": [ 138.455038959524501, 36.321410091348895 ] } },
{ "type": "Feature", "properties": { "内容": "小規模多機能型居宅介護事業所のぞみ【小規模多機能型居宅介護】長野県小諸市和田966-151", "url": "https://www.kaigokensaku.mhlw.go.jp/20/index.php?action_kouhyou_detail_004_kani=true&JigyosyoCd=2090800067-00&ServiceCd=730&Type=search", "url2": "https://nozomi-g.co.jp" }, "geometry": { "type": "Point", "coordinates": [ 138.4617174, 36.2969766 ] } },
{ "type": "Feature", "properties": { "内容": "ニチイケアセンター境【小規模多機能型居宅介護】長野県伊那市境１８３９－２", "url": "https://www.kaigokensaku.mhlw.go.jp/20/index.php?action_kouhyou_detail_004_kani=true&JigyosyoCd=2090900065-00&ServiceCd=730&Type=search", "url2": "http://sp.chizumaru.com/dbh/nichii/detailmap.aspx?account=nichii&accmd=0&bid=0162205R38&scl=1500&clk=2" }, "geometry": { "type": "Point", "coordinates": [ 137.9740043223984, 35.830977855020635 ] } },
{ "type": "Feature", "properties": { "内容": "たんぽぽの家【小規模多機能型居宅介護】長野県伊那市美篶4854-1", "url": "https://www.kaigokensaku.mhlw.go.jp/20/index.php?action_kouhyou_detail_004_kani=true&JigyosyoCd=2090900172-00&ServiceCd=730&Type=search", "url2": "http://tanpopo-iina.com" }, "geometry": { "type": "Point", "coordinates": [ 138.0081261, 35.836087 ] } },
{ "type": "Feature", "properties": { "内容": "小規模多機能はびろの里【小規模多機能型居宅介護】長野県伊那市西箕輪2758-1小規模多機能はびろの里", "url": "https://www.kaigokensaku.mhlw.go.jp/20/index.php?action_kouhyou_detail_004_kani=true&JigyosyoCd=2090900230-00&ServiceCd=730&Type=search", "url2": "https://www.kamiina-mcoop.com/habiro-pages/habiro-small-scale" }, "geometry": { "type": "Point", "coordinates": [ 137.924739100000011, 35.887973600000016 ] } },
{ "type": "Feature", "properties": { "内容": "生協ケアセンター春近なないろの家【小規模多機能型居宅介護】長野県市東春近１４８６番地", "url": "https://www.kaigokensaku.mhlw.go.jp/20/index.php?action_kouhyou_detail_004_kani=true&JigyosyoCd=2090900099-00&ServiceCd=730&Type=search", "url2": "http://www.kamiina-mcoop.com" }, "geometry": { "type": "Point", "coordinates": [ 137.962474499999985, 35.8063977 ] } },
{ "type": "Feature", "properties": { "内容": "こまちの家【小規模多機能型居宅介護】長野県駒ヶ根市下市場32番3号", "url": "https://www.kaigokensaku.mhlw.go.jp/20/index.php?action_kouhyou_detail_004_kani=true&JigyosyoCd=2091000022-00&ServiceCd=730&Type=search", "url2": "http://s-sawayaka.or.jp" }, "geometry": { "type": "Point", "coordinates": [ 137.9371569, 35.7254619 ] } },
{ "type": "Feature", "properties": { "内容": "ニチイケアセンター信州中野【小規模多機能型居宅介護】長野県中野市大字安源寺493番地1", "url": "https://www.kaigokensaku.mhlw.go.jp/20/index.php?action_kouhyou_detail_004_kani=true&JigyosyoCd=2091100053-00&ServiceCd=730&Type=search", "url2": "http://www.nichiigakkan.co.jp/service/care/home/yawaragi.html" }, "geometry": { "type": "Point", "coordinates": [ 138.329918600000042, 36.735804500000015 ] } },
{ "type": "Feature", "properties": { "内容": "まるごとケアの家ゆい【小規模多機能型居宅介護】長野県中野市岩船19－17", "url": "https://www.kaigokensaku.mhlw.go.jp/20/index.php?action_kouhyou_detail_004_kani=true&JigyosyoCd=2091100103-00&ServiceCd=730&Type=search", "url2": null }, "geometry": { "type": "Point", "coordinates": [ 138.3482855, 36.7389089 ] } },
{ "type": "Feature", "properties": { "内容": "大町千里館【小規模多機能型居宅介護】長野県大町市社松崎　6882-1", "url": "https://www.kaigokensaku.mhlw.go.jp/20/index.php?action_kouhyou_detail_004_kani=true&JigyosyoCd=2091200051-00&ServiceCd=730&Type=search", "url2": null }, "geometry": { "type": "Point", "coordinates": [ 137.867990299999974, 36.4991213 ] } },
{ "type": "Feature", "properties": { "内容": "さくら【小規模多機能型居宅介護】長野県大町市美麻字桜台3363番地6", "url": "https://www.kaigokensaku.mhlw.go.jp/20/index.php?action_kouhyou_detail_004_kani=true&JigyosyoCd=2091200069-00&ServiceCd=730&Type=search", "url2": null }, "geometry": { "type": "Point", "coordinates": [ 137.892347946063154, 36.534721722199549 ] } },
{ "type": "Feature", "properties": { "内容": "在宅サポート　じこぼう【小規模多機能型居宅介護】長野県茅野市豊平4478", "url": "https://www.kaigokensaku.mhlw.go.jp/20/index.php?action_kouhyou_detail_004_kani=true&JigyosyoCd=2091400040-00&ServiceCd=730&Type=search", "url2": null }, "geometry": { "type": "Point", "coordinates": [ 138.220217484852583, 36.016118895567985 ] } },
{ "type": "Feature", "properties": { "内容": "小規模多機能型居宅介護　アイリス茅野【小規模多機能型居宅介護】長野県茅野市宮川5778－1複合福祉施設アイリス茅野", "url": "https://www.kaigokensaku.mhlw.go.jp/20/index.php?action_kouhyou_detail_004_kani=true&JigyosyoCd=2091400073-00&ServiceCd=730&Type=search", "url2": "http://www.iriss.or.jp" }, "geometry": { "type": "Point", "coordinates": [ 138.155874400000016, 35.9863355 ] } },
{ "type": "Feature", "properties": { "内容": "小規模多機能ケア米沢の家【小規模多機能型居宅介護】長野県茅野市米沢3515-1", "url": "https://www.kaigokensaku.mhlw.go.jp/20/index.php?action_kouhyou_detail_004_kani=true&JigyosyoCd=2091400032-00&ServiceCd=730&Type=search", "url2": "https://fukujusou.org" }, "geometry": { "type": "Point", "coordinates": [ 138.176553695106577, 36.027434799155841 ] } },
{ "type": "Feature", "properties": { "内容": "小規模多機能ケア　はなもも【小規模多機能型居宅介護】長野県茅野市豊平1032-1", "url": "https://www.kaigokensaku.mhlw.go.jp/20/index.php?action_kouhyou_detail_004_kani=true&JigyosyoCd=2091400115-00&ServiceCd=730&Type=search", "url2": null }, "geometry": { "type": "Point", "coordinates": [ 138.178220591153405, 36.018322109412438 ] } },
{ "type": "Feature", "properties": { "内容": "ＪＡ洗馬小規模多機能型居宅介護事業所クレアせば【小規模多機能型居宅介護】長野県塩尻市大字洗馬２７１３番地５", "url": "https://www.kaigokensaku.mhlw.go.jp/20/index.php?action_kouhyou_detail_004_kani=true&JigyosyoCd=2091500047-00&ServiceCd=730&Type=search", "url2": null }, "geometry": { "type": "Point", "coordinates": [ 137.9171106, 36.1155218 ] } },
{ "type": "Feature", "properties": { "内容": "小規模多機能型居宅介護事業所れんげ荘【小規模多機能型居宅介護】長野県塩尻市広丘堅石１１９０番地３", "url": "https://www.kaigokensaku.mhlw.go.jp/20/index.php?action_kouhyou_detail_004_kani=true&JigyosyoCd=2091500039-00&ServiceCd=730&Type=search", "url2": "rennge@go.tvm.ne.jp" }, "geometry": { "type": "Point", "coordinates": [ 137.941951199999977, 36.1445851 ] } },
{ "type": "Feature", "properties": { "内容": "小規模多機能居宅介護　グレイスフル塩尻【小規模多機能型居宅介護】長野県塩尻市大門八番町9-10", "url": "https://www.kaigokensaku.mhlw.go.jp/20/index.php?action_kouhyou_detail_004_kani=true&JigyosyoCd=2091500138-00&ServiceCd=730&Type=search", "url2": "http://www.e-sunlife.or.jp/service/nagano10/index.html" }, "geometry": { "type": "Point", "coordinates": [ 137.948380573016379, 36.113407025030689 ] } },
{ "type": "Feature", "properties": { "内容": "小規模多機能型居宅介護おひさま【小規模多機能型居宅介護】長野県塩尻市桟敷417－2", "url": "https://www.kaigokensaku.mhlw.go.jp/20/index.php?action_kouhyou_detail_004_kani=true&JigyosyoCd=2091500104-00&ServiceCd=730&Type=search", "url2": "http://www18.ocn.ne.jp/~azumino1/kyouritsufukushikai/" }, "geometry": { "type": "Point", "coordinates": [ 137.967922700000031, 36.1142006 ] } },
{ "type": "Feature", "properties": { "内容": "小規模多機能あったかほーむあさま【小規模多機能型居宅介護】長野県佐久市岩村田1901-1", "url": "https://www.kaigokensaku.mhlw.go.jp/20/index.php?action_kouhyou_detail_004_kani=true&JigyosyoCd=2091700167-00&ServiceCd=730&Type=search", "url2": "http://fb-kaigo.co.jp/" }, "geometry": { "type": "Point", "coordinates": [ 138.476227, 36.2715646 ] } },
{ "type": "Feature", "properties": { "内容": "小規模多機能あったかほーむ中込【小規模多機能型居宅介護】長野県佐久市中込3713-11", "url": "https://www.kaigokensaku.mhlw.go.jp/20/index.php?action_kouhyou_detail_004_kani=true&JigyosyoCd=2091700076-00&ServiceCd=730&Type=search", "url2": null }, "geometry": { "type": "Point", "coordinates": [ 138.466811900000039, 36.2523982 ] } },
{ "type": "Feature", "properties": { "内容": "さんぴあの家【小規模多機能型居宅介護】長野県佐久市根岸3203－2", "url": "https://www.kaigokensaku.mhlw.go.jp/20/index.php?action_kouhyou_detail_004_kani=true&JigyosyoCd=2091700050-00&ServiceCd=730&Type=search", "url2": "https://nozomi-g.co.jp" }, "geometry": { "type": "Point", "coordinates": [ 138.416589199999976, 36.2404042 ] } },
{ "type": "Feature", "properties": { "内容": "小規模多機能あったかほーむいしずえ【小規模多機能型居宅介護】長野県佐久市長土呂174-1", "url": "https://www.kaigokensaku.mhlw.go.jp/20/index.php?action_kouhyou_detail_004_kani=true&JigyosyoCd=2091700019-00&ServiceCd=730&Type=search", "url2": "http://www.fb-kaigo.co.jp/service/shokibo.php" }, "geometry": { "type": "Point", "coordinates": [ 138.4698972, 36.2908054 ] } },
{ "type": "Feature", "properties": { "内容": "四季のベンチ【小規模多機能型居宅介護】長野県佐久市下越６１２－１", "url": "https://www.kaigokensaku.mhlw.go.jp/20/index.php?action_kouhyou_detail_004_kani=true&JigyosyoCd=2091700068-00&ServiceCd=730&Type=search", "url2": "http://www.nagano-koureikyo.jp/" }, "geometry": { "type": "Point", "coordinates": [ 138.4873758, 36.1909912 ] } },
{ "type": "Feature", "properties": { "内容": "小規模多機能ホームあさしな【小規模多機能型居宅介護】長野県佐久市甲1172-1", "url": "https://www.kaigokensaku.mhlw.go.jp/20/index.php?action_kouhyou_detail_004_kani=true&JigyosyoCd=2091700092-00&ServiceCd=730&Type=search", "url2": "http://www.ja-naganokai.or.jp/" }, "geometry": { "type": "Point", "coordinates": [ 138.4042342, 36.2666299 ] } },
{ "type": "Feature", "properties": { "内容": "コモンズハウス万葉【小規模多機能型居宅介護】長野県千曲市磯部1047-1", "url": "https://www.kaigokensaku.mhlw.go.jp/20/index.php?action_kouhyou_detail_004_kani=true&JigyosyoCd=2091800017-00&ServiceCd=730&Type=search", "url2": "http://www.manyou-takano.com" }, "geometry": { "type": "Point", "coordinates": [ 138.1516173, 36.4815114 ] } },
{ "type": "Feature", "properties": { "内容": "小規模多機能居宅介護愛和園【小規模多機能型居宅介護】長野県東御市海善寺下権田１１００", "url": "https://www.kaigokensaku.mhlw.go.jp/20/index.php?action_kouhyou_detail_004_kani=true&JigyosyoCd=2091900015-00&ServiceCd=730&Type=search", "url2": "http://ls-yousin.main.jp/" }, "geometry": { "type": "Point", "coordinates": [ 138.318822700000027, 36.3673453 ] } },
{ "type": "Feature", "properties": { "内容": "小規模多機能型居宅介護事業所和光【小規模多機能型居宅介護】長野県東御市田中193番地１和光", "url": "https://www.kaigokensaku.mhlw.go.jp/20/index.php?action_kouhyou_detail_004_kani=true&JigyosyoCd=2091900049-00&ServiceCd=730&Type=search", "url2": "https://chiisagata.jp/" }, "geometry": { "type": "Point", "coordinates": [ 138.330571612719694, 36.355457682553705 ] } },
{ "type": "Feature", "properties": { "内容": "小規模多機能型居宅介護事業所ともがき【小規模多機能型居宅介護】長野県東御市滋野乙2465‐５", "url": "https://www.kaigokensaku.mhlw.go.jp/20/index.php?action_kouhyou_detail_004_kani=true&JigyosyoCd=2091900064-00&ServiceCd=730&Type=search", "url2": "https://chiisagata.jp/" }, "geometry": { "type": "Point", "coordinates": [ 138.366331800000012, 36.3480076 ] } },
{ "type": "Feature", "properties": { "内容": "サンクス小規模多機能型居宅介護やすらぎ【小規模多機能型居宅介護】長野県安曇野市穂高有明9990-1", "url": "https://www.kaigokensaku.mhlw.go.jp/20/index.php?action_kouhyou_detail_004_kani=true&JigyosyoCd=2094000185-00&ServiceCd=730&Type=search", "url2": "https://thanks-saiwainomachi.com" }, "geometry": { "type": "Point", "coordinates": [ 137.861539799999946, 36.345989 ] } },
{ "type": "Feature", "properties": { "内容": "小規模多機能型居宅介護　かりん【小規模多機能型居宅介護】長野県安曇野市穂高5699-1", "url": "https://www.kaigokensaku.mhlw.go.jp/20/index.php?action_kouhyou_detail_004_kani=true&JigyosyoCd=2094000292-00&ServiceCd=730&Type=search", "url2": "http://www.fiore-welfare.jp" }, "geometry": { "type": "Point", "coordinates": [ 137.8793834, 36.3413404 ] } },
{ "type": "Feature", "properties": { "内容": "小規模多機能サテライト　見岳荘～はなみずき～【小規模多機能型居宅介護】長野県安曇野市豊科4701-6", "url": "https://www.kaigokensaku.mhlw.go.jp/20/index.php?action_kouhyou_detail_004_kani=true&JigyosyoCd=2094000243-00&ServiceCd=730&Type=search", "url2": "https://www.soumeikai.net/" }, "geometry": { "type": "Point", "coordinates": [ 137.9032903, 36.2980071 ] } },
{ "type": "Feature", "properties": { "内容": "小規模多機能型複合福祉施設　見岳荘～けやき～【小規模多機能型居宅介護】長野県安曇野市堀金烏川368-1", "url": "https://www.kaigokensaku.mhlw.go.jp/20/index.php?action_kouhyou_detail_004_kani=true&JigyosyoCd=2094000060-00&ServiceCd=730&Type=search", "url2": "www.soumeikai.net" }, "geometry": { "type": "Point", "coordinates": [ 137.848479833729584, 36.304515707782784 ] } },
{ "type": "Feature", "properties": { "内容": "小規模多機能型居宅介護　ななきの家【小規模多機能型居宅介護】長野県安曇野市明科七貴４５８８－１", "url": "https://www.kaigokensaku.mhlw.go.jp/20/index.php?action_kouhyou_detail_004_kani=true&JigyosyoCd=2094000094-00&ServiceCd=730&Type=search", "url2": "http://www.kikaq.jp/nanaki.html" }, "geometry": { "type": "Point", "coordinates": [ 137.9011114, 36.3598941 ] } },
{ "type": "Feature", "properties": { "内容": "小規模多機能型居宅介護　カトレア【小規模多機能型居宅介護】長野県安曇野市豊科光１２９０－１９", "url": "https://www.kaigokensaku.mhlw.go.jp/20/index.php?action_kouhyou_detail_004_kani=true&JigyosyoCd=2094000144-00&ServiceCd=730&Type=search", "url2": "http://www.fiore-welfare.jp" }, "geometry": { "type": "Point", "coordinates": [ 137.930649035581922, 36.320031333411592 ] } },
{ "type": "Feature", "properties": { "内容": "社会福祉法人軽井沢町社会福祉協議会　小規模多機能型居宅介護事業所「まさちゃん家」【小規模多機能型居宅介護】長野県北佐久郡軽井沢町大字長倉4844-1", "url": "https://www.kaigokensaku.mhlw.go.jp/20/index.php?action_kouhyou_detail_004_kani=true&JigyosyoCd=2092100029-00&ServiceCd=730&Type=search", "url2": "http://www.karuizawashakyo.com/kaigo/masachan/" }, "geometry": { "type": "Point", "coordinates": [ 138.56119728344936, 36.335534849345557 ] } },
{ "type": "Feature", "properties": { "内容": "小規模多機能型居宅介護　大門の家【小規模多機能型居宅介護】長野県小県郡長和町大門1531-1", "url": "https://www.kaigokensaku.mhlw.go.jp/20/index.php?action_kouhyou_detail_004_kani=true&JigyosyoCd=2092200027-00&ServiceCd=730&Type=search", "url2": "http://www.yodakubofukushikai.jp" }, "geometry": { "type": "Point", "coordinates": [ 138.2515267, 36.2187557 ] } },
{ "type": "Feature", "properties": { "内容": "小規模多機能ケアやよい【小規模多機能型居宅介護】長野県諏訪郡下諏訪町東弥生町5247-4", "url": "https://www.kaigokensaku.mhlw.go.jp/20/index.php?action_kouhyou_detail_004_kani=true&JigyosyoCd=2092300140-00&ServiceCd=730&Type=search", "url2": "http://www.skhp.or.jp" }, "geometry": { "type": "Point", "coordinates": [ 138.079721907687372, 36.074359043982014 ] } },
{ "type": "Feature", "properties": { "内容": "小規模多機能居宅介護事業所　一本松の家【小規模多機能型居宅介護】長野県諏訪郡富士見町立沢８１５番地６５", "url": "https://www.kaigokensaku.mhlw.go.jp/20/index.php?action_kouhyou_detail_004_kani=true&JigyosyoCd=2092300082-00&ServiceCd=730&Type=search", "url2": "http://fujimi-shakyo.jp/" }, "geometry": { "type": "Point", "coordinates": [ 138.256648145230116, 35.928353613154997 ] } },
{ "type": "Feature", "properties": { "内容": "小規模多機能型居宅介護ひめばら【小規模多機能型居宅介護】長野県諏訪郡原村17217番地125", "url": "https://www.kaigokensaku.mhlw.go.jp/20/index.php?action_kouhyou_detail_004_kani=true&JigyosyoCd=2092300207-00&ServiceCd=730&Type=search", "url2": "https://fujimihp.com/" }, "geometry": { "type": "Point", "coordinates": [ 138.253348697337202, 35.966642332846327 ] } },
{ "type": "Feature", "properties": { "内容": "ふらっとひろば【小規模多機能型居宅介護】長野県上伊那郡辰野町大字辰野1773-1", "url": "https://www.kaigokensaku.mhlw.go.jp/20/index.php?action_kouhyou_detail_004_kani=true&JigyosyoCd=2092400296-00&ServiceCd=730&Type=search", "url2": "flat-tatsuno@honey.ocn.ne.jp" }, "geometry": { "type": "Point", "coordinates": [ 137.9975642, 35.9826542 ] } },
{ "type": "Feature", "properties": { "内容": "共生ホームなの花【小規模多機能型居宅介護】長野県上伊那郡箕輪町東箕輪５２２８－１", "url": "https://www.kaigokensaku.mhlw.go.jp/20/index.php?action_kouhyou_detail_004_kani=true&JigyosyoCd=2092400288-00&ServiceCd=730&Type=search", "url2": "https://sites.google.com/view/kyosei-nanohana/home" }, "geometry": { "type": "Point", "coordinates": [ 137.9941081, 35.9395001 ] } },
{ "type": "Feature", "properties": { "内容": "ケアホームまんてん【小規模多機能型居宅介護】長野県上伊那郡飯島町飯島６７１－１", "url": "https://www.kaigokensaku.mhlw.go.jp/20/index.php?action_kouhyou_detail_004_kani=true&JigyosyoCd=2092400148-00&ServiceCd=730&Type=search", "url2": "http://manten-npo.com" }, "geometry": { "type": "Point", "coordinates": [ 137.928487899999936, 35.6739654 ] } },
{ "type": "Feature", "properties": { "内容": "みなみみのわふれあいの里【小規模多機能型居宅介護】長野県上伊那郡南箕輪村1634-349", "url": "https://www.kaigokensaku.mhlw.go.jp/20/index.php?action_kouhyou_detail_004_kani=true&JigyosyoCd=2092400130-00&ServiceCd=730&Type=search", "url2": "m-hureai.or.jp/publics/index/2/" }, "geometry": { "type": "Point", "coordinates": [ 137.9299949, 35.8591724 ] } },
{ "type": "Feature", "properties": { "内容": "宅幼老所わが家【小規模多機能型居宅介護】長野県上伊那郡宮田村7504-4", "url": "https://www.kaigokensaku.mhlw.go.jp/20/index.php?action_kouhyou_detail_004_kani=true&JigyosyoCd=2092400312-00&ServiceCd=730&Type=search", "url2": "info@wagaya-miyada.com" }, "geometry": { "type": "Point", "coordinates": [ 137.9417042, 35.7631889 ] } },
{ "type": "Feature", "properties": { "内容": "宅幼老所　あずま家河原町【小規模多機能型居宅介護】長野県上伊那郡宮田村3378-1", "url": "https://www.kaigokensaku.mhlw.go.jp/20/index.php?action_kouhyou_detail_004_kani=true&JigyosyoCd=2092400155-00&ServiceCd=730&Type=search", "url2": "http://wagaya-miyada.com/" }, "geometry": { "type": "Point", "coordinates": [ 137.940782977632125, 35.765051055696254 ] } },
{ "type": "Feature", "properties": { "内容": "宅幼老所あずま家【小規模多機能型居宅介護】長野県上伊那郡宮田村　７５７６－８", "url": "https://www.kaigokensaku.mhlw.go.jp/20/index.php?action_kouhyou_detail_004_kani=true&JigyosyoCd=2092400098-00&ServiceCd=730&Type=search", "url2": "https://www.wagaya-miyada.com" }, "geometry": { "type": "Point", "coordinates": [ 137.948184199999986, 35.7647049 ] } },
{ "type": "Feature", "properties": { "内容": "小規模多機能型居宅介護事業所　コスモス松川【小規模多機能型居宅介護】長野県下伊那郡松川町元大島1560", "url": "https://www.kaigokensaku.mhlw.go.jp/20/index.php?action_kouhyou_detail_004_kani=true&JigyosyoCd=2092500012-00&ServiceCd=730&Type=search", "url2": "http://www.cosmosnet.or.jp" }, "geometry": { "type": "Point", "coordinates": [ 137.917119, 35.5957976 ] } },
{ "type": "Feature", "properties": { "内容": "小規模多機能型居宅介護事業所　みんなの家下條【小規模多機能型居宅介護】長野県下伊那郡下條村陽皐719－1", "url": "https://www.kaigokensaku.mhlw.go.jp/20/index.php?action_kouhyou_detail_004_kani=true&JigyosyoCd=2092500046-00&ServiceCd=730&Type=search", "url2": "www.nagano-koureikyo.jp/" }, "geometry": { "type": "Point", "coordinates": [ 137.793688285844382, 35.390606821669714 ] } },
{ "type": "Feature", "properties": { "内容": "のぞみの里【小規模多機能型居宅介護】長野県木曽郡木曽町福島5569番地", "url": "https://www.kaigokensaku.mhlw.go.jp/20/index.php?action_kouhyou_detail_004_kani=true&JigyosyoCd=2092600051-00&ServiceCd=730&Type=search", "url2": "https://nozominosato-kiso.org/" }, "geometry": { "type": "Point", "coordinates": [ 137.704287300000033, 35.8519741 ] } },
{ "type": "Feature", "properties": { "内容": "小規模多機能型居宅介護事業所すばる【小規模多機能型居宅介護】長野県東筑摩郡山形村4528番地3いちいの里すばる", "url": "https://www.kaigokensaku.mhlw.go.jp/20/index.php?action_kouhyou_detail_004_kani=true&JigyosyoCd=2092700067-00&ServiceCd=730&Type=search", "url2": "http://www.poponet-yamagata.or.jp/" }, "geometry": { "type": "Point", "coordinates": [ 137.881911363784752, 36.173008306038895 ] } },
{ "type": "Feature", "properties": { "内容": "いけだ小規模多機能型居宅介護事業所おひさまの家【小規模多機能型居宅介護】長野県北安曇郡池田町大字池田2644番地1", "url": "https://www.kaigokensaku.mhlw.go.jp/20/index.php?action_kouhyou_detail_004_kani=true&JigyosyoCd=2092900022-00&ServiceCd=730&Type=search", "url2": "http://www.ikedashakyo.or.jp" }, "geometry": { "type": "Point", "coordinates": [ 137.877840600000013, 36.4223044 ] } },
{ "type": "Feature", "properties": { "内容": "小規模多機能おらの家あそなか【小規模多機能型居宅介護】長野県北安曇郡白馬村北城新田11001", "url": "https://www.kaigokensaku.mhlw.go.jp/20/index.php?action_kouhyou_detail_004_kani=true&JigyosyoCd=2092900055-00&ServiceCd=730&Type=search", "url2": "https://npohakubanokaze.com" }, "geometry": { "type": "Point", "coordinates": [ 137.8676465238037, 36.714200614383728 ] } },
{ "type": "Feature", "properties": { "内容": "小規模多機能あったかほーむ坂城【小規模多機能型居宅介護】長野県埴科郡坂城町坂城6986-1", "url": "https://www.kaigokensaku.mhlw.go.jp/20/index.php?action_kouhyou_detail_004_kani=true&JigyosyoCd=2093100044-00&ServiceCd=730&Type=search", "url2": "http://www.fb-kaigo.co.jp/" }, "geometry": { "type": "Point", "coordinates": [ 138.190131, 36.460556 ] } },
{ "type": "Feature", "properties": { "内容": "つどい処【小規模多機能型居宅介護】長野県上高井郡小布施町大字中松701‐1", "url": "https://www.kaigokensaku.mhlw.go.jp/20/index.php?action_kouhyou_detail_004_kani=true&JigyosyoCd=2093200059-00&ServiceCd=730&Type=search", "url2": "http://egaoobuse.com/" }, "geometry": { "type": "Point", "coordinates": [ 138.326735900000017, 36.7000337 ] } },
{ "type": "Feature", "properties": { "内容": "ニチイケアセンターいいづな【小規模多機能型居宅介護】長野県上水内郡飯綱町大字川上1988", "url": "https://www.kaigokensaku.mhlw.go.jp/20/index.php?action_kouhyou_detail_004_kani=true&JigyosyoCd=2093400030-00&ServiceCd=730&Type=search", "url2": null }, "geometry": { "type": "Point", "coordinates": [ 138.2116727, 36.7365284 ] } },
{ "type": "Feature", "properties": { "内容": "宅幼老所きぼう【小規模多機能型居宅介護】長野県下水内郡栄村豊栄665-5宅幼老所きぼう", "url": "https://www.kaigokensaku.mhlw.go.jp/20/index.php?action_kouhyou_detail_004_kani=true&JigyosyoCd=2093500011-00&ServiceCd=730&Type=search", "url2": "https://www.kiboucare.com" }, "geometry": { "type": "Point", "coordinates": [ 138.511782, 36.9936056 ] } }
]
}
