{
"type": "FeatureCollection",
"name": "geo_20_短期入所療養介護(療養病床を有する病院等）",
"crs": { "type": "name", "properties": { "name": "urn:ogc:def:crs:OGC:1.3:CRS84" } },
"features": [
{ "type": "Feature", "properties": { "内容": "軽井沢町国民健康保険軽井沢病院【短期入所療養介護(療養病床を有する病院等）】北佐久郡軽井沢町大字長倉２３７５番地１", "url": "https://www.kaigokensaku.mhlw.go.jp/20/index.php?action_kouhyou_detail_004_kani=true&JigyosyoCd=2012117012-00&ServiceCd=&Type=search", "url2": "http://www.karuizawahospital.jp/" }, "geometry": { "type": "Point", "coordinates": [ 138.5983493, 36.3485874 ] } }
]
}
