{
"type": "FeatureCollection",
"name": "geo_20_訪問入浴介護",
"crs": { "type": "name", "properties": { "name": "urn:ogc:def:crs:OGC:1.3:CRS84" } },
"features": [
{ "type": "Feature", "properties": { "内容": "社会福祉法人暖家　訪問入浴長野事業所【訪問入浴介護】長野県長野市栗田１９３－４ファミール日吉１階", "url": "https://www.kaigokensaku.mhlw.go.jp/20/index.php?action_kouhyou_detail_004_kani=true&JigyosyoCd=2070106311-00&ServiceCd=120&Type=search", "url2": "hi-danke.com/" }, "geometry": { "type": "Point", "coordinates": [ 138.190395182139611, 36.636664959995649 ] } },
{ "type": "Feature", "properties": { "内容": "ケアステーションおはな【訪問入浴介護】長野県長野市篠ノ井布施高田1369-10", "url": "https://www.kaigokensaku.mhlw.go.jp/20/index.php?action_kouhyou_detail_004_kani=true&JigyosyoCd=2070106709-00&ServiceCd=120&Type=search", "url2": null }, "geometry": { "type": "Point", "coordinates": [ 138.137385, 36.5795216 ] } },
{ "type": "Feature", "properties": { "内容": "ニチイケアセンター長野【訪問入浴介護】長野県長野市檀田2-5-6", "url": "https://www.kaigokensaku.mhlw.go.jp/20/index.php?action_kouhyou_detail_004_kani=true&JigyosyoCd=2070100892-00&ServiceCd=120&Type=search", "url2": null }, "geometry": { "type": "Point", "coordinates": [ 138.208021899999949, 36.6781457 ] } },
{ "type": "Feature", "properties": { "内容": "アイム在宅ケアセンター長野【訪問入浴介護】長野県長野市川中島町今井1688-5", "url": "https://www.kaigokensaku.mhlw.go.jp/20/index.php?action_kouhyou_detail_004_kani=true&JigyosyoCd=2070103771-00&ServiceCd=120&Type=search", "url2": "http://www.aim-nagano.com" }, "geometry": { "type": "Point", "coordinates": [ 138.153521197527283, 36.595572692313638 ] } },
{ "type": "Feature", "properties": { "内容": "アースサポート長野【訪問入浴介護】長野県長野市中越1丁目2番27号", "url": "https://www.kaigokensaku.mhlw.go.jp/20/index.php?action_kouhyou_detail_004_kani=true&JigyosyoCd=2070102211-00&ServiceCd=120&Type=search", "url2": "http://www.earthsupport.co.jp/" }, "geometry": { "type": "Point", "coordinates": [ 138.218893138098082, 36.658749929492167 ] } },
{ "type": "Feature", "properties": { "内容": "ツクイ長野【訪問入浴介護】長野県長野市風間字巾下１７５６―１", "url": "https://www.kaigokensaku.mhlw.go.jp/20/index.php?action_kouhyou_detail_004_kani=true&JigyosyoCd=2070100835-00&ServiceCd=120&Type=search", "url2": "http://www.tsukui.net" }, "geometry": { "type": "Point", "coordinates": [ 138.218420899999956, 36.6327672 ] } },
{ "type": "Feature", "properties": { "内容": "ニチイケアセンター篠ノ井【訪問入浴介護】長野県長野市篠ノ井御幣川１２３２-１", "url": "https://www.kaigokensaku.mhlw.go.jp/20/index.php?action_kouhyou_detail_004_kani=true&JigyosyoCd=2070100926-00&ServiceCd=120&Type=search", "url2": "http://www.nichiigakkan.co.jp/service/care/home/homebath.html" }, "geometry": { "type": "Point", "coordinates": [ 138.1414039, 36.5756062 ] } },
{ "type": "Feature", "properties": { "内容": "アムール長野訪問入浴介護事業所【訪問入浴介護】長野県長野市栗田1568番地", "url": "https://www.kaigokensaku.mhlw.go.jp/20/index.php?action_kouhyou_detail_004_kani=true&JigyosyoCd=2070108051-00&ServiceCd=120&Type=search", "url2": null }, "geometry": { "type": "Point", "coordinates": [ 138.187351799999988, 36.6393107 ] } },
{ "type": "Feature", "properties": { "内容": "社会福祉法人松本市社会福祉協議会指定訪問入浴介護事業所【訪問入浴介護】長野県松本市双葉4-16総合社会福祉センター2階", "url": "https://www.kaigokensaku.mhlw.go.jp/20/index.php?action_kouhyou_detail_004_kani=true&JigyosyoCd=2070200122-00&ServiceCd=120&Type=search", "url2": "http://www.syakyo-matsumoto.or.jp/index.php" }, "geometry": { "type": "Point", "coordinates": [ 137.967352600000027, 36.2079031 ] } },
{ "type": "Feature", "properties": { "内容": "アースサポート松本【訪問入浴介護】長野県松本市庄内１丁目６番２７号", "url": "https://www.kaigokensaku.mhlw.go.jp/20/index.php?action_kouhyou_detail_004_kani=true&JigyosyoCd=2070202219-00&ServiceCd=120&Type=search", "url2": "http://www.earthsupport.co.jp" }, "geometry": { "type": "Point", "coordinates": [ 137.970507099999963, 36.2241538 ] } },
{ "type": "Feature", "properties": { "内容": "ニチイケアセンター大手【訪問入浴介護】長野県松本市大手1-3-28神山ビル", "url": "https://www.kaigokensaku.mhlw.go.jp/20/index.php?action_kouhyou_detail_004_kani=true&JigyosyoCd=2070202375-00&ServiceCd=120&Type=search", "url2": null }, "geometry": { "type": "Point", "coordinates": [ 137.964871200000061, 36.2358852 ] } },
{ "type": "Feature", "properties": { "内容": "松本社会福祉協議会梓川事業所西部訪問入浴介護事業所つむぎちゃんのお風呂【訪問入浴介護】梓川梓2283-2", "url": "https://www.kaigokensaku.mhlw.go.jp/20/index.php?action_kouhyou_detail_004_kani=true&JigyosyoCd=2070204603-00&ServiceCd=120&Type=search", "url2": "https:www.syakyo-matumoto.or.jp" }, "geometry": { "type": "Point", "coordinates": [ 137.8684333, 36.2250135 ] } },
{ "type": "Feature", "properties": { "内容": "ツクイ松本井川城【訪問入浴介護】長野県松本市井川城3-5-31", "url": "https://www.kaigokensaku.mhlw.go.jp/20/index.php?action_kouhyou_detail_004_kani=true&JigyosyoCd=2070203324-00&ServiceCd=120&Type=search", "url2": "http://www.tsukui.net" }, "geometry": { "type": "Point", "coordinates": [ 137.965934899999979, 36.217232476652875 ] } },
{ "type": "Feature", "properties": { "内容": "訪問入浴サービスアザレアン【訪問入浴介護】長野県上田市真田町長7141-1", "url": "https://www.kaigokensaku.mhlw.go.jp/20/index.php?action_kouhyou_detail_004_kani=true&JigyosyoCd=2072200377-00&ServiceCd=120&Type=search", "url2": "http://www.azarean.jp/Group1/Contents/service/1701_nyuyoku.aspx" }, "geometry": { "type": "Point", "coordinates": [ 138.305767699999933, 36.4433461 ] } },
{ "type": "Feature", "properties": { "内容": "訪問入浴センター　聖【訪問入浴介護】長野県上田市小泉917", "url": "https://www.kaigokensaku.mhlw.go.jp/20/index.php?action_kouhyou_detail_004_kani=true&JigyosyoCd=2070302340-00&ServiceCd=120&Type=search", "url2": null }, "geometry": { "type": "Point", "coordinates": [ 138.184236199999987, 36.3836327 ] } },
{ "type": "Feature", "properties": { "内容": "ツクイ上田原【訪問入浴介護】長野県上田市上田原１２２２－１４", "url": "https://www.kaigokensaku.mhlw.go.jp/20/index.php?action_kouhyou_detail_004_kani=true&JigyosyoCd=2070301060-00&ServiceCd=120&Type=search", "url2": "http://www.tsukui.net/search/detail.php?officeid=348" }, "geometry": { "type": "Point", "coordinates": [ 138.223030599999987, 36.3863407 ] } },
{ "type": "Feature", "properties": { "内容": "ニチイケアセンターおかや【訪問入浴介護】長野県岡谷市長地権現町1-7-26", "url": "https://www.kaigokensaku.mhlw.go.jp/20/index.php?action_kouhyou_detail_004_kani=true&JigyosyoCd=2070400169-00&ServiceCd=120&Type=search", "url2": "http://www.nichiigakkan.co.jp/service/care/index.html" }, "geometry": { "type": "Point", "coordinates": [ 138.069879200000059, 36.0667816 ] } },
{ "type": "Feature", "properties": { "内容": "あんきの森訪問入浴【訪問入浴介護】飯田市毛賀1139-1", "url": "https://www.kaigokensaku.mhlw.go.jp/20/index.php?action_kouhyou_detail_004_kani=true&JigyosyoCd=2070501016-00&ServiceCd=120&Type=search", "url2": "http://www.heartcareiida.com/corporate/houmonnyuyoku.html" }, "geometry": { "type": "Point", "coordinates": [ 137.834066099999973, 35.4913226 ] } },
{ "type": "Feature", "properties": { "内容": "訪問入浴　福寿【訪問入浴介護】長野県飯田市鼎西鼎591-8", "url": "https://www.kaigokensaku.mhlw.go.jp/20/index.php?action_kouhyou_detail_004_kani=true&JigyosyoCd=2070502402-00&ServiceCd=120&Type=search", "url2": "https://fukuju2024.wixsite.com/fukuju" }, "geometry": { "type": "Point", "coordinates": [ 137.837310300000013, 35.5095255 ] } },
{ "type": "Feature", "properties": { "内容": "ニチイケアセンター飯田【訪問入浴介護】長野県飯田市大瀬木298-1", "url": "https://www.kaigokensaku.mhlw.go.jp/20/index.php?action_kouhyou_detail_004_kani=true&JigyosyoCd=2070500406-00&ServiceCd=120&Type=search", "url2": "http://www.niciigakkan.co,jp" }, "geometry": { "type": "Point", "coordinates": [ 137.796497899999963, 35.4965577 ] } },
{ "type": "Feature", "properties": { "内容": "ツクイ飯田【訪問入浴介護】長野県飯田市上郷別府３３２７－１１", "url": "https://www.kaigokensaku.mhlw.go.jp/20/index.php?action_kouhyou_detail_004_kani=true&JigyosyoCd=2070500281-00&ServiceCd=120&Type=search", "url2": "http://www.tsukui.net/home-care/2028/" }, "geometry": { "type": "Point", "coordinates": [ 137.842808900000023, 35.5084985 ] } },
{ "type": "Feature", "properties": { "内容": "社会福祉法人ぽけっと【訪問入浴介護】長野県飯田市白山通り1－310－1", "url": "https://www.kaigokensaku.mhlw.go.jp/20/index.php?action_kouhyou_detail_004_kani=true&JigyosyoCd=2070500232-00&ServiceCd=120&Type=search", "url2": "http://kaigo-poket.jimdo.com" }, "geometry": { "type": "Point", "coordinates": [ 137.814786199999958, 35.5154054 ] } },
{ "type": "Feature", "properties": { "内容": "アスケア訪問入浴　飯田【訪問入浴介護】長野県飯田市松尾代田1522今村コーポテナント", "url": "https://www.kaigokensaku.mhlw.go.jp/20/index.php?action_kouhyou_detail_004_kani=true&JigyosyoCd=2070502220-00&ServiceCd=120&Type=search", "url2": "https://www.as-care.co.jp/" }, "geometry": { "type": "Point", "coordinates": [ 137.838620100000014, 35.489723 ] } },
{ "type": "Feature", "properties": { "内容": "諏訪市社会福祉協議会指定訪問入浴介護事業所【訪問入浴介護】長野県諏訪市四賀1844-6岩波ビル", "url": "https://www.kaigokensaku.mhlw.go.jp/20/index.php?action_kouhyou_detail_004_kani=true&JigyosyoCd=2070600073-00&ServiceCd=120&Type=search", "url2": "http://www.suwacity-shakyo.or.jp/blog/?page_id=771#category4" }, "geometry": { "type": "Point", "coordinates": [ 138.125789599999962, 36.0163143 ] } },
{ "type": "Feature", "properties": { "内容": "アスケア訪問入浴　茅野【訪問入浴介護】長野県諏訪市沖田町1-95沖田五味店舗B棟", "url": "https://www.kaigokensaku.mhlw.go.jp/20/index.php?action_kouhyou_detail_004_kani=true&JigyosyoCd=2070601071-00&ServiceCd=120&Type=search", "url2": "https://www.as-care.co.jp/" }, "geometry": { "type": "Point", "coordinates": [ 138.134456500000027, 36.009665199999965 ] } },
{ "type": "Feature", "properties": { "内容": "NPO法人良風来　訪問入浴介護事業所【訪問入浴介護】長野県須坂市臥竜五丁目8番3号", "url": "https://www.kaigokensaku.mhlw.go.jp/20/index.php?action_kouhyou_detail_004_kani=true&JigyosyoCd=2070700808-00&ServiceCd=120&Type=search", "url2": "http://hp.kaipoke.biz/4yx/" }, "geometry": { "type": "Point", "coordinates": [ 138.3183852, 36.6458682 ] } },
{ "type": "Feature", "properties": { "内容": "社会福祉法人須坂市社会福祉協議会訪問入浴介護事業部【訪問入浴介護】長野県須坂市大字須坂４７６番地１", "url": "https://www.kaigokensaku.mhlw.go.jp/20/index.php?action_kouhyou_detail_004_kani=true&JigyosyoCd=2070700048-00&ServiceCd=120&Type=search", "url2": "http://www.suzaka-shakyo.jp" }, "geometry": { "type": "Point", "coordinates": [ 138.312999399999967, 36.6577606 ] } },
{ "type": "Feature", "properties": { "内容": "伊那市社会福祉協議会訪問介護センター伊那【訪問入浴介護】長野県伊那市山寺２９８－１伊那市福祉まちづくりセンター内", "url": "https://www.kaigokensaku.mhlw.go.jp/20/index.php?action_kouhyou_detail_004_kani=true&JigyosyoCd=2070900077-00&ServiceCd=120&Type=search", "url2": "https://ina-shakyo.jp/elderly/pages/root/visiting/visiting02" }, "geometry": { "type": "Point", "coordinates": [ 137.889442300000042, 35.8601412 ] } },
{ "type": "Feature", "properties": { "内容": "ニチイケアセンター伊那【訪問入浴介護】長野県伊那市上新田２７６７－１", "url": "https://www.kaigokensaku.mhlw.go.jp/20/index.php?action_kouhyou_detail_004_kani=true&JigyosyoCd=2070900127-00&ServiceCd=120&Type=search", "url2": "http://www.nichiigakkan.co.jp/service/care/home/homebath.html" }, "geometry": { "type": "Point", "coordinates": [ 137.958715899999987, 35.8268423 ] } },
{ "type": "Feature", "properties": { "内容": "（有）インテリア・コーイング訪問入浴センター【訪問入浴介護】中野市中野１８７２－７", "url": "https://www.kaigokensaku.mhlw.go.jp/20/index.php?action_kouhyou_detail_004_kani=true&JigyosyoCd=2071100172-00&ServiceCd=120&Type=search", "url2": null }, "geometry": { "type": "Point", "coordinates": [ 138.3738803, 36.7513653 ] } },
{ "type": "Feature", "properties": { "内容": "ニチイケアセンター中野若宮【訪問入浴介護】長野県中野市大字新井356番地5", "url": "https://www.kaigokensaku.mhlw.go.jp/20/index.php?action_kouhyou_detail_004_kani=true&JigyosyoCd=2071100586-00&ServiceCd=120&Type=search", "url2": "ｈｓｔP18＠nichiigakkan.co.jp" }, "geometry": { "type": "Point", "coordinates": [ 138.366686499999986, 36.7611892 ] } },
{ "type": "Feature", "properties": { "内容": "アムール大町　訪問入浴介護事業所【訪問入浴介護】長野県大町市大町4603-1", "url": "https://www.kaigokensaku.mhlw.go.jp/20/index.php?action_kouhyou_detail_004_kani=true&JigyosyoCd=2071200295-00&ServiceCd=120&Type=search", "url2": "http://www.hi-danke.com/" }, "geometry": { "type": "Point", "coordinates": [ 137.845615519543458, 36.51520074639852 ] } },
{ "type": "Feature", "properties": { "内容": "ケアエイド諏訪広域営業所【訪問入浴介護】茅野市宮川10996ビラオクタポルテ１０５", "url": "https://www.kaigokensaku.mhlw.go.jp/20/index.php?action_kouhyou_detail_004_kani=true&JigyosyoCd=2071400739-00&ServiceCd=120&Type=search", "url2": null }, "geometry": { "type": "Point", "coordinates": [ 138.167603, 35.9871292 ] } },
{ "type": "Feature", "properties": { "内容": "ニチイケアセンターすわ【訪問入浴介護】長野県茅野市宮川中河原4245-1", "url": "https://www.kaigokensaku.mhlw.go.jp/20/index.php?action_kouhyou_detail_004_kani=true&JigyosyoCd=2071400432-00&ServiceCd=120&Type=search", "url2": "http://www.nichiigakkan.co.jp" }, "geometry": { "type": "Point", "coordinates": [ 138.147041599999966, 35.9899848 ] } },
{ "type": "Feature", "properties": { "内容": "訪問入浴サービスマイトリー【訪問入浴介護】長野県塩尻市広丘原新田320-3", "url": "https://www.kaigokensaku.mhlw.go.jp/20/index.php?action_kouhyou_detail_004_kani=true&JigyosyoCd=2071500363-00&ServiceCd=120&Type=search", "url2": null }, "geometry": { "type": "Point", "coordinates": [ 137.9421731, 36.1509982 ] } },
{ "type": "Feature", "properties": { "内容": "訪問入浴ステーション社協ふれあい【訪問入浴介護】長野県塩尻市大字広丘堅石２１５１番地2", "url": "https://www.kaigokensaku.mhlw.go.jp/20/index.php?action_kouhyou_detail_004_kani=true&JigyosyoCd=2071500181-00&ServiceCd=120&Type=search", "url2": "https://www.shiojirishakyo.or.jp/pages/80/" }, "geometry": { "type": "Point", "coordinates": [ 137.949416180950948, 36.135187694470702 ] } },
{ "type": "Feature", "properties": { "内容": "ＪＡ佐久浅間訪問入浴ステーションみなみ【訪問入浴介護】佐久市臼田７８５-６", "url": "https://www.kaigokensaku.mhlw.go.jp/20/index.php?action_kouhyou_detail_004_kani=true&JigyosyoCd=2072000405-00&ServiceCd=120&Type=search", "url2": null }, "geometry": { "type": "Point", "coordinates": [ 138.479084300000068, 36.2082612 ] } },
{ "type": "Feature", "properties": { "内容": "有限会社佐久平訪問入浴【訪問入浴介護】長野県佐久市岩村田１２９０－７ラークビル１F", "url": "https://www.kaigokensaku.mhlw.go.jp/20/index.php?action_kouhyou_detail_004_kani=true&JigyosyoCd=2071700484-00&ServiceCd=120&Type=search", "url2": null }, "geometry": { "type": "Point", "coordinates": [ 138.470322200000027, 36.2756988 ] } },
{ "type": "Feature", "properties": { "内容": "Aライン訪問入浴サービス【訪問入浴介護】長野県佐久市岩村田北1-24-3", "url": "https://www.kaigokensaku.mhlw.go.jp/20/index.php?action_kouhyou_detail_004_kani=true&JigyosyoCd=2071701730-00&ServiceCd=120&Type=search", "url2": "aline-kg.com" }, "geometry": { "type": "Point", "coordinates": [ 138.479001399999987, 36.2850248 ] } },
{ "type": "Feature", "properties": { "内容": "ニチイケアセンターとうみ【訪問入浴介護】東御市加沢1174-2", "url": "https://www.kaigokensaku.mhlw.go.jp/20/index.php?action_kouhyou_detail_004_kani=true&JigyosyoCd=2072200609-00&ServiceCd=120&Type=search", "url2": "http://www.nichiigakkan.co.jp" }, "geometry": { "type": "Point", "coordinates": [ 138.348110099999985, 36.3542395 ] } },
{ "type": "Feature", "properties": { "内容": "ツクイ安曇野【訪問入浴介護】長野県安曇野市豊科４９４１－１", "url": "https://www.kaigokensaku.mhlw.go.jp/20/index.php?action_kouhyou_detail_004_kani=true&JigyosyoCd=2072800515-00&ServiceCd=120&Type=search", "url2": "http://www.tsukui.net" }, "geometry": { "type": "Point", "coordinates": [ 137.900151400000027, 36.3055006 ] } },
{ "type": "Feature", "properties": { "内容": "富士見町社会福祉協議会指定訪問入浴介護事業所【訪問入浴介護】長野県諏訪郡富士見町富士見８９８８－１", "url": "https://www.kaigokensaku.mhlw.go.jp/20/index.php?action_kouhyou_detail_004_kani=true&JigyosyoCd=2072300110-00&ServiceCd=120&Type=search", "url2": "http://fujimi-shakyo.jp/hureai.html" }, "geometry": { "type": "Point", "coordinates": [ 138.215095099999985, 35.9136793 ] } },
{ "type": "Feature", "properties": { "内容": "あったか伊那【訪問入浴介護】長野県上伊那郡南箕輪村5933-5", "url": "https://www.kaigokensaku.mhlw.go.jp/20/index.php?action_kouhyou_detail_004_kani=true&JigyosyoCd=2070900465-00&ServiceCd=120&Type=search", "url2": null }, "geometry": { "type": "Point", "coordinates": [ 137.975024100000041, 35.8729002 ] } },
{ "type": "Feature", "properties": { "内容": "アスケア訪問入浴　伊那【訪問入浴介護】長野県上伊那郡南箕輪村8987-1漆戸テナント1階1号室", "url": "https://www.kaigokensaku.mhlw.go.jp/20/index.php?action_kouhyou_detail_004_kani=true&JigyosyoCd=2072401553-00&ServiceCd=120&Type=search", "url2": "https://www.as-care.co.jp/" }, "geometry": { "type": "Point", "coordinates": [ 137.947863790374612, 35.861040125782282 ] } },
{ "type": "Feature", "properties": { "内容": "訪問入浴ぽれぽれ【訪問入浴介護】長野県上伊那郡中川村大草3280-7", "url": "https://www.kaigokensaku.mhlw.go.jp/20/index.php?action_kouhyou_detail_004_kani=true&JigyosyoCd=2072401652-00&ServiceCd=120&Type=search", "url2": "https://www.poreporenakagawa-homonkango.com/" }, "geometry": { "type": "Point", "coordinates": [ 137.944453, 35.6410906 ] } },
{ "type": "Feature", "properties": { "内容": "有限会社信濃福祉木曽営業所【訪問入浴介護】木曽郡上松町大字上松802番地", "url": "https://www.kaigokensaku.mhlw.go.jp/20/index.php?action_kouhyou_detail_004_kani=true&JigyosyoCd=2072600303-00&ServiceCd=120&Type=search", "url2": null }, "geometry": { "type": "Point", "coordinates": [ 137.698559899999964, 35.7878898 ] } },
{ "type": "Feature", "properties": { "内容": "介護屋つむぎ【訪問入浴介護】長野県木曽郡木曽町日義３７８１番地１", "url": "https://www.kaigokensaku.mhlw.go.jp/20/index.php?action_kouhyou_detail_004_kani=true&JigyosyoCd=2072600840-00&ServiceCd=120&Type=search", "url2": null }, "geometry": { "type": "Point", "coordinates": [ 137.751670699999977, 35.8757165 ] } },
{ "type": "Feature", "properties": { "内容": "ホットスマイル介護サービス【訪問入浴介護】長野県木曽郡木曽町新開４２５９－１", "url": "https://www.kaigokensaku.mhlw.go.jp/20/index.php?action_kouhyou_detail_004_kani=true&JigyosyoCd=2072600543-00&ServiceCd=120&Type=search", "url2": null }, "geometry": { "type": "Point", "coordinates": [ 137.7040508, 35.8589595 ] } },
{ "type": "Feature", "properties": { "内容": "社会福祉法人坂城町社会福祉協議会指定訪問入浴介護事業所【訪問入浴介護】長野県埴科郡坂城町大字中之条2225番地", "url": "https://www.kaigokensaku.mhlw.go.jp/20/index.php?action_kouhyou_detail_004_kani=true&JigyosyoCd=2073100097-00&ServiceCd=120&Type=search", "url2": "http://www.ssakaki.com/service/service03" }, "geometry": { "type": "Point", "coordinates": [ 138.194911199999979, 36.4503494 ] } }
]
}
