{
"type": "FeatureCollection",
"name": "geo_20_特定福祉用具販売",
"crs": { "type": "name", "properties": { "name": "urn:ogc:def:crs:OGC:1.3:CRS84" } },
"features": [
{ "type": "Feature", "properties": { "内容": "イーケア【特定福祉用具販売】長野県長野市篠ノ井御幣川1093-1", "url": "https://www.kaigokensaku.mhlw.go.jp/20/index.php?action_kouhyou_detail_004_kani=true&JigyosyoCd=2070107020-00&ServiceCd=410&Type=search", "url2": "http://hp.kaipoke.biz/ddf/" }, "geometry": { "type": "Point", "coordinates": [ 138.140460961669419, 36.571882795688865 ] } },
{ "type": "Feature", "properties": { "内容": "多宝たねむら有限会社【特定福祉用具販売】長野市三輪1丁目3-11", "url": "https://www.kaigokensaku.mhlw.go.jp/20/index.php?action_kouhyou_detail_004_kani=true&JigyosyoCd=2070102922-00&ServiceCd=410&Type=search", "url2": null }, "geometry": { "type": "Point", "coordinates": [ 138.203492399999988, 36.6567203 ] } },
{ "type": "Feature", "properties": { "内容": "アイム在宅ケアセンター長野【特定福祉用具販売】長野市青木島２丁目１番地３", "url": "https://www.kaigokensaku.mhlw.go.jp/20/index.php?action_kouhyou_detail_004_kani=true&JigyosyoCd=2070103771-00&ServiceCd=410&Type=search", "url2": "http://www.aimweb.co.jp/" }, "geometry": { "type": "Point", "coordinates": [ 138.181181199999969, 36.616906 ] } },
{ "type": "Feature", "properties": { "内容": "パナソニックエイジフリーショップ長野南【特定福祉用具販売】長野市篠ノ井御幣川字池田１０５３-１１", "url": "https://www.kaigokensaku.mhlw.go.jp/20/index.php?action_kouhyou_detail_004_kani=true&JigyosyoCd=2070103920-00&ServiceCd=410&Type=search", "url2": "http://www.densen.co.jp" }, "geometry": { "type": "Point", "coordinates": [ 138.142828166409316, 36.570471685945769 ] } },
{ "type": "Feature", "properties": { "内容": "福祉用具販売・レンタルコスモスプラネット【特定福祉用具販売】長野県長野市権堂町2320番地ビストロハウス2階", "url": "https://www.kaigokensaku.mhlw.go.jp/20/index.php?action_kouhyou_detail_004_kani=true&JigyosyoCd=2070105842-00&ServiceCd=410&Type=search", "url2": "http://cosmosnet.or.jp" }, "geometry": { "type": "Point", "coordinates": [ 138.187669, 36.6529708 ] } },
{ "type": "Feature", "properties": { "内容": "アムール長野福祉用具貸与販売事業所【特定福祉用具販売】長野県長野市栗田1568", "url": "https://www.kaigokensaku.mhlw.go.jp/20/index.php?action_kouhyou_detail_004_kani=true&JigyosyoCd=2070107855-00&ServiceCd=410&Type=search", "url2": "https://www.amour.or.jp/" }, "geometry": { "type": "Point", "coordinates": [ 138.187351799999988, 36.6393107 ] } },
{ "type": "Feature", "properties": { "内容": "さくらメディカル株式会社　長野営業所【特定福祉用具販売】長野県長野市稲葉914-1", "url": "https://www.kaigokensaku.mhlw.go.jp/20/index.php?action_kouhyou_detail_004_kani=true&JigyosyoCd=2070106550-00&ServiceCd=410&Type=search", "url2": "https://www.sakura-medical.com/" }, "geometry": { "type": "Point", "coordinates": [ 138.2119224, 36.628737500000014 ] } },
{ "type": "Feature", "properties": { "内容": "エフビー介護サービス株式会社長野営業所【特定福祉用具販売】長野県長野市金井田６５ー２", "url": "https://www.kaigokensaku.mhlw.go.jp/20/index.php?action_kouhyou_detail_004_kani=true&JigyosyoCd=2070104647-00&ServiceCd=410&Type=search", "url2": "http://fb-kaigo.co.jp" }, "geometry": { "type": "Point", "coordinates": [ 138.159632887999663, 36.582170353945706 ] } },
{ "type": "Feature", "properties": { "内容": "フランスベッド株式会社メディカル長野営業所【特定福祉用具販売】長野県長野市稲里町下氷鉋492-2", "url": "https://www.kaigokensaku.mhlw.go.jp/20/index.php?action_kouhyou_detail_004_kani=true&JigyosyoCd=2070103987-00&ServiceCd=410&Type=search", "url2": "http://www.francebed.co.jp/" }, "geometry": { "type": "Point", "coordinates": [ 138.179892900000027, 36.6028771 ] } },
{ "type": "Feature", "properties": { "内容": "サクラケア長野店【特定福祉用具販売】長野県長野市若里７-７-５", "url": "https://www.kaigokensaku.mhlw.go.jp/20/index.php?action_kouhyou_detail_004_kani=true&JigyosyoCd=2070101817-00&ServiceCd=410&Type=search", "url2": "http://www.sakura-care.co.jp/" }, "geometry": { "type": "Point", "coordinates": [ 138.199928799999952, 36.6284889 ] } },
{ "type": "Feature", "properties": { "内容": "あかりさーびす【特定福祉用具販売】長野県長野市稲田3-33-18", "url": "https://www.kaigokensaku.mhlw.go.jp/20/index.php?action_kouhyou_detail_004_kani=true&JigyosyoCd=2070107202-00&ServiceCd=410&Type=search", "url2": "https://wellnesslife.info/company.php" }, "geometry": { "type": "Point", "coordinates": [ 138.2306455, 36.6731823 ] } },
{ "type": "Feature", "properties": { "内容": "ユアーズ介護センター【特定福祉用具販売】長野県長野市川合新田370-405", "url": "https://www.kaigokensaku.mhlw.go.jp/20/index.php?action_kouhyou_detail_004_kani=true&JigyosyoCd=2070105834-00&ServiceCd=410&Type=search", "url2": null }, "geometry": { "type": "Point", "coordinates": [ 138.21317732261852, 36.622685887968117 ] } },
{ "type": "Feature", "properties": { "内容": "株式会社ヤマシタ長野営業所【特定福祉用具販売】長野県長野市丹波島1-1-10", "url": "https://www.kaigokensaku.mhlw.go.jp/20/index.php?action_kouhyou_detail_004_kani=true&JigyosyoCd=2070100694-00&ServiceCd=410&Type=search", "url2": "http://www.yco.co.jp/" }, "geometry": { "type": "Point", "coordinates": [ 138.17502723076629, 36.617577111006518 ] } },
{ "type": "Feature", "properties": { "内容": "シルバーサポート長野店【特定福祉用具販売】長野市若宮1丁目6-20", "url": "https://www.kaigokensaku.mhlw.go.jp/20/index.php?action_kouhyou_detail_004_kani=true&JigyosyoCd=2070104902-00&ServiceCd=410&Type=search", "url2": "http://www.ramico.co.jp/" }, "geometry": { "type": "Point", "coordinates": [ 138.221247100309853, 36.646047071863322 ] } },
{ "type": "Feature", "properties": { "内容": "株式会社麻屋家具製作所【特定福祉用具販売】長野県長野市信州新町新町698", "url": "https://www.kaigokensaku.mhlw.go.jp/20/index.php?action_kouhyou_detail_004_kani=true&JigyosyoCd=2073400174-00&ServiceCd=410&Type=search", "url2": "http://asaya-smile.com" }, "geometry": { "type": "Point", "coordinates": [ 138.008916199999931, 36.5697051 ] } },
{ "type": "Feature", "properties": { "内容": "ダスキヘルスレント長野ステーション【特定福祉用具販売】長野県長野市吉田5-22-34", "url": "https://www.kaigokensaku.mhlw.go.jp/20/index.php?action_kouhyou_detail_004_kani=true&JigyosyoCd=2070107129-00&ServiceCd=410&Type=search", "url2": "https://healthrent.duskin.jp/" }, "geometry": { "type": "Point", "coordinates": [ 138.227361100000053, 36.6593571 ] } },
{ "type": "Feature", "properties": { "内容": "サクラケア長野南店【特定福祉用具販売】長野県長野市里島10-1", "url": "https://www.kaigokensaku.mhlw.go.jp/20/index.php?action_kouhyou_detail_004_kani=true&JigyosyoCd=2070104209-00&ServiceCd=410&Type=search", "url2": "http://www.sakura-care.co.jp/mc/business/index.html" }, "geometry": { "type": "Point", "coordinates": [ 138.152055099999984, 36.5814115 ] } },
{ "type": "Feature", "properties": { "内容": "株式会社サン・アイ福祉部中信事業所【特定福祉用具販売】松本市元町３－３－１８元町ハイツ１０１", "url": "https://www.kaigokensaku.mhlw.go.jp/20/index.php?action_kouhyou_detail_004_kani=true&JigyosyoCd=2070200841-00&ServiceCd=410&Type=search", "url2": null }, "geometry": { "type": "Point", "coordinates": [ 137.982820899999979, 36.2487829 ] } },
{ "type": "Feature", "properties": { "内容": "有限会社クモイエージェンシー【特定福祉用具販売】松本市波田１００６９－３", "url": "https://www.kaigokensaku.mhlw.go.jp/20/index.php?action_kouhyou_detail_004_kani=true&JigyosyoCd=2072700210-00&ServiceCd=410&Type=search", "url2": null }, "geometry": { "type": "Point", "coordinates": [ 137.864177700000027, 36.2044329 ] } },
{ "type": "Feature", "properties": { "内容": "アビリティーズ・ケアネット株式会社松本営業所【特定福祉用具販売】松本市庄内３－３－１２", "url": "https://www.kaigokensaku.mhlw.go.jp/20/index.php?action_kouhyou_detail_004_kani=true&JigyosyoCd=2070201013-00&ServiceCd=410&Type=search", "url2": "http://www.abilities.jp/" }, "geometry": { "type": "Point", "coordinates": [ 137.972287700000038, 36.2196545 ] } },
{ "type": "Feature", "properties": { "内容": "ライフエコサポート【特定福祉用具販売】松本市洞659番地", "url": "https://www.kaigokensaku.mhlw.go.jp/20/index.php?action_kouhyou_detail_004_kani=true&JigyosyoCd=2070202599-00&ServiceCd=410&Type=search", "url2": null }, "geometry": { "type": "Point", "coordinates": [ 137.989328099999966, 36.2777973 ] } },
{ "type": "Feature", "properties": { "内容": "介護ショップ　ビソウ【特定福祉用具販売】長野県松本市庄内3丁目6-5林庄内ビル103号", "url": "https://www.kaigokensaku.mhlw.go.jp/20/index.php?action_kouhyou_detail_004_kani=true&JigyosyoCd=2070203977-00&ServiceCd=410&Type=search", "url2": null }, "geometry": { "type": "Point", "coordinates": [ 137.974181899999962, 36.2215821 ] } },
{ "type": "Feature", "properties": { "内容": "マツイ商会有限会社【特定福祉用具販売】長野県松本市出川2丁目19-6", "url": "https://www.kaigokensaku.mhlw.go.jp/20/index.php?action_kouhyou_detail_004_kani=true&JigyosyoCd=2070201773-00&ServiceCd=410&Type=search", "url2": null }, "geometry": { "type": "Point", "coordinates": [ 137.972224, 36.2149551 ] } },
{ "type": "Feature", "properties": { "内容": "そら介護サポート【特定福祉用具販売】長野県松本市深志2-6-9LON　BLDG.2階　A", "url": "https://www.kaigokensaku.mhlw.go.jp/20/index.php?action_kouhyou_detail_004_kani=true&JigyosyoCd=2070204447-00&ServiceCd=410&Type=search", "url2": "https://kaigo-aozora.co.jp/" }, "geometry": { "type": "Point", "coordinates": [ 137.971379371792978, 36.230734290758761 ] } },
{ "type": "Feature", "properties": { "内容": "株式会社フロンティア　長野営業所【特定福祉用具販売】長野県松本市高宮南7-46", "url": "https://www.kaigokensaku.mhlw.go.jp/20/index.php?action_kouhyou_detail_004_kani=true&JigyosyoCd=2070203076-00&ServiceCd=410&Type=search", "url2": "http://www.frontier-ph.com/" }, "geometry": { "type": "Point", "coordinates": [ 137.957463836848433, 36.211180819838731 ] } },
{ "type": "Feature", "properties": { "内容": "サクラケア南松本店【特定福祉用具販売】長野県松本市笹部2丁目12-19", "url": "https://www.kaigokensaku.mhlw.go.jp/20/index.php?action_kouhyou_detail_004_kani=true&JigyosyoCd=2070204553-00&ServiceCd=410&Type=search", "url2": "https//www.sakura-care.co.jp/" }, "geometry": { "type": "Point", "coordinates": [ 137.951697, 36.2123011 ] } },
{ "type": "Feature", "properties": { "内容": "エフビー介護サービス株式会社松本営業所【特定福祉用具販売】長野県松本市島内４９７２-５", "url": "https://www.kaigokensaku.mhlw.go.jp/20/index.php?action_kouhyou_detail_004_kani=true&JigyosyoCd=2070201930-00&ServiceCd=410&Type=search", "url2": "http://www.fb-kaigo.co.jp" }, "geometry": { "type": "Point", "coordinates": [ 137.941666899999973, 36.2511851 ] } },
{ "type": "Feature", "properties": { "内容": "ひまわり館　松本営業所【特定福祉用具販売】長野県松本市筑摩4-20-17", "url": "https://www.kaigokensaku.mhlw.go.jp/20/index.php?action_kouhyou_detail_004_kani=true&JigyosyoCd=2070203555-00&ServiceCd=410&Type=search", "url2": "http://www.fujielectric.co.jp/fols/" }, "geometry": { "type": "Point", "coordinates": [ 137.985819399999968, 36.2238796 ] } },
{ "type": "Feature", "properties": { "内容": "サクラケア松本店【特定福祉用具販売】長野県松本市梓川倭466-3", "url": "https://www.kaigokensaku.mhlw.go.jp/20/index.php?action_kouhyou_detail_004_kani=true&JigyosyoCd=2074000551-00&ServiceCd=410&Type=search", "url2": "http://www.sakura-care.co.jp/mc/" }, "geometry": { "type": "Point", "coordinates": [ 137.890761756191978, 36.236006667529651 ] } },
{ "type": "Feature", "properties": { "内容": "株式会社信濃毎日新聞松本専売所　福祉事業部【特定福祉用具販売】長野県松本市大手4丁目10番16号", "url": "https://www.kaigokensaku.mhlw.go.jp/20/index.php?action_kouhyou_detail_004_kani=true&JigyosyoCd=2070203688-00&ServiceCd=410&Type=search", "url2": "http://fukushi.matsusen.jp/" }, "geometry": { "type": "Point", "coordinates": [ 137.972154206745927, 36.23643297031937 ] } },
{ "type": "Feature", "properties": { "内容": "十字屋リース株式会社【特定福祉用具販売】長野県松本市筑摩１－１５－１", "url": "https://www.kaigokensaku.mhlw.go.jp/20/index.php?action_kouhyou_detail_004_kani=true&JigyosyoCd=2070200643-00&ServiceCd=410&Type=search", "url2": "http://www.jujiya-l.co.jp" }, "geometry": { "type": "Point", "coordinates": [ 137.97606780000001, 36.2213906 ] } },
{ "type": "Feature", "properties": { "内容": "フランスベッド株式会社メディカル松本営業所【特定福祉用具販売】長野県松本市双葉10-22双葉町ビルＢ棟2Ｆ", "url": "https://www.kaigokensaku.mhlw.go.jp/20/index.php?action_kouhyou_detail_004_kani=true&JigyosyoCd=2070202789-00&ServiceCd=410&Type=search", "url2": null }, "geometry": { "type": "Point", "coordinates": [ 137.9639224, 36.2089822 ] } },
{ "type": "Feature", "properties": { "内容": "タカサワ通商松本営業所【特定福祉用具販売】長野県松本市征矢野２-１２-４６", "url": "https://www.kaigokensaku.mhlw.go.jp/20/index.php?action_kouhyou_detail_004_kani=true&JigyosyoCd=2070201641-00&ServiceCd=410&Type=search", "url2": "http://www.alpico.co.jp/tsusho/" }, "geometry": { "type": "Point", "coordinates": [ 137.95488690000002, 36.2152516 ] } },
{ "type": "Feature", "properties": { "内容": "ダスキンヘルスレント松本ステーション【特定福祉用具販売】長野県松本市双葉18-2", "url": "https://www.kaigokensaku.mhlw.go.jp/20/index.php?action_kouhyou_detail_004_kani=true&JigyosyoCd=2070201757-00&ServiceCd=410&Type=search", "url2": "http://healthrent.duskin.jp/index.html" }, "geometry": { "type": "Point", "coordinates": [ 137.968277899999947, 36.1977711 ] } },
{ "type": "Feature", "properties": { "内容": "元気ライフ有限会社【特定福祉用具販売】長野県松本市大字島内4173番地5", "url": "https://www.kaigokensaku.mhlw.go.jp/20/index.php?action_kouhyou_detail_004_kani=true&JigyosyoCd=2070201534-00&ServiceCd=410&Type=search", "url2": null }, "geometry": { "type": "Point", "coordinates": [ 137.945765007934625, 36.243361123516074 ] } },
{ "type": "Feature", "properties": { "内容": "中日本メディカルリンク株式会社　介護用品営業所　ヘルスケアテック【特定福祉用具販売】長野県松本市丸の内8-3丸の内ビル", "url": "https://www.kaigokensaku.mhlw.go.jp/20/index.php?action_kouhyou_detail_004_kani=true&JigyosyoCd=2070200304-00&ServiceCd=410&Type=search", "url2": null }, "geometry": { "type": "Point", "coordinates": [ 137.972734, 36.2393908 ] } },
{ "type": "Feature", "properties": { "内容": "有限会社だいまる【特定福祉用具販売】上田市上丸子３３１－１", "url": "https://www.kaigokensaku.mhlw.go.jp/20/index.php?action_kouhyou_detail_004_kani=true&JigyosyoCd=2072200575-00&ServiceCd=410&Type=search", "url2": "http://www.daimarunet.jp" }, "geometry": { "type": "Point", "coordinates": [ 138.271793, 36.3267987 ] } },
{ "type": "Feature", "properties": { "内容": "タカサワ通商ふれあい上田【特定福祉用具販売】長野県上田市古里29-22", "url": "https://www.kaigokensaku.mhlw.go.jp/20/index.php?action_kouhyou_detail_004_kani=true&JigyosyoCd=2070302092-00&ServiceCd=410&Type=search", "url2": "http://takasawatsusho.co.jp/" }, "geometry": { "type": "Point", "coordinates": [ 138.280733400000031, 36.4003784 ] } },
{ "type": "Feature", "properties": { "内容": "エフビー介護サービス株式会社上田営業所【特定福祉用具販売】長野県上田市常入１-１１-４０", "url": "https://www.kaigokensaku.mhlw.go.jp/20/index.php?action_kouhyou_detail_004_kani=true&JigyosyoCd=2070300419-00&ServiceCd=410&Type=search", "url2": "http://www.fb-kaigo.co.jp/" }, "geometry": { "type": "Point", "coordinates": [ 138.267935200000011, 36.3894462 ] } },
{ "type": "Feature", "properties": { "内容": "リーフケア株式会社【特定福祉用具販売】長野県上田市真田町本原７７５－４", "url": "https://www.kaigokensaku.mhlw.go.jp/20/index.php?action_kouhyou_detail_004_kani=true&JigyosyoCd=2070301029-00&ServiceCd=410&Type=search", "url2": "http://www.leafcare.com/welfare/" }, "geometry": { "type": "Point", "coordinates": [ 138.297960800000027, 36.4265645 ] } },
{ "type": "Feature", "properties": { "内容": "サクラケア上田店【特定福祉用具販売】長野県上田市住吉２８０－８", "url": "https://www.kaigokensaku.mhlw.go.jp/20/index.php?action_kouhyou_detail_004_kani=true&JigyosyoCd=2070300658-00&ServiceCd=410&Type=search", "url2": "http://www.sakura-care.co.jp/" }, "geometry": { "type": "Point", "coordinates": [ 138.2760141, 36.4049418 ] } },
{ "type": "Feature", "properties": { "内容": "パナソニックエイジフリーショプ上田【特定福祉用具販売】長野県上田市秋和問屋町505", "url": "https://www.kaigokensaku.mhlw.go.jp/20/index.php?action_kouhyou_detail_004_kani=true&JigyosyoCd=2070301300-00&ServiceCd=410&Type=search", "url2": "http://panasonic.biz/healthcare/afsh/store/search/shop_detail.php?shop=3D3" }, "geometry": { "type": "Point", "coordinates": [ 138.252038699999957, 36.4001617 ] } },
{ "type": "Feature", "properties": { "内容": "在宅介護リフォームセンターふれあいショップ【特定福祉用具販売】岡谷市塚間町一丁目６－９", "url": "https://www.kaigokensaku.mhlw.go.jp/20/index.php?action_kouhyou_detail_004_kani=true&JigyosyoCd=2070400102-00&ServiceCd=410&Type=search", "url2": null }, "geometry": { "type": "Point", "coordinates": [ 138.053030900000067, 36.0622844 ] } },
{ "type": "Feature", "properties": { "内容": "福祉用具貸与事業所あぐり【特定福祉用具販売】鼎中平2009-5", "url": "https://www.kaigokensaku.mhlw.go.jp/20/index.php?action_kouhyou_detail_004_kani=true&JigyosyoCd=2070502030-00&ServiceCd=410&Type=search", "url2": "ａｇｕｒｉｋａｎ＠ｄｉａ．ｊａｎｉｓ．ｏｒ．ｊｐ" }, "geometry": { "type": "Point", "coordinates": [ 137.82721319999996, 35.5072121 ] } },
{ "type": "Feature", "properties": { "内容": "福祉住環境ひいらぎ【特定福祉用具販売】長野県飯田市松尾町4-7-2シノダビル１F", "url": "https://www.kaigokensaku.mhlw.go.jp/20/index.php?action_kouhyou_detail_004_kani=true&JigyosyoCd=2070502212-00&ServiceCd=410&Type=search", "url2": "https://fukushi-jukankyo.com" }, "geometry": { "type": "Point", "coordinates": [ 137.822075153967319, 35.518020163937862 ] } },
{ "type": "Feature", "properties": { "内容": "介護のかふね【特定福祉用具販売】長野県飯田市北方2456-3", "url": "https://www.kaigokensaku.mhlw.go.jp/20/index.php?action_kouhyou_detail_004_kani=true&JigyosyoCd=2070500596-00&ServiceCd=410&Type=search", "url2": "http://kafune.jp/" }, "geometry": { "type": "Point", "coordinates": [ 137.795652300000029, 35.505630500000017 ] } },
{ "type": "Feature", "properties": { "内容": "株式会社マスト【特定福祉用具販売】長野県飯田市上郷別府3313-8", "url": "https://www.kaigokensaku.mhlw.go.jp/20/index.php?action_kouhyou_detail_004_kani=true&JigyosyoCd=2070500216-00&ServiceCd=410&Type=search", "url2": null }, "geometry": { "type": "Point", "coordinates": [ 137.844308800000022, 35.5074959 ] } },
{ "type": "Feature", "properties": { "内容": "株式会社サン・アイ福祉部【特定福祉用具販売】長野県飯田市松尾明8055-1", "url": "https://www.kaigokensaku.mhlw.go.jp/20/index.php?action_kouhyou_detail_004_kani=true&JigyosyoCd=2070500604-00&ServiceCd=410&Type=search", "url2": "https://sanai-hukusibu.com/" }, "geometry": { "type": "Point", "coordinates": [ 137.848967600000037, 35.486768 ] } },
{ "type": "Feature", "properties": { "内容": "福祉用具貸与・販売事業所　こころ【特定福祉用具販売】長野県諏訪市高島一丁目２１番１４号　こころのひろば内", "url": "https://www.kaigokensaku.mhlw.go.jp/20/index.php?action_kouhyou_detail_004_kani=true&JigyosyoCd=2070600602-00&ServiceCd=410&Type=search", "url2": "http://www.kokoro5560.or.jp/" }, "geometry": { "type": "Point", "coordinates": [ 138.114034335751285, 36.04029267432027 ] } },
{ "type": "Feature", "properties": { "内容": "みよし家介護サービス【特定福祉用具販売】長野県諏訪市湯の脇２丁目９番１３号", "url": "https://www.kaigokensaku.mhlw.go.jp/20/index.php?action_kouhyou_detail_004_kani=true&JigyosyoCd=2070600388-00&ServiceCd=410&Type=search", "url2": "http://www.miyosiya.jp" }, "geometry": { "type": "Point", "coordinates": [ 138.1157517, 36.0501609 ] } },
{ "type": "Feature", "properties": { "内容": "タカサワ通商諏訪営業所【特定福祉用具販売】長野県諏訪市四賀赤沼1817", "url": "https://www.kaigokensaku.mhlw.go.jp/20/index.php?action_kouhyou_detail_004_kani=true&JigyosyoCd=2070601089-00&ServiceCd=410&Type=search", "url2": null }, "geometry": { "type": "Point", "coordinates": [ 138.124972260882402, 36.018087921442408 ] } },
{ "type": "Feature", "properties": { "内容": "サクラケア諏訪店【特定福祉用具販売】長野県諏訪市大字中洲字三ツ俣5709-24", "url": "https://www.kaigokensaku.mhlw.go.jp/20/index.php?action_kouhyou_detail_004_kani=true&JigyosyoCd=2070601022-00&ServiceCd=410&Type=search", "url2": "https://www.sakura-care.co.jp/" }, "geometry": { "type": "Point", "coordinates": [ 138.115562, 36.026143 ] } },
{ "type": "Feature", "properties": { "内容": "有限会社安心指定福祉用具貸与事業所須坂店【特定福祉用具販売】長野県須坂市大字須坂1403-2", "url": "https://www.kaigokensaku.mhlw.go.jp/20/index.php?action_kouhyou_detail_004_kani=true&JigyosyoCd=2070700600-00&ServiceCd=410&Type=search", "url2": "http://www.ansin-shop.com/" }, "geometry": { "type": "Point", "coordinates": [ 138.309306986508233, 36.652500630207925 ] } },
{ "type": "Feature", "properties": { "内容": "楽蔵【特定福祉用具販売】須坂市井上1700-21株式会社中外製作所　内", "url": "https://www.kaigokensaku.mhlw.go.jp/20/index.php?action_kouhyou_detail_004_kani=true&JigyosyoCd=2070700550-00&ServiceCd=410&Type=search", "url2": "http://www.e-chugai.com/" }, "geometry": { "type": "Point", "coordinates": [ 138.27929180000001, 36.6379622 ] } },
{ "type": "Feature", "properties": { "内容": "福祉ショップことぶき【特定福祉用具販売】小諸市御影新田字池ノ上2130-8", "url": "https://www.kaigokensaku.mhlw.go.jp/20/index.php?action_kouhyou_detail_004_kani=true&JigyosyoCd=2070800459-00&ServiceCd=410&Type=search", "url2": "http://kotobuki-group.jp" }, "geometry": { "type": "Point", "coordinates": [ 138.46639854328177, 36.301969874323987 ] } },
{ "type": "Feature", "properties": { "内容": "株式会社サン・アイ福祉部　伊那事業所【特定福祉用具販売】長野県伊那市西春近表木前6068-1", "url": "https://www.kaigokensaku.mhlw.go.jp/20/index.php?action_kouhyou_detail_004_kani=true&JigyosyoCd=2070900770-00&ServiceCd=410&Type=search", "url2": null }, "geometry": { "type": "Point", "coordinates": [ 137.942040100000014, 35.790455600000016 ] } },
{ "type": "Feature", "properties": { "内容": "株式会社BISO【特定福祉用具販売】東春近549-3", "url": "https://www.kaigokensaku.mhlw.go.jp/20/index.php?action_kouhyou_detail_004_kani=true&JigyosyoCd=2070900507-00&ServiceCd=410&Type=search", "url2": "biso-ina.jp" }, "geometry": { "type": "Point", "coordinates": [ 137.976384, 35.8246938 ] } },
{ "type": "Feature", "properties": { "内容": "タカノハートワークスショップ伊那【特定福祉用具販売】長野県伊那市美篶5324-1", "url": "https://www.kaigokensaku.mhlw.go.jp/20/index.php?action_kouhyou_detail_004_kani=true&JigyosyoCd=2070900903-00&ServiceCd=410&Type=search", "url2": "https://www.takano-net.co.jp/" }, "geometry": { "type": "Point", "coordinates": [ 138.00637, 35.832398 ] } },
{ "type": "Feature", "properties": { "内容": "十字屋リース株式会社南信営業所【特定福祉用具販売】伊那市荒井３５７８", "url": "https://www.kaigokensaku.mhlw.go.jp/20/index.php?action_kouhyou_detail_004_kani=true&JigyosyoCd=2070900309-00&ServiceCd=410&Type=search", "url2": "http://www.jujiya-l.co.jp" }, "geometry": { "type": "Point", "coordinates": [ 137.956798899999967, 35.8406433 ] } },
{ "type": "Feature", "properties": { "内容": "サクラケア伊那店【特定福祉用具販売】長野県伊那市山寺2850-7", "url": "https://www.kaigokensaku.mhlw.go.jp/20/index.php?action_kouhyou_detail_004_kani=true&JigyosyoCd=2070900473-00&ServiceCd=410&Type=search", "url2": "http://www.sakura-care.co.jp" }, "geometry": { "type": "Point", "coordinates": [ 137.952787988298212, 35.85231876678732 ] } },
{ "type": "Feature", "properties": { "内容": "株式会社介護センター花岡伊那店【特定福祉用具販売】長野県伊那市下新田３１９８番地１", "url": "https://www.kaigokensaku.mhlw.go.jp/20/index.php?action_kouhyou_detail_004_kani=true&JigyosyoCd=2070900184-00&ServiceCd=410&Type=search", "url2": "http://www.kaigo-hanaoka.com/" }, "geometry": { "type": "Point", "coordinates": [ 137.953613737434353, 35.829632075181088 ] } },
{ "type": "Feature", "properties": { "内容": "介護レンタル　ともえ【特定福祉用具販売】長野県駒ヶ根市東町7-11", "url": "https://www.kaigokensaku.mhlw.go.jp/20/index.php?action_kouhyou_detail_004_kani=true&JigyosyoCd=2071000349-00&ServiceCd=410&Type=search", "url2": null }, "geometry": { "type": "Point", "coordinates": [ 137.9400435, 35.7345037 ] } },
{ "type": "Feature", "properties": { "内容": "有限会社安心指定福祉貸与事業所なかの店【特定福祉用具販売】長野県中野市三好町1丁目4-28", "url": "https://www.kaigokensaku.mhlw.go.jp/20/index.php?action_kouhyou_detail_004_kani=true&JigyosyoCd=2071100495-00&ServiceCd=410&Type=search", "url2": "http://www.ansin-shop.com/" }, "geometry": { "type": "Point", "coordinates": [ 138.368505899999946, 36.7415384 ] } },
{ "type": "Feature", "properties": { "内容": "サクラケア中野店【特定福祉用具販売】長野県中野市新井６０８－５", "url": "https://www.kaigokensaku.mhlw.go.jp/20/index.php?action_kouhyou_detail_004_kani=true&JigyosyoCd=2071100230-00&ServiceCd=410&Type=search", "url2": "http://www.sakura-care.co.jp/" }, "geometry": { "type": "Point", "coordinates": [ 138.36604103909076, 36.759589385065077 ] } },
{ "type": "Feature", "properties": { "内容": "シルバー介護ショップピュアケア【特定福祉用具販売】中野市西1-4-29", "url": "https://www.kaigokensaku.mhlw.go.jp/20/index.php?action_kouhyou_detail_004_kani=true&JigyosyoCd=2071100065-00&ServiceCd=410&Type=search", "url2": null }, "geometry": { "type": "Point", "coordinates": [ 138.366988675740771, 36.745063419571906 ] } },
{ "type": "Feature", "properties": { "内容": "介護ショップしおいり【特定福祉用具販売】大町市大町２５４７－３", "url": "https://www.kaigokensaku.mhlw.go.jp/20/index.php?action_kouhyou_detail_004_kani=true&JigyosyoCd=2071200238-00&ServiceCd=410&Type=search", "url2": null }, "geometry": { "type": "Point", "coordinates": [ 137.859643499999947, 36.5052621 ] } },
{ "type": "Feature", "properties": { "内容": "福祉環境サービス【特定福祉用具販売】長野県大町市大町921－9", "url": "https://www.kaigokensaku.mhlw.go.jp/20/index.php?action_kouhyou_detail_004_kani=true&JigyosyoCd=2071200618-00&ServiceCd=410&Type=search", "url2": "作成中" }, "geometry": { "type": "Point", "coordinates": [ 137.8660767, 36.5081999 ] } },
{ "type": "Feature", "properties": { "内容": "有限会社坂東ホーム【特定福祉用具販売】飯山市大字飯山６２４－６", "url": "https://www.kaigokensaku.mhlw.go.jp/20/index.php?action_kouhyou_detail_004_kani=true&JigyosyoCd=2071300152-00&ServiceCd=410&Type=search", "url2": null }, "geometry": { "type": "Point", "coordinates": [ 138.355446499999971, 36.8466448 ] } },
{ "type": "Feature", "properties": { "内容": "有限会社山室家具店【特定福祉用具販売】飯山市大字飯山5238－2", "url": "https://www.kaigokensaku.mhlw.go.jp/20/index.php?action_kouhyou_detail_004_kani=true&JigyosyoCd=2071300178-00&ServiceCd=410&Type=search", "url2": null }, "geometry": { "type": "Point", "coordinates": [ 138.3740338, 36.8740679 ] } },
{ "type": "Feature", "properties": { "内容": "有限会社カネミツ【特定福祉用具販売】長野県茅野市宮川4450-1", "url": "https://www.kaigokensaku.mhlw.go.jp/20/index.php?action_kouhyou_detail_004_kani=true&JigyosyoCd=2071400226-00&ServiceCd=410&Type=search", "url2": null }, "geometry": { "type": "Point", "coordinates": [ 138.153649399999949, 35.9886712 ] } },
{ "type": "Feature", "properties": { "内容": "ケアライフ【特定福祉用具販売】長野県茅野市仲町１２－１６", "url": "https://www.kaigokensaku.mhlw.go.jp/20/index.php?action_kouhyou_detail_004_kani=true&JigyosyoCd=2071401174-00&ServiceCd=410&Type=search", "url2": null }, "geometry": { "type": "Point", "coordinates": [ 138.1543991, 35.9928716 ] } },
{ "type": "Feature", "properties": { "内容": "ダスキンヘルスレント茅野ステーション【特定福祉用具販売】長野県茅野市塚原2-13-39竹村ビル1F", "url": "https://www.kaigokensaku.mhlw.go.jp/20/index.php?action_kouhyou_detail_004_kani=true&JigyosyoCd=2071401034-00&ServiceCd=410&Type=search", "url2": "https://healthrent.duskin.jp/station/nagano/chino.html" }, "geometry": { "type": "Point", "coordinates": [ 138.157353655819691, 35.996964379078968 ] } },
{ "type": "Feature", "properties": { "内容": "介護ショップヒライデ【特定福祉用具販売】長野県塩尻市大門五番町１２番４１号", "url": "https://www.kaigokensaku.mhlw.go.jp/20/index.php?action_kouhyou_detail_004_kani=true&JigyosyoCd=2071500686-00&ServiceCd=410&Type=search", "url2": "http://www.hiraide-kagu.com" }, "geometry": { "type": "Point", "coordinates": [ 137.959998499999983, 36.1137393 ] } },
{ "type": "Feature", "properties": { "内容": "介護ショップほほえみ【特定福祉用具販売】広丘吉田664番地1", "url": "https://www.kaigokensaku.mhlw.go.jp/20/index.php?action_kouhyou_detail_004_kani=true&JigyosyoCd=2071501072-00&ServiceCd=410&Type=search", "url2": "https://www.fb-kaigo.co.jp" }, "geometry": { "type": "Point", "coordinates": [ 137.95208550000001, 36.1649624 ] } },
{ "type": "Feature", "properties": { "内容": "株式会社介護センター花岡塩尻店【特定福祉用具販売】長野県塩尻市広丘高出2228-10", "url": "https://www.kaigokensaku.mhlw.go.jp/20/index.php?action_kouhyou_detail_004_kani=true&JigyosyoCd=2071500918-00&ServiceCd=410&Type=search", "url2": "http://www.kaigo-hanaoka.com/" }, "geometry": { "type": "Point", "coordinates": [ 137.950526299999979, 36.1273652 ] } },
{ "type": "Feature", "properties": { "内容": "サクラケア塩尻店【特定福祉用具販売】長野県塩尻市広丘吉田３３４８", "url": "https://www.kaigokensaku.mhlw.go.jp/20/index.php?action_kouhyou_detail_004_kani=true&JigyosyoCd=2071500553-00&ServiceCd=410&Type=search", "url2": "https://sakura-care.co.jp/store/shiojiri/" }, "geometry": { "type": "Point", "coordinates": [ 137.950569399999949, 36.1600862 ] } },
{ "type": "Feature", "properties": { "内容": "株式会社ライフサポート【特定福祉用具販売】佐久市猿久保７４２－３", "url": "https://www.kaigokensaku.mhlw.go.jp/20/index.php?action_kouhyou_detail_004_kani=true&JigyosyoCd=2071700880-00&ServiceCd=410&Type=search", "url2": null }, "geometry": { "type": "Point", "coordinates": [ 138.474527699999953, 36.2573536 ] } },
{ "type": "Feature", "properties": { "内容": "エフビー介護サービス株式会社　佐久営業所【特定福祉用具販売】長野県佐久市長土呂８６２番地２", "url": "https://www.kaigokensaku.mhlw.go.jp/20/index.php?action_kouhyou_detail_004_kani=true&JigyosyoCd=2071700765-00&ServiceCd=410&Type=search", "url2": "http://www.fb-kaigo.co.jp/" }, "geometry": { "type": "Point", "coordinates": [ 138.470666599999959, 36.292480200000014 ] } },
{ "type": "Feature", "properties": { "内容": "有限会社ケーアンドケーメディカル【特定福祉用具販売】長野県佐久市臼田1935", "url": "https://www.kaigokensaku.mhlw.go.jp/20/index.php?action_kouhyou_detail_004_kani=true&JigyosyoCd=2072000132-00&ServiceCd=410&Type=search", "url2": "https://www.kk-medical.co.jp" }, "geometry": { "type": "Point", "coordinates": [ 138.473862899999972, 36.196882 ] } },
{ "type": "Feature", "properties": { "内容": "サクラケア佐久店【特定福祉用具販売】長野県佐久市中込３６３９－３", "url": "https://www.kaigokensaku.mhlw.go.jp/20/index.php?action_kouhyou_detail_004_kani=true&JigyosyoCd=2071700690-00&ServiceCd=410&Type=search", "url2": "http://www.sakura-care.co.jp/" }, "geometry": { "type": "Point", "coordinates": [ 138.468034, 36.2529149 ] } },
{ "type": "Feature", "properties": { "内容": "メディコケイジン株式会社【特定福祉用具販売】長野県佐久市中込3-15-1", "url": "https://www.kaigokensaku.mhlw.go.jp/20/index.php?action_kouhyou_detail_004_kani=true&JigyosyoCd=2071700070-00&ServiceCd=410&Type=search", "url2": "https://www.keijinnet.or.jp/medico-keijin/" }, "geometry": { "type": "Point", "coordinates": [ 138.478292469311555, 36.227429734148757 ] } },
{ "type": "Feature", "properties": { "内容": "いせや薬局居宅介護支援事業所【特定福祉用具販売】千曲市稲荷山835", "url": "https://www.kaigokensaku.mhlw.go.jp/20/index.php?action_kouhyou_detail_004_kani=true&JigyosyoCd=2041847027-00&ServiceCd=410&Type=search", "url2": "iseyahonbu@mail.goo.ne.jp" }, "geometry": { "type": "Point", "coordinates": [ 138.104181499999981, 36.5342626 ] } },
{ "type": "Feature", "properties": { "内容": "サクラケア千曲店【特定福祉用具販売】長野県千曲市小島３１７２", "url": "https://www.kaigokensaku.mhlw.go.jp/20/index.php?action_kouhyou_detail_004_kani=true&JigyosyoCd=2071800045-00&ServiceCd=410&Type=search", "url2": "http://www.sakura-care.co.jp/" }, "geometry": { "type": "Point", "coordinates": [ 138.1271848, 36.5342994 ] } },
{ "type": "Feature", "properties": { "内容": "株式会社トーカイ　長野支店【特定福祉用具販売】長野県千曲市稲荷山６８８番地７", "url": "https://www.kaigokensaku.mhlw.go.jp/20/index.php?action_kouhyou_detail_004_kani=true&JigyosyoCd=2071600114-00&ServiceCd=410&Type=search", "url2": "http://www.tokai-corp.com/" }, "geometry": { "type": "Point", "coordinates": [ 138.105828400000064, 36.5396037 ] } },
{ "type": "Feature", "properties": { "内容": "ひだまりのもりとうみ【特定福祉用具販売】長野県東御市和2080-4", "url": "https://www.kaigokensaku.mhlw.go.jp/20/index.php?action_kouhyou_detail_004_kani=true&JigyosyoCd=2071900399-00&ServiceCd=410&Type=search", "url2": null }, "geometry": { "type": "Point", "coordinates": [ 138.3139152, 36.3761615 ] } },
{ "type": "Feature", "properties": { "内容": "エフビー介護サービス株式会社介護ショップほほえみ安曇野【特定福祉用具販売】長野県安曇野市豊科5703-15", "url": "https://www.kaigokensaku.mhlw.go.jp/20/index.php?action_kouhyou_detail_004_kani=true&JigyosyoCd=2074001393-00&ServiceCd=410&Type=search", "url2": "http://www.fb-kaigo.co.jp" }, "geometry": { "type": "Point", "coordinates": [ 137.9075158, 36.3018223 ] } },
{ "type": "Feature", "properties": { "内容": "サクラケア安曇野店【特定福祉用具販売】長野県安曇野市豊科4198-5", "url": "https://www.kaigokensaku.mhlw.go.jp/20/index.php?action_kouhyou_detail_004_kani=true&JigyosyoCd=2074001328-00&ServiceCd=410&Type=search", "url2": "https://sakura-care.co.jp/" }, "geometry": { "type": "Point", "coordinates": [ 137.91214020000001, 36.2989216 ] } },
{ "type": "Feature", "properties": { "内容": "十字屋リース株式会社安曇野営業所【特定福祉用具販売】長野県安曇野市豊科4877-1DM1号館1FB室", "url": "https://www.kaigokensaku.mhlw.go.jp/20/index.php?action_kouhyou_detail_004_kani=true&JigyosyoCd=2074001047-00&ServiceCd=410&Type=search", "url2": "http//www.jujiya-l.co.jp" }, "geometry": { "type": "Point", "coordinates": [ 137.903967200000011, 36.3002959 ] } },
{ "type": "Feature", "properties": { "内容": "Jケアリース【特定福祉用具販売】長野県小県郡長和町長久保２９５番２", "url": "https://www.kaigokensaku.mhlw.go.jp/20/index.php?action_kouhyou_detail_004_kani=true&JigyosyoCd=2072200799-00&ServiceCd=410&Type=search", "url2": null }, "geometry": { "type": "Point", "coordinates": [ 138.2697417, 36.2620635 ] } },
{ "type": "Feature", "properties": { "内容": "有限会社フィット【特定福祉用具販売】長野県諏訪郡下諏訪町富ヶ丘6750", "url": "https://www.kaigokensaku.mhlw.go.jp/20/index.php?action_kouhyou_detail_004_kani=true&JigyosyoCd=2072300607-00&ServiceCd=410&Type=search", "url2": "http://fit-movingeye.jp/" }, "geometry": { "type": "Point", "coordinates": [ 138.098108637434393, 36.070197068526966 ] } },
{ "type": "Feature", "properties": { "内容": "株式会社介護センター花岡【特定福祉用具販売】長野県諏訪郡下諏訪町6188番地1", "url": "https://www.kaigokensaku.mhlw.go.jp/20/index.php?action_kouhyou_detail_004_kani=true&JigyosyoCd=2072300144-00&ServiceCd=410&Type=search", "url2": "http://www.kaigo-hanaoka.com/" }, "geometry": { "type": "Point", "coordinates": [ 138.093818879051241, 36.067635290773566 ] } },
{ "type": "Feature", "properties": { "内容": "株式会社介護センター花岡飯島店【特定福祉用具販売】長野県上伊那郡飯島町飯島2050-1", "url": "https://www.kaigokensaku.mhlw.go.jp/20/index.php?action_kouhyou_detail_004_kani=true&JigyosyoCd=2072401421-00&ServiceCd=410&Type=search", "url2": "http://www.kaigo-hanaoka.com/" }, "geometry": { "type": "Point", "coordinates": [ 137.927382200000011, 35.6781982 ] } },
{ "type": "Feature", "properties": { "内容": "介護ショップパインコーン【特定福祉用具販売】長野県上伊那郡南箕輪村6125番地1コーポハラ203号", "url": "https://www.kaigokensaku.mhlw.go.jp/20/index.php?action_kouhyou_detail_004_kani=true&JigyosyoCd=2072401595-00&ServiceCd=410&Type=search", "url2": null }, "geometry": { "type": "Point", "coordinates": [ 137.975014499999986, 35.8729101 ] } },
{ "type": "Feature", "properties": { "内容": "タカノ株式会社【特定福祉用具販売】長野県上伊那郡宮田村359-5", "url": "https://www.kaigokensaku.mhlw.go.jp/20/index.php?action_kouhyou_detail_004_kani=true&JigyosyoCd=2072400308-00&ServiceCd=410&Type=search", "url2": "http://www.takano-hw.com/" }, "geometry": { "type": "Point", "coordinates": [ 137.948184199999986, 35.7647049 ] } },
{ "type": "Feature", "properties": { "内容": "株式会社ライフケア【特定福祉用具販売】長野県下伊那郡松川町元大島3158-3", "url": "https://www.kaigokensaku.mhlw.go.jp/20/index.php?action_kouhyou_detail_004_kani=true&JigyosyoCd=2072501469-00&ServiceCd=410&Type=search", "url2": null }, "geometry": { "type": "Point", "coordinates": [ 137.911575099999936, 35.599297 ] } },
{ "type": "Feature", "properties": { "内容": "介護のかふね松川店【特定福祉用具販売】長野県下伊那郡松川町元大島1547-17", "url": "https://www.kaigokensaku.mhlw.go.jp/20/index.php?action_kouhyou_detail_004_kani=true&JigyosyoCd=2072501261-00&ServiceCd=410&Type=search", "url2": null }, "geometry": { "type": "Point", "coordinates": [ 137.9189026, 35.5954329 ] } },
{ "type": "Feature", "properties": { "内容": "おうえん福祉用具【特定福祉用具販売】下伊那郡高森町上市田２４４番地１２", "url": "https://www.kaigokensaku.mhlw.go.jp/20/index.php?action_kouhyou_detail_004_kani=true&JigyosyoCd=2072501436-00&ServiceCd=410&Type=search", "url2": null }, "geometry": { "type": "Point", "coordinates": [ 137.860294100000033, 35.5523798 ] } },
{ "type": "Feature", "properties": { "内容": "有限会社アサイ【特定福祉用具販売】長野県木曽郡南木曽町読書３６４３番地１１", "url": "https://www.kaigokensaku.mhlw.go.jp/20/index.php?action_kouhyou_detail_004_kani=true&JigyosyoCd=2072600865-00&ServiceCd=410&Type=search", "url2": null }, "geometry": { "type": "Point", "coordinates": [ 137.6089244, 35.6024171 ] } },
{ "type": "Feature", "properties": { "内容": "ＪＡ木曽特定福祉用具販売事業所【特定福祉用具販売】長野県木曽郡木曽町福島２８６３番地の４", "url": "https://www.kaigokensaku.mhlw.go.jp/20/index.php?action_kouhyou_detail_004_kani=true&JigyosyoCd=2072600683-00&ServiceCd=410&Type=search", "url2": null }, "geometry": { "type": "Point", "coordinates": [ 137.68785, 35.8383977 ] } },
{ "type": "Feature", "properties": { "内容": "麻屋大北営業所【特定福祉用具販売】長野県北安曇郡松川村7027", "url": "https://www.kaigokensaku.mhlw.go.jp/20/index.php?action_kouhyou_detail_004_kani=true&JigyosyoCd=2072900851-00&ServiceCd=410&Type=search", "url2": "http://asaya-smile.com/" }, "geometry": { "type": "Point", "coordinates": [ 137.857724, 36.4260599 ] } },
{ "type": "Feature", "properties": { "内容": "ケアショップナカジマ【特定福祉用具販売】長野県上高井郡小布施町大字押羽77", "url": "https://www.kaigokensaku.mhlw.go.jp/20/index.php?action_kouhyou_detail_004_kani=true&JigyosyoCd=2070103268-00&ServiceCd=410&Type=search", "url2": "http://www.nakajima-wa.com/" }, "geometry": { "type": "Point", "coordinates": [ 138.322752799999989, 36.715104 ] } },
{ "type": "Feature", "properties": { "内容": "有限会社安心指定福祉用具貸与事業所【特定福祉用具販売】下高井郡山ノ内町大字平穏３２４３番地の2", "url": "https://www.kaigokensaku.mhlw.go.jp/20/index.php?action_kouhyou_detail_004_kani=true&JigyosyoCd=2073300200-00&ServiceCd=410&Type=search", "url2": "http://www.ansin-shop.com/" }, "geometry": { "type": "Point", "coordinates": [ 138.4134434, 36.7431534 ] } },
{ "type": "Feature", "properties": { "内容": "黒姫ホームサービス株式会社【特定福祉用具販売】長野県上水内郡信濃町大字柏原２５５２番地８", "url": "https://www.kaigokensaku.mhlw.go.jp/20/index.php?action_kouhyou_detail_004_kani=true&JigyosyoCd=2073400711-00&ServiceCd=410&Type=search", "url2": null }, "geometry": { "type": "Point", "coordinates": [ 138.1984936, 36.8083448 ] } }
]
}
