{
"type": "FeatureCollection",
"name": "geo_20_地域密着型特定施設入居者生活介護（軽費老人ホーム）",
"crs": { "type": "name", "properties": { "name": "urn:ogc:def:crs:OGC:1.3:CRS84" } },
"features": [
{ "type": "Feature", "properties": { "内容": "ケアハウス佐久だいら南【地域密着型特定施設入居者生活介護（軽費老人ホーム）】長野県佐久市根々井816-1ケアハウス佐久だいら南", "url": "https://www.kaigokensaku.mhlw.go.jp/20/index.php?action_kouhyou_detail_004_kani=true&JigyosyoCd=2091700175-00&ServiceCd=362&Type=search", "url2": "http://www.carehouse-sakudaira.com" }, "geometry": { "type": "Point", "coordinates": [ 138.457894936909469, 36.261958050089433 ] } }
]
}
