{
"type": "FeatureCollection",
"name": "geo_20_訪問リハビリテーション",
"crs": { "type": "name", "properties": { "name": "urn:ogc:def:crs:OGC:1.3:CRS84" } },
"features": [
{ "type": "Feature", "properties": { "内容": "老人保健施設ケアポート三輪【訪問リハビリテーション】長野市三輪5-43-20", "url": "https://www.kaigokensaku.mhlw.go.jp/20/index.php?action_kouhyou_detail_004_kani=true&JigyosyoCd=2050180062-00&ServiceCd=140&Type=search", "url2": "http://www7.ocn.ne.jp/~keapoto/" }, "geometry": { "type": "Point", "coordinates": [ 138.202006100000062, 36.6584928 ] } },
{ "type": "Feature", "properties": { "内容": "インターコート藤訪問リハビリテーション【訪問リハビリテーション】長野県長野市青木島町綱島782-6", "url": "https://www.kaigokensaku.mhlw.go.jp/20/index.php?action_kouhyou_detail_004_kani=true&JigyosyoCd=2050180138-00&ServiceCd=140&Type=search", "url2": "http://intercourt-fuji.com/" }, "geometry": { "type": "Point", "coordinates": [ 138.19418, 36.615505 ] } },
{ "type": "Feature", "properties": { "内容": "長野市国民健康保険鬼無里診療所【訪問リハビリテーション】長野市鬼無里日影２７５０－１", "url": "https://www.kaigokensaku.mhlw.go.jp/20/index.php?action_kouhyou_detail_004_kani=true&JigyosyoCd=2010118863-00&ServiceCd=140&Type=search", "url2": null }, "geometry": { "type": "Point", "coordinates": [ 138.001421899999968, 36.6803475 ] } },
{ "type": "Feature", "properties": { "内容": "コンフォート岡田【訪問リハビリテーション】長野市北長池９１４", "url": "https://www.kaigokensaku.mhlw.go.jp/20/index.php?action_kouhyou_detail_004_kani=true&JigyosyoCd=2050180021-00&ServiceCd=140&Type=search", "url2": "https://www.comfort-okada.com/" }, "geometry": { "type": "Point", "coordinates": [ 138.2481393, 36.6498445 ] } },
{ "type": "Feature", "properties": { "内容": "長野医療生活協同組合南長池診療所【訪問リハビリテーション】長野市南長池８３０", "url": "https://www.kaigokensaku.mhlw.go.jp/20/index.php?action_kouhyou_detail_004_kani=true&JigyosyoCd=2010118137-00&ServiceCd=140&Type=search", "url2": "http://www.healthcoop-nagano.or.jp/office/kaigo_h_reha.html" }, "geometry": { "type": "Point", "coordinates": [ 138.231227499999932, 36.6453212 ] } },
{ "type": "Feature", "properties": { "内容": "長野市国民健康保険戸隠診療所【訪問リハビリテーション】長野県長野市戸隠豊岡１５５４", "url": "https://www.kaigokensaku.mhlw.go.jp/20/index.php?action_kouhyou_detail_004_kani=true&JigyosyoCd=2010118855-00&ServiceCd=140&Type=search", "url2": null }, "geometry": { "type": "Point", "coordinates": [ 138.088935200000037, 36.7018948 ] } },
{ "type": "Feature", "properties": { "内容": "長野医療生活協同組合長野中央病院【訪問リハビリテーション】長野県長野市西鶴賀１５７０", "url": "https://www.kaigokensaku.mhlw.go.jp/20/index.php?action_kouhyou_detail_004_kani=true&JigyosyoCd=2010117436-00&ServiceCd=140&Type=search", "url2": "https://www.nagano-houreha.com" }, "geometry": { "type": "Point", "coordinates": [ 138.195384699999977, 36.6511631 ] } },
{ "type": "Feature", "properties": { "内容": "賛育会クリニック【訪問リハビリテーション】長野県長野市豊野町豊野634", "url": "https://www.kaigokensaku.mhlw.go.jp/20/index.php?action_kouhyou_detail_004_kani=true&JigyosyoCd=2010119747-00&ServiceCd=140&Type=search", "url2": "http://www.san-ikukai.or.jp/toyono/" }, "geometry": { "type": "Point", "coordinates": [ 138.2827552, 36.7107324 ] } },
{ "type": "Feature", "properties": { "内容": "学校法人四徳学園長野保健医療大学附属整形外科リハビリクリニック【訪問リハビリテーション】長野県長野市川中島町今井原11－8", "url": "https://www.kaigokensaku.mhlw.go.jp/20/index.php?action_kouhyou_detail_004_kani=true&JigyosyoCd=2010118889-00&ServiceCd=140&Type=search", "url2": "http://shitoku.ac.jp/rehabili-clinic/" }, "geometry": { "type": "Point", "coordinates": [ 138.145033, 36.5930964 ] } },
{ "type": "Feature", "properties": { "内容": "訪問リハビリテーション事業所　長野松代総合病院【訪問リハビリテーション】長野県長野市松代町松代176番地14", "url": "https://www.kaigokensaku.mhlw.go.jp/20/index.php?action_kouhyou_detail_004_kani=true&JigyosyoCd=2010117246-00&ServiceCd=140&Type=search", "url2": "http://www.nagano-matsushiro.or.jp/care/houmonreha" }, "geometry": { "type": "Point", "coordinates": [ 138.199571462040694, 36.562977392616837 ] } },
{ "type": "Feature", "properties": { "内容": "長野県厚生農業協同組合連合会南長野医療センター新町病院【訪問リハビリテーション】長野県長野市信州新町上条137番地", "url": "https://www.kaigokensaku.mhlw.go.jp/20/index.php?action_kouhyou_detail_004_kani=true&JigyosyoCd=2010119200-00&ServiceCd=140&Type=search", "url2": "http://www.shinmachi-hsp.com/" }, "geometry": { "type": "Point", "coordinates": [ 138.021227182803386, 36.573082234798875 ] } },
{ "type": "Feature", "properties": { "内容": "医療法人公生会竹重病院【訪問リハビリテーション】長野県長野市田町2099", "url": "https://www.kaigokensaku.mhlw.go.jp/20/index.php?action_kouhyou_detail_004_kani=true&JigyosyoCd=2010117162-00&ServiceCd=140&Type=search", "url2": "http://www17.ocn.ne.jp/~w9-takg3/group/visit_reha.htm" }, "geometry": { "type": "Point", "coordinates": [ 138.1969679, 36.6548459 ] } },
{ "type": "Feature", "properties": { "内容": "長野県厚生農業協同組合連合会　南長野医療センター　篠ノ井総合病院【訪問リハビリテーション】長野県長野市篠ノ井会666-1", "url": "https://www.kaigokensaku.mhlw.go.jp/20/index.php?action_kouhyou_detail_004_kani=true&JigyosyoCd=2010117345-00&ServiceCd=140&Type=search", "url2": "https://shinonoi-ghp.jp/" }, "geometry": { "type": "Point", "coordinates": [ 138.149558500000012, 36.5757147 ] } },
{ "type": "Feature", "properties": { "内容": "長野赤十字病院　訪問リハビリテーション【訪問リハビリテーション】長野県長野市若里５－２２－１", "url": "https://www.kaigokensaku.mhlw.go.jp/20/index.php?action_kouhyou_detail_004_kani=true&JigyosyoCd=2030127068-00&ServiceCd=140&Type=search", "url2": "http://www.nagano-med.jrc.or.jp/" }, "geometry": { "type": "Point", "coordinates": [ 138.190649399999984, 36.6265385 ] } },
{ "type": "Feature", "properties": { "内容": "訪問リハビリテーションセンターコスモス【訪問リハビリテーション】長野県長野市小島田町449番地介護老人保健施設　コスモスさいなみ", "url": "https://www.kaigokensaku.mhlw.go.jp/20/index.php?action_kouhyou_detail_004_kani=true&JigyosyoCd=2050180120-00&ServiceCd=140&Type=search", "url2": "http://www.cosmosnet.or.jp" }, "geometry": { "type": "Point", "coordinates": [ 138.180732, 36.5955111 ] } },
{ "type": "Feature", "properties": { "内容": "医療法人　和心会　介護老人保健施設　山望苑【訪問リハビリテーション】長野県松本市新村1956-1", "url": "https://www.kaigokensaku.mhlw.go.jp/20/index.php?action_kouhyou_detail_004_kani=true&JigyosyoCd=2050280052-00&ServiceCd=140&Type=search", "url2": "www.washinkai.jp" }, "geometry": { "type": "Point", "coordinates": [ 137.906826700000011, 36.2178578 ] } },
{ "type": "Feature", "properties": { "内容": "介護老人保健施設　つかまの里【訪問リハビリテーション】長野県松本市筑摩3丁目15番31号", "url": "https://www.kaigokensaku.mhlw.go.jp/20/index.php?action_kouhyou_detail_004_kani=true&JigyosyoCd=2070204330-00&ServiceCd=140&Type=search", "url2": "http://www.mhl.janis.or.jp/~kokusai/" }, "geometry": { "type": "Point", "coordinates": [ 137.983011, 36.21974560000001 ] } },
{ "type": "Feature", "properties": { "内容": "松本中川病院【訪問リハビリテーション】長野県松本市野溝西２－３－１６松本中川病院　リハビリテーション科", "url": "https://www.kaigokensaku.mhlw.go.jp/20/index.php?action_kouhyou_detail_004_kani=true&JigyosyoCd=2010218226-00&ServiceCd=140&Type=search", "url2": "http://www.mcci.or.jp/www/mnh2001/" }, "geometry": { "type": "Point", "coordinates": [ 137.954295699999989, 36.2009259 ] } },
{ "type": "Feature", "properties": { "内容": "松本協立病院訪問リハビリセンター【訪問リハビリテーション】長野県松本市巾上9番26号", "url": "https://www.kaigokensaku.mhlw.go.jp/20/index.php?action_kouhyou_detail_004_kani=true&JigyosyoCd=2010217319-00&ServiceCd=140&Type=search", "url2": "http://www.chushin-miniren.gr.jp/consult/clinical_technique/rehabili/" }, "geometry": { "type": "Point", "coordinates": [ 137.963102607409581, 36.229613224633432 ] } },
{ "type": "Feature", "properties": { "内容": "松本市立病院【訪問リハビリテーション】長野県松本市波田4417－180", "url": "https://www.kaigokensaku.mhlw.go.jp/20/index.php?action_kouhyou_detail_004_kani=true&JigyosyoCd=2010218275-00&ServiceCd=140&Type=search", "url2": "http://www.hp-hata.com/" }, "geometry": { "type": "Point", "coordinates": [ 137.854613516532936, 36.198904428933282 ] } },
{ "type": "Feature", "properties": { "内容": "医療法人心泉会上條記念病院【訪問リハビリテーション】長野県松本市村井町西2-16-1", "url": "https://www.kaigokensaku.mhlw.go.jp/20/index.php?action_kouhyou_detail_004_kani=true&JigyosyoCd=2010217335-00&ServiceCd=140&Type=search", "url2": "http://www.kamijyomhp.or.jp/" }, "geometry": { "type": "Point", "coordinates": [ 137.947433, 36.1724485 ] } },
{ "type": "Feature", "properties": { "内容": "社会医療法人財団慈泉会相澤病院【訪問リハビリテーション】長野県松本市本庄2-5-1", "url": "https://www.kaigokensaku.mhlw.go.jp/20/index.php?action_kouhyou_detail_004_kani=true&JigyosyoCd=2010217244-00&ServiceCd=140&Type=search", "url2": "http://www.ai-hosp.or.jp/" }, "geometry": { "type": "Point", "coordinates": [ 137.97366229748377, 36.226730607025083 ] } },
{ "type": "Feature", "properties": { "内容": "医療法人社団英駿会大久保クリニック【訪問リハビリテーション】長野県松本市島内3533", "url": "https://www.kaigokensaku.mhlw.go.jp/20/index.php?action_kouhyou_detail_004_kani=true&JigyosyoCd=2010217533-00&ServiceCd=140&Type=search", "url2": "https://okubo-clinic.wixsite.com/roken-viola" }, "geometry": { "type": "Point", "coordinates": [ 137.946695, 36.2381202 ] } },
{ "type": "Feature", "properties": { "内容": "医療法人藤森病院【訪問リハビリテーション】長野県松本市中央２－９－８", "url": "https://www.kaigokensaku.mhlw.go.jp/20/index.php?action_kouhyou_detail_004_kani=true&JigyosyoCd=2010217103-00&ServiceCd=140&Type=search", "url2": "http://www.fujimori-hosp.jp" }, "geometry": { "type": "Point", "coordinates": [ 137.970748400000048, 36.2332498 ] } },
{ "type": "Feature", "properties": { "内容": "社会医療法人抱生会丸の内病院【訪問リハビリテーション】長野県松本市渚1-7-45", "url": "https://www.kaigokensaku.mhlw.go.jp/20/index.php?action_kouhyou_detail_004_kani=true&JigyosyoCd=2010217236-00&ServiceCd=140&Type=search", "url2": "http://www.marunouchi.or.jp/care/c_index.htm" }, "geometry": { "type": "Point", "coordinates": [ 137.955236199999945, 36.2358069 ] } },
{ "type": "Feature", "properties": { "内容": "梓川診療所【訪問リハビリテーション】長野県松本市梓川梓2344−1", "url": "https://www.kaigokensaku.mhlw.go.jp/20/index.php?action_kouhyou_detail_004_kani=true&JigyosyoCd=2010218077-00&ServiceCd=140&Type=search", "url2": "http://www.azusa-clinic.jp" }, "geometry": { "type": "Point", "coordinates": [ 137.866665499999954, 36.2221614 ] } },
{ "type": "Feature", "properties": { "内容": "医療法人青樹会　一之瀬脳神経外科病院【訪問リハビリテーション】長野県松本市島立2093", "url": "https://www.kaigokensaku.mhlw.go.jp/20/index.php?action_kouhyou_detail_004_kani=true&JigyosyoCd=2010217756-00&ServiceCd=140&Type=search", "url2": null }, "geometry": { "type": "Point", "coordinates": [ 137.937281320762622, 36.22957267049113 ] } },
{ "type": "Feature", "properties": { "内容": "ローズガーデン【訪問リハビリテーション】松本市中山7494-8", "url": "https://www.kaigokensaku.mhlw.go.jp/20/index.php?action_kouhyou_detail_004_kani=true&JigyosyoCd=2050280029-00&ServiceCd=140&Type=search", "url2": "http://www.rosegarden-s.com/" }, "geometry": { "type": "Point", "coordinates": [ 138.00404, 36.1715842 ] } },
{ "type": "Feature", "properties": { "内容": "介護老人保健施設ハーモニー（訪問リハビリテーションハーモニー）【訪問リハビリテーション】長野県松本市大字島内字広田４０６４番地２", "url": "https://www.kaigokensaku.mhlw.go.jp/20/index.php?action_kouhyou_detail_004_kani=true&JigyosyoCd=2050280045-00&ServiceCd=140&Type=search", "url2": "http://www.harmony-matsumoto.or.jp" }, "geometry": { "type": "Point", "coordinates": [ 137.947514, 36.242589 ] } },
{ "type": "Feature", "properties": { "内容": "きらり在宅診療所【訪問リハビリテーション】長野県上田市天神2-1-22OAUビル5F-B", "url": "https://www.kaigokensaku.mhlw.go.jp/20/index.php?action_kouhyou_detail_004_kani=true&JigyosyoCd=2010318216-00&ServiceCd=140&Type=search", "url2": "https://kirari-zaitaku.jp/" }, "geometry": { "type": "Point", "coordinates": [ 138.246368100000012, 36.3998973 ] } },
{ "type": "Feature", "properties": { "内容": "上田生協診療所【訪問リハビリテーション】長野県上田市上塩尻３９３－１", "url": "https://www.kaigokensaku.mhlw.go.jp/20/index.php?action_kouhyou_detail_004_kani=true&JigyosyoCd=2010317267-00&ServiceCd=140&Type=search", "url2": "http://www.toshin-iryou.com/" }, "geometry": { "type": "Point", "coordinates": [ 138.221453633204675, 36.414826126874566 ] } },
{ "type": "Feature", "properties": { "内容": "さなだクリニック【訪問リハビリテーション】長野県上田市真田町長３９０８番地１", "url": "https://www.kaigokensaku.mhlw.go.jp/20/index.php?action_kouhyou_detail_004_kani=true&JigyosyoCd=2010317770-00&ServiceCd=140&Type=search", "url2": null }, "geometry": { "type": "Point", "coordinates": [ 138.321149500000047, 36.4473682 ] } },
{ "type": "Feature", "properties": { "内容": "うえだはらライフクリニック　訪問リハビリテーション【訪問リハビリテーション】長野県上田市上田原1053-1", "url": "https://www.kaigokensaku.mhlw.go.jp/20/index.php?action_kouhyou_detail_004_kani=true&JigyosyoCd=2010317663-00&ServiceCd=140&Type=search", "url2": "http://www.keiroen.or.jp" }, "geometry": { "type": "Point", "coordinates": [ 138.228607799999963, 36.3879795 ] } },
{ "type": "Feature", "properties": { "内容": "長野県厚生農業協同組合連合会鹿教湯三才山リハビリテーションセンター鹿教湯病院附属豊殿診療所【訪問リハビリテーション】長野県上田市殿城神林250-4", "url": "https://www.kaigokensaku.mhlw.go.jp/20/index.php?action_kouhyou_detail_004_kani=true&JigyosyoCd=2010317614-00&ServiceCd=140&Type=search", "url2": "https://km-rehacenter.jp/" }, "geometry": { "type": "Point", "coordinates": [ 138.300473099999977, 36.4030618 ] } },
{ "type": "Feature", "properties": { "内容": "長野県厚生農業協同組合連合会鹿教湯三才山リハビリテーションセンター鹿教湯病院【訪問リハビリテーション】長野県上田市鹿教湯温泉１３０８", "url": "https://www.kaigokensaku.mhlw.go.jp/20/index.php?action_kouhyou_detail_004_kani=true&JigyosyoCd=2010317713-00&ServiceCd=140&Type=search", "url2": "http://km-rehacenter.jp/" }, "geometry": { "type": "Point", "coordinates": [ 138.135960800000021, 36.3023543 ] } },
{ "type": "Feature", "properties": { "内容": "柳澤病院【訪問リハビリテーション】長野県上田市中央西1-2-10", "url": "https://www.kaigokensaku.mhlw.go.jp/20/index.php?action_kouhyou_detail_004_kani=true&JigyosyoCd=2010317069-00&ServiceCd=140&Type=search", "url2": "http://kenkyukai.or.jp/" }, "geometry": { "type": "Point", "coordinates": [ 138.248274700000024, 36.4053001 ] } },
{ "type": "Feature", "properties": { "内容": "医療法人健静会上田病院【訪問リハビリテーション】長野県上田市中央１丁目３番３号", "url": "https://www.kaigokensaku.mhlw.go.jp/20/index.php?action_kouhyou_detail_004_kani=true&JigyosyoCd=2010317077-00&ServiceCd=140&Type=search", "url2": "http://www.ueda-hp.or.jp/" }, "geometry": { "type": "Point", "coordinates": [ 138.251572200000027, 36.3984869 ] } },
{ "type": "Feature", "properties": { "内容": "丸子中央病院【訪問リハビリテーション】長野県上田市中丸子1771番地1", "url": "https://www.kaigokensaku.mhlw.go.jp/20/index.php?action_kouhyou_detail_004_kani=true&JigyosyoCd=2010317689-00&ServiceCd=140&Type=search", "url2": "http://maruko-hp.jp/" }, "geometry": { "type": "Point", "coordinates": [ 138.270923700000026, 36.3264349 ] } },
{ "type": "Feature", "properties": { "内容": "安藤病院【訪問リハビリテーション】長野県上田市中央西1-1-20", "url": "https://www.kaigokensaku.mhlw.go.jp/20/index.php?action_kouhyou_detail_004_kani=true&JigyosyoCd=2010317085-00&ServiceCd=140&Type=search", "url2": "http://www.ando-hp.com/" }, "geometry": { "type": "Point", "coordinates": [ 138.249394100000018, 36.4053862 ] } },
{ "type": "Feature", "properties": { "内容": "御所苑【訪問リハビリテーション】長野県上田市御所666番地", "url": "https://www.kaigokensaku.mhlw.go.jp/20/index.php?action_kouhyou_detail_004_kani=true&JigyosyoCd=2050380027-00&ServiceCd=140&Type=search", "url2": "https://gosyoen.maruyamakai.jp/" }, "geometry": { "type": "Point", "coordinates": [ 138.234067699999969, 36.3987202 ] } },
{ "type": "Feature", "properties": { "内容": "介護老人保健施設チェリーガーデン【訪問リハビリテーション】長野県上田市保野７１０番地", "url": "https://www.kaigokensaku.mhlw.go.jp/20/index.php?action_kouhyou_detail_004_kani=true&JigyosyoCd=2050380043-00&ServiceCd=140&Type=search", "url2": "http://www.koujin-kai.or.jp" }, "geometry": { "type": "Point", "coordinates": [ 138.192703099999989, 36.374703 ] } },
{ "type": "Feature", "properties": { "内容": "ケアホーム上田【訪問リハビリテーション】長野県上田市中野29番地2", "url": "https://www.kaigokensaku.mhlw.go.jp/20/index.php?action_kouhyou_detail_004_kani=true&JigyosyoCd=2050380019-00&ServiceCd=140&Type=search", "url2": "https://shioda-hp.jp/" }, "geometry": { "type": "Point", "coordinates": [ 138.1981218, 36.3603141 ] } },
{ "type": "Feature", "properties": { "内容": "岡谷市民病院【訪問リハビリテーション】長野県岡谷市本町四丁目11番33号", "url": "https://www.kaigokensaku.mhlw.go.jp/20/index.php?action_kouhyou_detail_004_kani=true&JigyosyoCd=2010417026-00&ServiceCd=140&Type=search", "url2": "https://www.okaya-hosp.jp" }, "geometry": { "type": "Point", "coordinates": [ 138.04700659615628, 36.065449090413317 ] } },
{ "type": "Feature", "properties": { "内容": "つるみね共立診療所【訪問リハビリテーション】長野県岡谷市川岸上1-22-21", "url": "https://www.kaigokensaku.mhlw.go.jp/20/index.php?action_kouhyou_detail_004_kani=true&JigyosyoCd=2010417075-00&ServiceCd=140&Type=search", "url2": "http://www.skhp.or.jp/tsurumine/" }, "geometry": { "type": "Point", "coordinates": [ 138.0339756, 36.0539124 ] } },
{ "type": "Feature", "properties": { "内容": "諏訪湖畔病院【訪問リハビリテーション】長野県岡谷市長地小萩１－１１－３０", "url": "https://www.kaigokensaku.mhlw.go.jp/20/index.php?action_kouhyou_detail_004_kani=true&JigyosyoCd=2010417067-00&ServiceCd=140&Type=search", "url2": "http://www.kensei-kai.jp/" }, "geometry": { "type": "Point", "coordinates": [ 138.055519, 36.0808878 ] } },
{ "type": "Feature", "properties": { "内容": "飯田市立病院介護老人保健施設【訪問リハビリテーション】長野県飯田市上郷黒田341番地", "url": "https://www.kaigokensaku.mhlw.go.jp/20/index.php?action_kouhyou_detail_004_kani=true&JigyosyoCd=2070502196-00&ServiceCd=140&Type=search", "url2": "https://www.imh.jp/section/yuuyuu" }, "geometry": { "type": "Point", "coordinates": [ 137.84018938598328, 35.517842328022795 ] } },
{ "type": "Feature", "properties": { "内容": "介護老人保健施設　千年の緑【訪問リハビリテーション】長野県飯田市鼎中平２２５８", "url": "https://www.kaigokensaku.mhlw.go.jp/20/index.php?action_kouhyou_detail_004_kani=true&JigyosyoCd=2070501610-00&ServiceCd=140&Type=search", "url2": "https://sennen.suganumahp.or.jp/" }, "geometry": { "type": "Point", "coordinates": [ 137.826259107687349, 35.508083693919943 ] } },
{ "type": "Feature", "properties": { "内容": "飯田市立病院【訪問リハビリテーション】長野県飯田市八幡町４３８番地", "url": "https://www.kaigokensaku.mhlw.go.jp/20/index.php?action_kouhyou_detail_004_kani=true&JigyosyoCd=2010517023-00&ServiceCd=140&Type=search", "url2": "http://www.imh.jp" }, "geometry": { "type": "Point", "coordinates": [ 137.836112800000024, 35.4993106 ] } },
{ "type": "Feature", "properties": { "内容": "健和会病院【訪問リハビリテーション】長野県飯田市鼎中平１９３６", "url": "https://www.kaigokensaku.mhlw.go.jp/20/index.php?action_kouhyou_detail_004_kani=true&JigyosyoCd=2010517205-00&ServiceCd=140&Type=search", "url2": "http://www.kenwakai.or.jp/" }, "geometry": { "type": "Point", "coordinates": [ 137.825041199999987, 35.5054067 ] } },
{ "type": "Feature", "properties": { "内容": "飯田病院附属仲ノ町診療所　訪問リハビリテーション【訪問リハビリテーション】長野県飯田市仲ノ町1丁目2番地ウェルネスタウン丘の上", "url": "https://www.kaigokensaku.mhlw.go.jp/20/index.php?action_kouhyou_detail_004_kani=true&JigyosyoCd=2010517726-00&ServiceCd=140&Type=search", "url2": "http:iidahp-okanoue.com/" }, "geometry": { "type": "Point", "coordinates": [ 137.8289936, 35.5166655 ] } },
{ "type": "Feature", "properties": { "内容": "輝山会記念病院【訪問リハビリテーション】長野県飯田市毛賀1707番地", "url": "https://www.kaigokensaku.mhlw.go.jp/20/index.php?action_kouhyou_detail_004_kani=true&JigyosyoCd=2010517296-00&ServiceCd=140&Type=search", "url2": "http://www.kizankai.or.jp" }, "geometry": { "type": "Point", "coordinates": [ 137.84172639999997, 35.476742100000024 ] } },
{ "type": "Feature", "properties": { "内容": "介護老人保健施設万年青苑【訪問リハビリテーション】長野県飯田市毛賀1707番地", "url": "https://www.kaigokensaku.mhlw.go.jp/20/index.php?action_kouhyou_detail_004_kani=true&JigyosyoCd=2050580030-00&ServiceCd=140&Type=search", "url2": "http://www.kizankai.or.jp/omoto/index.html" }, "geometry": { "type": "Point", "coordinates": [ 137.8417264, 35.4767421 ] } },
{ "type": "Feature", "properties": { "内容": "介護老人保健施設かりんの里【訪問リハビリテーション】諏訪市湖岸通り5-11-5", "url": "https://www.kaigokensaku.mhlw.go.jp/20/index.php?action_kouhyou_detail_004_kani=true&JigyosyoCd=2050680012-00&ServiceCd=140&Type=search", "url2": "http://suwafukushi.com/" }, "geometry": { "type": "Point", "coordinates": [ 138.109298599999988, 36.0421328 ] } },
{ "type": "Feature", "properties": { "内容": "訪問リハビリテーション掬水【訪問リハビリテーション】長野県諏訪市豊田８３７－１", "url": "https://www.kaigokensaku.mhlw.go.jp/20/index.php?action_kouhyou_detail_004_kani=true&JigyosyoCd=2050680038-00&ServiceCd=140&Type=search", "url2": "http://www.heisei-kai.jp" }, "geometry": { "type": "Point", "coordinates": [ 138.0953836, 36.0324476 ] } },
{ "type": "Feature", "properties": { "内容": "医療法人清風会宮坂医院【訪問リハビリテーション】長野県諏訪市元町4-10", "url": "https://www.kaigokensaku.mhlw.go.jp/20/index.php?action_kouhyou_detail_004_kani=true&JigyosyoCd=2010617229-00&ServiceCd=140&Type=search", "url2": "http://www.lcv.ne.jp/~hartcare" }, "geometry": { "type": "Point", "coordinates": [ 138.123541899999964, 36.0392947 ] } },
{ "type": "Feature", "properties": { "内容": "医療法人かりん会きみづか整形外科【訪問リハビリテーション】長野県諏訪市上川3丁目2343", "url": "https://www.kaigokensaku.mhlw.go.jp/20/index.php?action_kouhyou_detail_004_kani=true&JigyosyoCd=2010617385-00&ServiceCd=140&Type=search", "url2": "https://kimizuka-seikei.com" }, "geometry": { "type": "Point", "coordinates": [ 138.11881790000001, 36.0286854 ] } },
{ "type": "Feature", "properties": { "内容": "老人保健施設みづうみ【訪問リハビリテーション】長野県諏訪市豊田2400番地9", "url": "https://www.kaigokensaku.mhlw.go.jp/20/index.php?action_kouhyou_detail_004_kani=true&JigyosyoCd=2050680046-00&ServiceCd=140&Type=search", "url2": "https://fujimihp.com/facility/老人保健施設みづうみ" }, "geometry": { "type": "Point", "coordinates": [ 138.081508784655711, 36.029303923387197 ] } },
{ "type": "Feature", "properties": { "内容": "長野県立信州医療センター【訪問リハビリテーション】長野県須坂市大字須坂１３３２", "url": "https://www.kaigokensaku.mhlw.go.jp/20/index.php?action_kouhyou_detail_004_kani=true&JigyosyoCd=2010716013-00&ServiceCd=140&Type=search", "url2": "https://shinshumedicalcenter.jp/" }, "geometry": { "type": "Point", "coordinates": [ 138.309263699999974, 36.6539804 ] } },
{ "type": "Feature", "properties": { "内容": "やすらぎクリニック須坂【訪問リハビリテーション】長野県須坂市大字日滝字寺窪2887-1", "url": "https://www.kaigokensaku.mhlw.go.jp/20/index.php?action_kouhyou_detail_004_kani=true&JigyosyoCd=2010717268-00&ServiceCd=140&Type=search", "url2": "https://suzaka-yasuraginosono.com/index/" }, "geometry": { "type": "Point", "coordinates": [ 138.328281, 36.671037 ] } },
{ "type": "Feature", "properties": { "内容": "医療法人公仁会轟病院【訪問リハビリテーション】長野県須坂市大字須坂1239番地", "url": "https://www.kaigokensaku.mhlw.go.jp/20/index.php?action_kouhyou_detail_004_kani=true&JigyosyoCd=2010717052-00&ServiceCd=140&Type=search", "url2": "http://www.todoroki-h.com" }, "geometry": { "type": "Point", "coordinates": [ 138.3084416, 36.657677099999987 ] } },
{ "type": "Feature", "properties": { "内容": "ウィングラス【訪問リハビリテーション】長野県須坂市大字仁礼７番地１０", "url": "https://www.kaigokensaku.mhlw.go.jp/20/index.php?action_kouhyou_detail_004_kani=true&JigyosyoCd=2050780028-00&ServiceCd=140&Type=search", "url2": "http://www.greenarum.jp" }, "geometry": { "type": "Point", "coordinates": [ 138.338664699999981, 36.6137439 ] } },
{ "type": "Feature", "properties": { "内容": "訪問リハビリテーション事業所しののめの里【訪問リハビリテーション】長野県小諸市東雲5-8-1", "url": "https://www.kaigokensaku.mhlw.go.jp/20/index.php?action_kouhyou_detail_004_kani=true&JigyosyoCd=2050880034-00&ServiceCd=140&Type=search", "url2": "http//www.sinonomenosato.com" }, "geometry": { "type": "Point", "coordinates": [ 138.4404329, 36.3333351 ] } },
{ "type": "Feature", "properties": { "内容": "介護老人保健施設メディトピア小諸【訪問リハビリテーション】長野県小諸市大字諸351番地", "url": "https://www.kaigokensaku.mhlw.go.jp/20/index.php?action_kouhyou_detail_004_kani=true&JigyosyoCd=2050880026-00&ServiceCd=140&Type=search", "url2": "http://www.yanagibashi.or.jp" }, "geometry": { "type": "Point", "coordinates": [ 138.412154399999963, 36.3389141 ] } },
{ "type": "Feature", "properties": { "内容": "老人保健施設こまくさ【訪問リハビリテーション】長野県小諸市南町２－２－２７", "url": "https://www.kaigokensaku.mhlw.go.jp/20/index.php?action_kouhyou_detail_004_kani=true&JigyosyoCd=2050880018-00&ServiceCd=140&Type=search", "url2": "http://komoro-mc.com" }, "geometry": { "type": "Point", "coordinates": [ 138.427819, 36.3230586 ] } },
{ "type": "Feature", "properties": { "内容": "介護老人保健施設みぶの里（訪問リハビリテーション）【訪問リハビリテーション】長野県伊那市美篶5324-1複合福祉施設みぶの里", "url": "https://www.kaigokensaku.mhlw.go.jp/20/index.php?action_kouhyou_detail_004_kani=true&JigyosyoCd=2050980040-00&ServiceCd=140&Type=search", "url2": "https://s-sawayaka.or.jp" }, "geometry": { "type": "Point", "coordinates": [ 138.006595054708896, 35.832564654374011 ] } },
{ "type": "Feature", "properties": { "内容": "老人保健施設すずたけ【訪問リハビリテーション】長野県伊那市美篶７７９２番地３", "url": "https://www.kaigokensaku.mhlw.go.jp/20/index.php?action_kouhyou_detail_004_kani=true&JigyosyoCd=2050980032-00&ServiceCd=140&Type=search", "url2": null }, "geometry": { "type": "Point", "coordinates": [ 138.001780899999972, 35.8427713 ] } },
{ "type": "Feature", "properties": { "内容": "富士見高原医療福祉センター西箕輪診療所【訪問リハビリテーション】長野県伊那市西箕輪6700-2", "url": "https://www.kaigokensaku.mhlw.go.jp/20/index.php?action_kouhyou_detail_004_kani=true&JigyosyoCd=2010917546-00&ServiceCd=140&Type=search", "url2": "http://www.fujimihp.com/" }, "geometry": { "type": "Point", "coordinates": [ 137.9280516, 35.8758242 ] } },
{ "type": "Feature", "properties": { "内容": "老人保健施設はびろの里【訪問リハビリテーション】長野県伊那市西箕輪２７５８－１", "url": "https://www.kaigokensaku.mhlw.go.jp/20/index.php?action_kouhyou_detail_004_kani=true&JigyosyoCd=2070900853-00&ServiceCd=140&Type=search", "url2": "https://www.kamiina-mcoop.com/habiro-page/habiro-home" }, "geometry": { "type": "Point", "coordinates": [ 137.924805, 35.888089 ] } },
{ "type": "Feature", "properties": { "内容": "介護老人保健施設エーデルこまがね【訪問リハビリテーション】駒ヶ根市赤穂１４４２１番地１", "url": "https://www.kaigokensaku.mhlw.go.jp/20/index.php?action_kouhyou_detail_004_kani=true&JigyosyoCd=2051080022-00&ServiceCd=140&Type=search", "url2": "https://care-net.biz/20/edel-komagane/" }, "geometry": { "type": "Point", "coordinates": [ 137.95070039999996, 35.7181107 ] } },
{ "type": "Feature", "properties": { "内容": "すずらん訪問リハビリテーション【訪問リハビリテーション】長野県駒ヶ根市赤穂14632-4", "url": "https://www.kaigokensaku.mhlw.go.jp/20/index.php?action_kouhyou_detail_004_kani=true&JigyosyoCd=2011017213-00&ServiceCd=140&Type=search", "url2": "http://suzuran-maeyama.com/" }, "geometry": { "type": "Point", "coordinates": [ 137.94165, 35.742503800000023 ] } },
{ "type": "Feature", "properties": { "内容": "駒ヶ根高原レディスクリニック【訪問リハビリテーション】長野県駒ヶ根市赤穂759-195", "url": "https://www.kaigokensaku.mhlw.go.jp/20/index.php?action_kouhyou_detail_004_kani=true&JigyosyoCd=2011017270-00&ServiceCd=140&Type=search", "url2": "http://www.kklc.jp/" }, "geometry": { "type": "Point", "coordinates": [ 137.888538499999981, 35.7439974 ] } },
{ "type": "Feature", "properties": { "内容": "昭和伊南総合病院【訪問リハビリテーション】長野県駒ヶ根市赤穂3230番地", "url": "https://www.kaigokensaku.mhlw.go.jp/20/index.php?action_kouhyou_detail_004_kani=true&JigyosyoCd=2011017080-00&ServiceCd=140&Type=search", "url2": "http://www.sihp.jp" }, "geometry": { "type": "Point", "coordinates": [ 137.920042599999988, 35.7377304 ] } },
{ "type": "Feature", "properties": { "内容": "秋城医院【訪問リハビリテーション】長野県駒ヶ根市赤穂9870番地秋城医院", "url": "https://www.kaigokensaku.mhlw.go.jp/20/index.php?action_kouhyou_detail_004_kani=true&JigyosyoCd=2011017221-00&ServiceCd=140&Type=search", "url2": null }, "geometry": { "type": "Point", "coordinates": [ 137.93335780000001, 35.7141041 ] } },
{ "type": "Feature", "properties": { "内容": "老人保健施設フラワーハイツ【訪問リハビリテーション】長野県駒ヶ根市赤穂３２４９番地４", "url": "https://www.kaigokensaku.mhlw.go.jp/20/index.php?action_kouhyou_detail_004_kani=true&JigyosyoCd=2051080014-00&ServiceCd=140&Type=search", "url2": "http://inanfukushi.or.jp/" }, "geometry": { "type": "Point", "coordinates": [ 137.919810900000016, 35.7369844 ] } },
{ "type": "Feature", "properties": { "内容": "北信総合病院老人保健施設もえぎ【訪問リハビリテーション】長野県中野市吉田123-1", "url": "https://www.kaigokensaku.mhlw.go.jp/20/index.php?action_kouhyou_detail_004_kani=true&JigyosyoCd=2051180012-00&ServiceCd=140&Type=search", "url2": "http://www.hokushin-hosp.jp/" }, "geometry": { "type": "Point", "coordinates": [ 138.351885900000013, 36.752631 ] } },
{ "type": "Feature", "properties": { "内容": "北信総合病院【訪問リハビリテーション】長野県中野市西一丁目５番６３号", "url": "https://www.kaigokensaku.mhlw.go.jp/20/index.php?action_kouhyou_detail_004_kani=true&JigyosyoCd=2011117047-00&ServiceCd=140&Type=search", "url2": "http://www.hokushin-hosp.jp/" }, "geometry": { "type": "Point", "coordinates": [ 138.366289400000028, 36.7469184 ] } },
{ "type": "Feature", "properties": { "内容": "市立大町総合病院【訪問リハビリテーション】長野県大町市大町3130番地", "url": "https://www.kaigokensaku.mhlw.go.jp/20/index.php?action_kouhyou_detail_004_kani=true&JigyosyoCd=2011217029-00&ServiceCd=140&Type=search", "url2": "https://www.omachi-hospital.jp/" }, "geometry": { "type": "Point", "coordinates": [ 137.857565900000054, 36.5010627 ] } },
{ "type": "Feature", "properties": { "内容": "飯山赤十字病院【訪問リハビリテーション】長野県飯山市大字飯山２２６－１", "url": "https://www.kaigokensaku.mhlw.go.jp/20/index.php?action_kouhyou_detail_004_kani=true&JigyosyoCd=2011317035-00&ServiceCd=140&Type=search", "url2": "http://www.iiyama.jrc.or.jp" }, "geometry": { "type": "Point", "coordinates": [ 138.361981900000046, 36.8447535 ] } },
{ "type": "Feature", "properties": { "内容": "組合立諏訪中央病院【訪問リハビリテーション】長野県茅野市玉川4300番地", "url": "https://www.kaigokensaku.mhlw.go.jp/20/index.php?action_kouhyou_detail_004_kani=true&JigyosyoCd=2011417017-00&ServiceCd=140&Type=search", "url2": "http://www.suwachuo.jp/" }, "geometry": { "type": "Point", "coordinates": [ 138.176958300000024, 35.9910467 ] } },
{ "type": "Feature", "properties": { "内容": "訪問リハビリテーション　虹の森【訪問リハビリテーション】長野県茅野市ちの3094-6", "url": "https://www.kaigokensaku.mhlw.go.jp/20/index.php?action_kouhyou_detail_004_kani=true&JigyosyoCd=2071401133-00&ServiceCd=140&Type=search", "url2": "https://www.komakusa.or.jp" }, "geometry": { "type": "Point", "coordinates": [ 138.150389211639407, 35.993536674059776 ] } },
{ "type": "Feature", "properties": { "内容": "塩尻協立病院【訪問リハビリテーション】長野県塩尻市桟敷437", "url": "https://www.kaigokensaku.mhlw.go.jp/20/index.php?action_kouhyou_detail_004_kani=true&JigyosyoCd=2011517154-00&ServiceCd=140&Type=search", "url2": "http://www.chushin-miniren.gr.jp/shiojiri/" }, "geometry": { "type": "Point", "coordinates": [ 137.969147600000042, 36.1143145 ] } },
{ "type": "Feature", "properties": { "内容": "塩尻病院【訪問リハビリテーション】長野県塩尻市大門六番町４－３６", "url": "https://www.kaigokensaku.mhlw.go.jp/20/index.php?action_kouhyou_detail_004_kani=true&JigyosyoCd=2011517048-00&ServiceCd=140&Type=search", "url2": "http://www.komorebi.or.jp/" }, "geometry": { "type": "Point", "coordinates": [ 137.95480008161465, 36.114534178262971 ] } },
{ "type": "Feature", "properties": { "内容": "社会医療法人財団慈泉会地域在宅医療支援センター塩尻診療所【訪問リハビリテーション】長野県塩尻市大門79-2", "url": "https://www.kaigokensaku.mhlw.go.jp/20/index.php?action_kouhyou_detail_004_kani=true&JigyosyoCd=2011517261-00&ServiceCd=140&Type=search", "url2": "http://www.ai-hosp.or.jp/shinryo/a_center_2.html" }, "geometry": { "type": "Point", "coordinates": [ 137.94618401509706, 36.119229485466867 ] } },
{ "type": "Feature", "properties": { "内容": "桔梗ヶ原病院【訪問リハビリテーション】長野県塩尻市宗賀1295番地", "url": "https://www.kaigokensaku.mhlw.go.jp/20/index.php?action_kouhyou_detail_004_kani=true&JigyosyoCd=2011517147-00&ServiceCd=140&Type=search", "url2": "http://www.keijin-kai.jp/" }, "geometry": { "type": "Point", "coordinates": [ 137.933108523942565, 36.111148071599331 ] } },
{ "type": "Feature", "properties": { "内容": "金澤病院　訪問リハビリテーション【訪問リハビリテーション】長野県佐久市岩村田　804", "url": "https://www.kaigokensaku.mhlw.go.jp/20/index.php?action_kouhyou_detail_004_kani=true&JigyosyoCd=2011717077-00&ServiceCd=140&Type=search", "url2": null }, "geometry": { "type": "Point", "coordinates": [ 138.478702, 36.2724634 ] } },
{ "type": "Feature", "properties": { "内容": "佐久総合病院老人保健施設【訪問リハビリテーション】佐久市臼田779番地4", "url": "https://www.kaigokensaku.mhlw.go.jp/20/index.php?action_kouhyou_detail_004_kani=true&JigyosyoCd=2052080013-00&ServiceCd=140&Type=search", "url2": null }, "geometry": { "type": "Point", "coordinates": [ 138.477873499999987, 36.2078924 ] } },
{ "type": "Feature", "properties": { "内容": "くろさわ病院【訪問リハビリテーション】長野県佐久市中込1丁目１7番8号", "url": "https://www.kaigokensaku.mhlw.go.jp/20/index.php?action_kouhyou_detail_004_kani=true&JigyosyoCd=2011717150-00&ServiceCd=140&Type=search", "url2": "http;//keijinnet.or.jp/" }, "geometry": { "type": "Point", "coordinates": [ 138.477767200000017, 36.2268593 ] } },
{ "type": "Feature", "properties": { "内容": "佐久総合病院【訪問リハビリテーション】佐久市臼田197番地", "url": "https://www.kaigokensaku.mhlw.go.jp/20/index.php?action_kouhyou_detail_004_kani=true&JigyosyoCd=2011717283-00&ServiceCd=140&Type=search", "url2": "https://sakuhp.or.jp/" }, "geometry": { "type": "Point", "coordinates": [ 138.4810324, 36.1981654 ] } },
{ "type": "Feature", "properties": { "内容": "医療法人雨宮病院　訪問リハビリテーション【訪問リハビリテーション】長野県佐久市下小田切城下73", "url": "https://www.kaigokensaku.mhlw.go.jp/20/index.php?action_kouhyou_detail_004_kani=true&JigyosyoCd=2011717291-00&ServiceCd=140&Type=search", "url2": "http://www.amemiya.or.jp/" }, "geometry": { "type": "Point", "coordinates": [ 138.4791404, 36.1921826 ] } },
{ "type": "Feature", "properties": { "内容": "川西赤十字病院【訪問リハビリテーション】長野県佐久市望月318", "url": "https://www.kaigokensaku.mhlw.go.jp/20/index.php?action_kouhyou_detail_004_kani=true&JigyosyoCd=2011717325-00&ServiceCd=140&Type=search", "url2": "https://kawanishi.jrc.or.jp" }, "geometry": { "type": "Point", "coordinates": [ 138.3586253, 36.2654865 ] } },
{ "type": "Feature", "properties": { "内容": "佐久市立国保浅間総合病院【訪問リハビリテーション】長野県佐久市岩村田１８６２-１", "url": "https://www.kaigokensaku.mhlw.go.jp/20/index.php?action_kouhyou_detail_004_kani=true&JigyosyoCd=2011717341-00&ServiceCd=140&Type=search", "url2": "http://www.asamaghp.jp/" }, "geometry": { "type": "Point", "coordinates": [ 138.468855599999983, 36.2700967 ] } },
{ "type": "Feature", "properties": { "内容": "千曲中央病院【訪問リハビリテーション】長野県千曲市大字杭瀬下５８", "url": "https://www.kaigokensaku.mhlw.go.jp/20/index.php?action_kouhyou_detail_004_kani=true&JigyosyoCd=2011817026-00&ServiceCd=140&Type=search", "url2": "http://chikuma-chp.com" }, "geometry": { "type": "Point", "coordinates": [ 138.122942128619343, 36.530230379332401 ] } },
{ "type": "Feature", "properties": { "内容": "長野寿光会上山田病院【訪問リハビリテーション】長野県千曲市上山田温泉３丁目３４番地３号", "url": "https://www.kaigokensaku.mhlw.go.jp/20/index.php?action_kouhyou_detail_004_kani=true&JigyosyoCd=2011817174-00&ServiceCd=140&Type=search", "url2": "https://naganojukoukai.com/" }, "geometry": { "type": "Point", "coordinates": [ 138.1457762, 36.4763867 ] } },
{ "type": "Feature", "properties": { "内容": "東御市民病院訪問リハビリテーション【訪問リハビリテーション】長野県東御市鞍掛198", "url": "https://www.kaigokensaku.mhlw.go.jp/20/index.php?action_kouhyou_detail_004_kani=true&JigyosyoCd=2011917123-00&ServiceCd=140&Type=search", "url2": "https://hospital.city.tomi.nagano.jp/simin/" }, "geometry": { "type": "Point", "coordinates": [ 138.350106912303175, 36.359801543882689 ] } },
{ "type": "Feature", "properties": { "内容": "医療法人仁雄会　穂高病院【訪問リハビリテーション】長野県安曇野市穂高４６３４番地", "url": "https://www.kaigokensaku.mhlw.go.jp/20/index.php?action_kouhyou_detail_004_kani=true&JigyosyoCd=2014017152-00&ServiceCd=140&Type=search", "url2": "http://www.hotaka-hospital.or.jp" }, "geometry": { "type": "Point", "coordinates": [ 137.887836950262454, 36.341594667612881 ] } },
{ "type": "Feature", "properties": { "内容": "老人保健施設あずみの里【訪問リハビリテーション】長野県安曇野市豊科高家5285-11", "url": "https://www.kaigokensaku.mhlw.go.jp/20/index.php?action_kouhyou_detail_004_kani=true&JigyosyoCd=2052880032-00&ServiceCd=140&Type=search", "url2": "http://www.kyouritsu-fukushikai.com/" }, "geometry": { "type": "Point", "coordinates": [ 137.916125599999987, 36.247394 ] } },
{ "type": "Feature", "properties": { "内容": "佐久総合病院老人保健施設こうみ【訪問リハビリテーション】長野県南佐久郡小海町大字小海4487-1", "url": "https://www.kaigokensaku.mhlw.go.jp/20/index.php?action_kouhyou_detail_004_kani=true&JigyosyoCd=2052080039-00&ServiceCd=140&Type=search", "url2": "http://www.sakuhp.or.jp/ja/related/002174.html" }, "geometry": { "type": "Point", "coordinates": [ 138.4844675, 36.0864055 ] } },
{ "type": "Feature", "properties": { "内容": "佐久穂町立千曲病院【訪問リハビリテーション】長野県南佐久郡佐久穂町大字高野町３２８番地", "url": "https://www.kaigokensaku.mhlw.go.jp/20/index.php?action_kouhyou_detail_004_kani=true&JigyosyoCd=2012017238-00&ServiceCd=140&Type=search", "url2": "http://www.chikumahospital.jp" }, "geometry": { "type": "Point", "coordinates": [ 138.477405299999987, 36.1618921 ] } },
{ "type": "Feature", "properties": { "内容": "軽井沢町国民健康保険軽井沢病院【訪問リハビリテーション】長野県北佐久郡軽井沢町大字長倉２３７５番地１", "url": "https://www.kaigokensaku.mhlw.go.jp/20/index.php?action_kouhyou_detail_004_kani=true&JigyosyoCd=2012117012-00&ServiceCd=140&Type=search", "url2": "http://www.karuizawahospital.jp/" }, "geometry": { "type": "Point", "coordinates": [ 138.5983493, 36.3485874 ] } },
{ "type": "Feature", "properties": { "内容": "国民健康保険依田窪病院【訪問リハビリテーション】長野県小県郡長和町古町2857", "url": "https://www.kaigokensaku.mhlw.go.jp/20/index.php?action_kouhyou_detail_004_kani=true&JigyosyoCd=2012217358-00&ServiceCd=140&Type=search", "url2": "http://www.yodakubo-hp.jp/" }, "geometry": { "type": "Point", "coordinates": [ 138.265865705557189, 36.27335486094627 ] } },
{ "type": "Feature", "properties": { "内容": "諏訪共立病院【訪問リハビリテーション】長野県諏訪郡下諏訪町矢木町214", "url": "https://www.kaigokensaku.mhlw.go.jp/20/index.php?action_kouhyou_detail_004_kani=true&JigyosyoCd=2012317091-00&ServiceCd=140&Type=search", "url2": "http://www.skhp.or.jp/" }, "geometry": { "type": "Point", "coordinates": [ 138.081826299999989, 36.0772919 ] } },
{ "type": "Feature", "properties": { "内容": "老人保健施設あららぎ【訪問リハビリテーション】長野県諏訪郡富士見町落合11106-1", "url": "https://www.kaigokensaku.mhlw.go.jp/20/index.php?action_kouhyou_detail_004_kani=true&JigyosyoCd=2052380017-00&ServiceCd=140&Type=search", "url2": "https://fujimihp.com/facility/%e8%80%81%e4%ba%ba%e4%bf%9d%e5%81%a5%e6%96%bd%e8%a8%ad%e3%81%82%e3%82%89%e3%82%89%e3%81%8e/" }, "geometry": { "type": "Point", "coordinates": [ 138.244034400000032, 35.9150076 ] } },
{ "type": "Feature", "properties": { "内容": "老人保健施設さくらの【訪問リハビリテーション】諏訪郡原村13220-1", "url": "https://www.kaigokensaku.mhlw.go.jp/20/index.php?action_kouhyou_detail_004_kani=true&JigyosyoCd=2052300015-00&ServiceCd=140&Type=search", "url2": "http://fujimihp.com/" }, "geometry": { "type": "Point", "coordinates": [ 138.236942764956666, 35.956298484163803 ] } },
{ "type": "Feature", "properties": { "内容": "町立辰野病院【訪問リハビリテーション】長野県上伊那郡辰野町大字辰野１４４５番地５", "url": "https://www.kaigokensaku.mhlw.go.jp/20/index.php?action_kouhyou_detail_004_kani=true&JigyosyoCd=2012417354-00&ServiceCd=140&Type=search", "url2": "http://hosp.town.tatsuno.nagano.jp/" }, "geometry": { "type": "Point", "coordinates": [ 137.991384545199622, 35.984156834299561 ] } },
{ "type": "Feature", "properties": { "内容": "両小野診療所【訪問リハビリテーション】長野県上伊那郡辰野町小野1290-20", "url": "https://www.kaigokensaku.mhlw.go.jp/20/index.php?action_kouhyou_detail_004_kani=true&JigyosyoCd=2012417636-00&ServiceCd=140&Type=search", "url2": "http://www.fujimihp.com/?page_id=2551" }, "geometry": { "type": "Point", "coordinates": [ 137.969570800000014, 36.0461292 ] } },
{ "type": "Feature", "properties": { "内容": "上伊那生協病院【訪問リハビリテーション】長野県上伊那郡箕輪町中箕輪１１３２４番地", "url": "https://www.kaigokensaku.mhlw.go.jp/20/index.php?action_kouhyou_detail_004_kani=true&JigyosyoCd=2012417537-00&ServiceCd=140&Type=search", "url2": "http://www.kamiina-mcoop.com/ina/jyushin/rihabiri.html" }, "geometry": { "type": "Point", "coordinates": [ 137.992344, 35.9032832 ] } },
{ "type": "Feature", "properties": { "内容": "生協診療所いいじま【訪問リハビリテーション】長野県上伊那郡飯島町飯島2050-1", "url": "https://www.kaigokensaku.mhlw.go.jp/20/index.php?action_kouhyou_detail_004_kani=true&JigyosyoCd=2012417461-00&ServiceCd=140&Type=search", "url2": "http://www.kamiina-mcoop.com/iijima/index.html" }, "geometry": { "type": "Point", "coordinates": [ 137.926477164309716, 35.682941268605397 ] } },
{ "type": "Feature", "properties": { "内容": "介護老人保健施設プラムの里【訪問リハビリテーション】長野県上伊那郡宮田村４８０４－１", "url": "https://www.kaigokensaku.mhlw.go.jp/20/index.php?action_kouhyou_detail_004_kani=true&JigyosyoCd=2052480023-00&ServiceCd=140&Type=search", "url2": "http://s-sawayaka.or.jp/index.php?id=8" }, "geometry": { "type": "Point", "coordinates": [ 137.94430710000006, 35.7689044 ] } },
{ "type": "Feature", "properties": { "内容": "下伊那赤十字病院【訪問リハビリテーション】長野県下伊那郡松川町元大島３１５９－１", "url": "https://www.kaigokensaku.mhlw.go.jp/20/index.php?action_kouhyou_detail_004_kani=true&JigyosyoCd=2012517187-00&ServiceCd=140&Type=search", "url2": "http://shimoina.jrc.or.jp" }, "geometry": { "type": "Point", "coordinates": [ 137.911455599999954, 35.6001914 ] } },
{ "type": "Feature", "properties": { "内容": "高森レディスクリニック【訪問リハビリテーション】長野県下伊那郡高森町山吹435-5高森レディスクリニック", "url": "https://www.kaigokensaku.mhlw.go.jp/20/index.php?action_kouhyou_detail_004_kani=true&JigyosyoCd=2012517666-00&ServiceCd=140&Type=search", "url2": null }, "geometry": { "type": "Point", "coordinates": [ 137.8828397, 35.5709305 ] } },
{ "type": "Feature", "properties": { "内容": "下伊那厚生病院【訪問リハビリテーション】長野県下伊那郡高森町吉田４８１番地１３", "url": "https://www.kaigokensaku.mhlw.go.jp/20/index.php?action_kouhyou_detail_004_kani=true&JigyosyoCd=2012517559-00&ServiceCd=140&Type=search", "url2": "http://www.shimoina-hp.jp" }, "geometry": { "type": "Point", "coordinates": [ 137.888169799999986, 35.5511471 ] } },
{ "type": "Feature", "properties": { "内容": "長野県立阿南病院【訪問リハビリテーション】長野県下伊那郡阿南町北條２００９－１", "url": "https://www.kaigokensaku.mhlw.go.jp/20/index.php?action_kouhyou_detail_004_kani=true&JigyosyoCd=2012516031-00&ServiceCd=140&Type=search", "url2": "https://anan-hosp.jp/" }, "geometry": { "type": "Point", "coordinates": [ 137.8350077, 35.3339677 ] } },
{ "type": "Feature", "properties": { "内容": "長野県立木曽病院【訪問リハビリテーション】長野県木曽郡木曽町福島６６１３－４", "url": "https://www.kaigokensaku.mhlw.go.jp/20/index.php?action_kouhyou_detail_004_kani=true&JigyosyoCd=2012616054-00&ServiceCd=140&Type=search", "url2": "https://kiso-hosp.jp/" }, "geometry": { "type": "Point", "coordinates": [ 137.683886600000051, 35.8355507 ] } },
{ "type": "Feature", "properties": { "内容": "医療法人社団玉井会玉井医院【訪問リハビリテーション】長野県東筑摩郡麻績村麻4156-1", "url": "https://www.kaigokensaku.mhlw.go.jp/20/index.php?action_kouhyou_detail_004_kani=true&JigyosyoCd=2012717126-00&ServiceCd=140&Type=search", "url2": null }, "geometry": { "type": "Point", "coordinates": [ 138.050759412828057, 36.458844302030471 ] } },
{ "type": "Feature", "properties": { "内容": "長野県厚生農業協同組合連合会北アルプス医療センターあづみ病院【訪問リハビリテーション】長野県北安曇郡池田町大字池田3207-1", "url": "https://www.kaigokensaku.mhlw.go.jp/20/index.php?action_kouhyou_detail_004_kani=true&JigyosyoCd=2012917064-00&ServiceCd=140&Type=search", "url2": "https://www.azumi-ghp.jp/" }, "geometry": { "type": "Point", "coordinates": [ 137.873040899999978, 36.4213488 ] } },
{ "type": "Feature", "properties": { "内容": "介護老人保健施設ライフ２【訪問リハビリテーション】北安曇郡松川村南神戸4360-17", "url": "https://www.kaigokensaku.mhlw.go.jp/20/index.php?action_kouhyou_detail_004_kani=true&JigyosyoCd=2052980030-00&ServiceCd=140&Type=search", "url2": "http://koushu-nagano.or.jp/" }, "geometry": { "type": "Point", "coordinates": [ 137.848067899999933, 36.3954319 ] } },
{ "type": "Feature", "properties": { "内容": "介護老人保健施設　白馬メディア【訪問リハビリテーション】北安曇郡白馬村大字神城22844", "url": "https://www.kaigokensaku.mhlw.go.jp/20/index.php?action_kouhyou_detail_004_kani=true&JigyosyoCd=2052980022-00&ServiceCd=140&Type=search", "url2": "http://www.shironishi.or.jp" }, "geometry": { "type": "Point", "coordinates": [ 137.846196599999985, 36.6639722 ] } },
{ "type": "Feature", "properties": { "内容": "長野県厚生農業協同組合連合会　北アルプス医療センター白馬診療所【訪問リハビリテーション】長野県北安曇郡白馬村大字神城21551", "url": "https://www.kaigokensaku.mhlw.go.jp/20/index.php?action_kouhyou_detail_004_kani=true&JigyosyoCd=2012917148-00&ServiceCd=140&Type=search", "url2": "https://www.azumi-ghp.jp/" }, "geometry": { "type": "Point", "coordinates": [ 137.845566599999984, 36.6523706 ] } },
{ "type": "Feature", "properties": { "内容": "特定医療法人新生病院【訪問リハビリテーション】長野県上高井郡小布施町８５１番地", "url": "https://www.kaigokensaku.mhlw.go.jp/20/index.php?action_kouhyou_detail_004_kani=true&JigyosyoCd=2013217068-00&ServiceCd=140&Type=search", "url2": "http://www.newlife.or.jp/" }, "geometry": { "type": "Point", "coordinates": [ 138.318698679901132, 36.68964613764151 ] } },
{ "type": "Feature", "properties": { "内容": "小川村国民健康保険直営診療所【訪問リハビリテーション】長野県上水内郡小川村大字高府13450番地1", "url": "https://www.kaigokensaku.mhlw.go.jp/20/index.php?action_kouhyou_detail_004_kani=true&JigyosyoCd=2013417171-00&ServiceCd=140&Type=search", "url2": "http://www.vill.ogawa.nagano.jp/iryou/shinryou.htm" }, "geometry": { "type": "Point", "coordinates": [ 137.965266700000029, 36.6167624 ] } },
{ "type": "Feature", "properties": { "内容": "飯綱町立　飯綱病院【訪問リハビリテーション】長野県上水内郡飯綱町大字牟礼2220番地", "url": "https://www.kaigokensaku.mhlw.go.jp/20/index.php?action_kouhyou_detail_004_kani=true&JigyosyoCd=2013417239-00&ServiceCd=140&Type=search", "url2": "http://iizuna-hp.jp/" }, "geometry": { "type": "Point", "coordinates": [ 138.235775099999955, 36.7493806 ] } }
]
}
