{
"type": "FeatureCollection",
"name": "geo_20_看護小規模多機能型居宅介護（複合型サービス）",
"crs": { "type": "name", "properties": { "name": "urn:ogc:def:crs:OGC:1.3:CRS84" } },
"features": [
{ "type": "Feature", "properties": { "内容": "ニチイケアセンター篠ノ井中央【看護小規模多機能型居宅介護（複合型サービス）】長野県長野市篠ノ井御幣川1157番地１", "url": "https://www.kaigokensaku.mhlw.go.jp/20/index.php?action_kouhyou_detail_004_kani=true&JigyosyoCd=2090100690-00&ServiceCd=&Type=search", "url2": "www.nichiigakkan.co.jp/index.html" }, "geometry": { "type": "Point", "coordinates": [ 138.141061050926197, 36.574861290007298 ] } },
{ "type": "Feature", "properties": { "内容": "看護小規模多機能城山【看護小規模多機能型居宅介護（複合型サービス）】長野県長野市箱清水一丁目１２番１４号", "url": "https://www.kaigokensaku.mhlw.go.jp/20/index.php?action_kouhyou_detail_004_kani=true&JigyosyoCd=2090101359-00&ServiceCd=&Type=search", "url2": "s-joyama.or.jp" }, "geometry": { "type": "Point", "coordinates": [ 138.1904286, 36.6652242 ] } },
{ "type": "Feature", "properties": { "内容": "燦倶楽部　中条【看護小規模多機能型居宅介護（複合型サービス）】長野県長野市中条２４２９", "url": "https://www.kaigokensaku.mhlw.go.jp/20/index.php?action_kouhyou_detail_004_kani=true&JigyosyoCd=2090101110-00&ServiceCd=&Type=search", "url2": "http://www.tikifuku-nagano.jp/" }, "geometry": { "type": "Point", "coordinates": [ 138.035234800000012, 36.6090276 ] } },
{ "type": "Feature", "properties": { "内容": "ブルーム若里【看護小規模多機能型居宅介護（複合型サービス）】長野県長野市若里5丁目5番17-1号", "url": "https://www.kaigokensaku.mhlw.go.jp/20/index.php?action_kouhyou_detail_004_kani=true&JigyosyoCd=2090101011-00&ServiceCd=&Type=search", "url2": null }, "geometry": { "type": "Point", "coordinates": [ 138.184391600000026, 36.6272318 ] } },
{ "type": "Feature", "properties": { "内容": "看多機かえりえ長野【看護小規模多機能型居宅介護（複合型サービス）】長野県長野市高田６３", "url": "https://www.kaigokensaku.mhlw.go.jp/20/index.php?action_kouhyou_detail_004_kani=true&JigyosyoCd=2090101060-00&ServiceCd=&Type=search", "url2": "https://www.yasashiite.com/" }, "geometry": { "type": "Point", "coordinates": [ 138.205959900000011, 36.6518996 ] } },
{ "type": "Feature", "properties": { "内容": "看護小規模多機能あったかほーむ柳原【看護小規模多機能型居宅介護（複合型サービス）】長野県長野市大字小島788番地２地域サポートセンター柳原", "url": "https://www.kaigokensaku.mhlw.go.jp/20/index.php?action_kouhyou_detail_004_kani=true&JigyosyoCd=2090100948-00&ServiceCd=&Type=search", "url2": null }, "geometry": { "type": "Point", "coordinates": [ 138.257952499999988, 36.6653297 ] } },
{ "type": "Feature", "properties": { "内容": "看護小規模多機能　あったかほーむかまだ【看護小規模多機能型居宅介護（複合型サービス）】長野県松本市鎌田2丁目8番33-4", "url": "https://www.kaigokensaku.mhlw.go.jp/20/index.php?action_kouhyou_detail_004_kani=true&JigyosyoCd=2090200557-00&ServiceCd=&Type=search", "url2": "fb-kaigo.co.jp" }, "geometry": { "type": "Point", "coordinates": [ 137.958452200000011, 36.2209286 ] } },
{ "type": "Feature", "properties": { "内容": "ほほ笑みナースホーム福田【看護小規模多機能型居宅介護（複合型サービス）】長野県上田市福田４５－７", "url": "https://www.kaigokensaku.mhlw.go.jp/20/index.php?action_kouhyou_detail_004_kani=true&JigyosyoCd=2090300563-00&ServiceCd=&Type=search", "url2": "http://hohoemikaigo.com/" }, "geometry": { "type": "Point", "coordinates": [ 138.202571799999987, 36.388232 ] } },
{ "type": "Feature", "properties": { "内容": "看護小規模多機能型居宅介護おおぞら【看護小規模多機能型居宅介護（複合型サービス）】長野県上田市塩川1336", "url": "https://www.kaigokensaku.mhlw.go.jp/20/index.php?action_kouhyou_detail_004_kani=true&JigyosyoCd=2090300506-00&ServiceCd=&Type=search", "url2": "http://km-rehacenter.jp" }, "geometry": { "type": "Point", "coordinates": [ 138.3140445, 36.3445538 ] } },
{ "type": "Feature", "properties": { "内容": "ニチイケアセンター上田緑が丘　看護小規模多機能型居宅介護【看護小規模多機能型居宅介護（複合型サービス）】長野県上田市緑が丘3-21-12", "url": "https://www.kaigokensaku.mhlw.go.jp/20/index.php?action_kouhyou_detail_004_kani=true&JigyosyoCd=2090300233-00&ServiceCd=&Type=search", "url2": "http://www.nichiigakkan.co.jp" }, "geometry": { "type": "Point", "coordinates": [ 138.24109969999995, 36.4142101 ] } },
{ "type": "Feature", "properties": { "内容": "看護小規模多機能居宅介護かえりえわかみや【看護小規模多機能型居宅介護（複合型サービス）】長野県岡谷市若宮1-5-27", "url": "https://www.kaigokensaku.mhlw.go.jp/20/index.php?action_kouhyou_detail_004_kani=true&JigyosyoCd=2090400207-00&ServiceCd=&Type=search", "url2": "https://yasashiite-suwa.com/" }, "geometry": { "type": "Point", "coordinates": [ 138.061037093917832, 36.064219563913326 ] } },
{ "type": "Feature", "properties": { "内容": "看護小規模多機能型居宅介護事業所　いこいっぽ【看護小規模多機能型居宅介護（複合型サービス）】長野県岡谷市御倉町2番21号", "url": "https://www.kaigokensaku.mhlw.go.jp/20/index.php?action_kouhyou_detail_004_kani=true&JigyosyoCd=2090400272-00&ServiceCd=&Type=search", "url2": null }, "geometry": { "type": "Point", "coordinates": [ 138.041787, 36.0568627 ] } },
{ "type": "Feature", "properties": { "内容": "看護小規模多機能あおば【看護小規模多機能型居宅介護（複合型サービス）】長野県伊那市狐島3895", "url": "https://www.kaigokensaku.mhlw.go.jp/20/index.php?action_kouhyou_detail_004_kani=true&JigyosyoCd=2090900123-00&ServiceCd=&Type=search", "url2": null }, "geometry": { "type": "Point", "coordinates": [ 137.962377800000013, 35.8366009 ] } },
{ "type": "Feature", "properties": { "内容": "看護小規模多機能　ハートフルはうす【看護小規模多機能型居宅介護（複合型サービス）】長野県塩尻市広丘高出2000‐3", "url": "https://www.kaigokensaku.mhlw.go.jp/20/index.php?action_kouhyou_detail_004_kani=true&JigyosyoCd=2091500195-00&ServiceCd=&Type=search", "url2": "https://heart-ful.nagano.jp" }, "geometry": { "type": "Point", "coordinates": [ 137.9583648, 36.1351548 ] } },
{ "type": "Feature", "properties": { "内容": "看護小規模型居宅介護施設治田の里【看護小規模多機能型居宅介護（複合型サービス）】長野県千曲市稲荷山1780", "url": "https://www.kaigokensaku.mhlw.go.jp/20/index.php?action_kouhyou_detail_004_kani=true&JigyosyoCd=2091800181-00&ServiceCd=&Type=search", "url2": "info.@harutanosato.com" }, "geometry": { "type": "Point", "coordinates": [ 138.098920799999973, 36.5333949 ] } },
{ "type": "Feature", "properties": { "内容": "看護小規模多機型居宅介護　ホーミーハウス【看護小規模多機能型居宅介護（複合型サービス）】長野県東御市祢津332-2", "url": "https://www.kaigokensaku.mhlw.go.jp/20/index.php?action_kouhyou_detail_004_kani=true&JigyosyoCd=2091900080-00&ServiceCd=&Type=search", "url2": "ryokufuukai.or.jp" }, "geometry": { "type": "Point", "coordinates": [ 138.3565418, 36.3687427 ] } },
{ "type": "Feature", "properties": { "内容": "看護小規模多機能集皆所ひだまり【看護小規模多機能型居宅介護（複合型サービス）】長野県安曇野市豊科高家７８１－１", "url": "https://www.kaigokensaku.mhlw.go.jp/20/index.php?action_kouhyou_detail_004_kani=true&JigyosyoCd=2094000250-00&ServiceCd=&Type=search", "url2": "http://www.crew.g.co.jp" }, "geometry": { "type": "Point", "coordinates": [ 137.929097599999977, 36.2730378 ] } },
{ "type": "Feature", "properties": { "内容": "看護小規模多機能ケアぬくもり【看護小規模多機能型居宅介護（複合型サービス）】長野県諏訪郡下諏訪町西赤砂4429-6諏訪共立ケアセンター赤砂", "url": "https://www.kaigokensaku.mhlw.go.jp/20/index.php?action_kouhyou_detail_004_kani=true&JigyosyoCd=2092300223-00&ServiceCd=&Type=search", "url2": "http://www.skhp.or.jp/" }, "geometry": { "type": "Point", "coordinates": [ 138.0753937, 36.0646931 ] } },
{ "type": "Feature", "properties": { "内容": "看多機ふうりん【看護小規模多機能型居宅介護（複合型サービス）】長野県上伊那郡箕輪町大字中箕輪11329-1", "url": "https://www.kaigokensaku.mhlw.go.jp/20/index.php?action_kouhyou_detail_004_kani=true&JigyosyoCd=2092400254-00&ServiceCd=&Type=search", "url2": "https://www.kamiina-mcoop.com/minowa-pages/minowa-furin" }, "geometry": { "type": "Point", "coordinates": [ 137.99221924005073, 35.902570196544154 ] } },
{ "type": "Feature", "properties": { "内容": "看護小規模多機能やまなみ【看護小規模多機能型居宅介護（複合型サービス）】長野県上伊那郡飯島町飯島2050-1", "url": "https://www.kaigokensaku.mhlw.go.jp/20/index.php?action_kouhyou_detail_004_kani=true&JigyosyoCd=2092400262-00&ServiceCd=&Type=search", "url2": null }, "geometry": { "type": "Point", "coordinates": [ 137.926187700000014, 35.6828306 ] } },
{ "type": "Feature", "properties": { "内容": "看護小規模多機能ホームはっぴーかつら【看護小規模多機能型居宅介護（複合型サービス）】長野県上伊那郡中川村葛島685番地", "url": "https://www.kaigokensaku.mhlw.go.jp/20/index.php?action_kouhyou_detail_004_kani=true&JigyosyoCd=2092400320-00&ServiceCd=&Type=search", "url2": null }, "geometry": { "type": "Point", "coordinates": [ 137.930427996958912, 35.619907007803057 ] } },
{ "type": "Feature", "properties": { "内容": "社会福祉法人　聖楓会【看護小規模多機能型居宅介護（複合型サービス）】長野県上高井郡小布施町大字小布施851-4", "url": "https://www.kaigokensaku.mhlw.go.jp/20/index.php?action_kouhyou_detail_004_kani=true&JigyosyoCd=2093200117-00&ServiceCd=&Type=search", "url2": "https://www.newlife.or.jp/powell_kai/" }, "geometry": { "type": "Point", "coordinates": [ 138.318174, 36.690061 ] } },
{ "type": "Feature", "properties": { "内容": "むすび野　在宅ケアセンターいぶき【看護小規模多機能型居宅介護（複合型サービス）】長野県上水内郡信濃町富濃880-2", "url": "https://www.kaigokensaku.mhlw.go.jp/20/index.php?action_kouhyou_detail_004_kani=true&JigyosyoCd=2093400089-00&ServiceCd=&Type=search", "url2": null }, "geometry": { "type": "Point", "coordinates": [ 138.237491085983294, 36.789695112660496 ] } }
]
}
