{
"type": "FeatureCollection",
"name": "geo_20_認知症対応型通所介護",
"crs": { "type": "name", "properties": { "name": "urn:ogc:def:crs:OGC:1.3:CRS84" } },
"features": [
{ "type": "Feature", "properties": { "内容": "こもれび【認知症対応型通所介護】長野県長野市若穂綿内６４２９", "url": "https://www.kaigokensaku.mhlw.go.jp/20/index.php?action_kouhyou_detail_004_kani=true&JigyosyoCd=2090100013-00&ServiceCd=720&Type=search", "url2": "http://.zenkouji-dｗ.com" }, "geometry": { "type": "Point", "coordinates": [ 138.260056800000029, 36.6273108 ] } },
{ "type": "Feature", "properties": { "内容": "認知症対応型ﾃﾞｲｻｰﾋﾞｽながぬま【認知症対応型通所介護】長野県長野市大字大町735番1", "url": "https://www.kaigokensaku.mhlw.go.jp/20/index.php?action_kouhyou_detail_004_kani=true&JigyosyoCd=2090101342-00&ServiceCd=720&Type=search", "url2": "http://www.home-shinano.com" }, "geometry": { "type": "Point", "coordinates": [ 138.2650533, 36.674932 ] } },
{ "type": "Feature", "properties": { "内容": "ふれあいデイサービスセンター【認知症対応型通所介護】長野県長野市松代町西寺尾９８６番地１", "url": "https://www.kaigokensaku.mhlw.go.jp/20/index.php?action_kouhyou_detail_004_kani=true&JigyosyoCd=2070102930-00&ServiceCd=720&Type=search", "url2": "http://www.fureaiso.com/" }, "geometry": { "type": "Point", "coordinates": [ 138.196447300000045, 36.5753305 ] } },
{ "type": "Feature", "properties": { "内容": "第二宅老所のぞみ【認知症対応型通所介護】長野県長野市篠ノ井有旅２２７９－１", "url": "https://www.kaigokensaku.mhlw.go.jp/20/index.php?action_kouhyou_detail_004_kani=true&JigyosyoCd=2070102542-00&ServiceCd=720&Type=search", "url2": "http://takunozomi.jp/" }, "geometry": { "type": "Point", "coordinates": [ 138.114217899999971, 36.5793022 ] } },
{ "type": "Feature", "properties": { "内容": "医療法人宮沢医院　グリーンテラス【認知症対応型通所介護】長野県長野市吉田2-8-1", "url": "https://www.kaigokensaku.mhlw.go.jp/20/index.php?action_kouhyou_detail_004_kani=true&JigyosyoCd=2090100740-00&ServiceCd=720&Type=search", "url2": "http://www.miyazawaiin.com/" }, "geometry": { "type": "Point", "coordinates": [ 138.21739320000006, 36.6696137 ] } },
{ "type": "Feature", "properties": { "内容": "グループホーム太陽【認知症対応型通所介護】長野県長野市富竹936-1", "url": "https://www.kaigokensaku.mhlw.go.jp/20/index.php?action_kouhyou_detail_004_kani=true&JigyosyoCd=2090100062-00&ServiceCd=720&Type=search", "url2": "http://taiyo-takada.com/" }, "geometry": { "type": "Point", "coordinates": [ 138.255381699999987, 36.6760392 ] } },
{ "type": "Feature", "properties": { "内容": "宅老所さくら【認知症対応型通所介護】長野県長野市吉田５丁目１３－７", "url": "https://www.kaigokensaku.mhlw.go.jp/20/index.php?action_kouhyou_detail_004_kani=true&JigyosyoCd=2070101502-00&ServiceCd=720&Type=search", "url2": "http://www.group.momiji.com/" }, "geometry": { "type": "Point", "coordinates": [ 138.226806, 36.6626124 ] } },
{ "type": "Feature", "properties": { "内容": "グループホームりんごの樹【認知症対応型通所介護】長野県松本市石芝3-9-5", "url": "https://www.kaigokensaku.mhlw.go.jp/20/index.php?action_kouhyou_detail_004_kani=true&JigyosyoCd=2070201427-00&ServiceCd=720&Type=search", "url2": null }, "geometry": { "type": "Point", "coordinates": [ 137.949620900000014, 36.2037448 ] } },
{ "type": "Feature", "properties": { "内容": "認知症対応型通所介護デイサービスセンターなごみ【認知症対応型通所介護】長野県松本市寿北５－３４－２３", "url": "https://www.kaigokensaku.mhlw.go.jp/20/index.php?action_kouhyou_detail_004_kani=true&JigyosyoCd=2090200011-00&ServiceCd=720&Type=search", "url2": "http://www.heisei-kai.jp/" }, "geometry": { "type": "Point", "coordinates": [ 137.984145799999965, 36.1998408 ] } },
{ "type": "Feature", "properties": { "内容": "松本市北部デイサービスセンター【認知症対応型通所介護】長野県松本市元町３－７－１", "url": "https://www.kaigokensaku.mhlw.go.jp/20/index.php?action_kouhyou_detail_004_kani=true&JigyosyoCd=2090200029-00&ServiceCd=720&Type=search", "url2": null }, "geometry": { "type": "Point", "coordinates": [ 137.983729499999981, 36.2505148 ] } },
{ "type": "Feature", "properties": { "内容": "認知症対応型通所介護デイサービスハーモニー【認知症対応型通所介護】長野県松本市大字島内字広田４０６５番地４", "url": "https://www.kaigokensaku.mhlw.go.jp/20/index.php?action_kouhyou_detail_004_kani=true&JigyosyoCd=2090200052-00&ServiceCd=720&Type=search", "url2": "http://www.harmony-matsumoto.or.jp/" }, "geometry": { "type": "Point", "coordinates": [ 137.945713899999987, 36.247895 ] } },
{ "type": "Feature", "properties": { "内容": "松本市梓川デイサービスセンターなごみ荘【認知症対応型通所介護】長野県松本市梓川上野３７９－１", "url": "https://www.kaigokensaku.mhlw.go.jp/20/index.php?action_kouhyou_detail_004_kani=true&JigyosyoCd=2072800259-00&ServiceCd=720&Type=search", "url2": null }, "geometry": { "type": "Point", "coordinates": [ 137.836929700000042, 36.201913 ] } },
{ "type": "Feature", "properties": { "内容": "上田病院　赤松の家【認知症対応型通所介護】上田市　中央　1-3-3", "url": "https://www.kaigokensaku.mhlw.go.jp/20/index.php?action_kouhyou_detail_004_kani=true&JigyosyoCd=2090300084-00&ServiceCd=720&Type=search", "url2": "http://www.ueda-hp.or.jp" }, "geometry": { "type": "Point", "coordinates": [ 138.251572200000055, 36.3984869 ] } },
{ "type": "Feature", "properties": { "内容": "菅平グループホーム認知症対応型通所介護【認知症対応型通所介護】長野県上田市菅平高原1260-16", "url": "https://www.kaigokensaku.mhlw.go.jp/20/index.php?action_kouhyou_detail_004_kani=true&JigyosyoCd=2090300068-00&ServiceCd=720&Type=search", "url2": null }, "geometry": { "type": "Point", "coordinates": [ 138.337462, 36.5244804 ] } },
{ "type": "Feature", "properties": { "内容": "萩の家【認知症対応型通所介護】長野県上田市真田町傍陽６１８５－２", "url": "https://www.kaigokensaku.mhlw.go.jp/20/index.php?action_kouhyou_detail_004_kani=true&JigyosyoCd=2090300225-00&ServiceCd=720&Type=search", "url2": "http://www.azarean.jp/" }, "geometry": { "type": "Point", "coordinates": [ 138.2948573, 36.4503452 ] } },
{ "type": "Feature", "properties": { "内容": "特定非営利活動法人やじろべー宅老所もくれん【認知症対応型通所介護】長野県上田市常磐城１－６－１３", "url": "https://www.kaigokensaku.mhlw.go.jp/20/index.php?action_kouhyou_detail_004_kani=true&JigyosyoCd=2070300583-00&ServiceCd=720&Type=search", "url2": "http://www.yazirobay.com/" }, "geometry": { "type": "Point", "coordinates": [ 138.243386, 36.4073998 ] } },
{ "type": "Feature", "properties": { "内容": "宅老所　そめや【認知症対応型通所介護】長野県古里2260番地18", "url": "https://www.kaigokensaku.mhlw.go.jp/20/index.php?action_kouhyou_detail_004_kani=true&JigyosyoCd=2090300126-00&ServiceCd=720&Type=search", "url2": "http://www.valley.ne.jp/~rooman-u/" }, "geometry": { "type": "Point", "coordinates": [ 138.265101400000049, 36.4017393 ] } },
{ "type": "Feature", "properties": { "内容": "愛の家デイサ-ビス岡谷幸町【認知症対応型通所介護】長野県岡谷市幸町6-24-1", "url": "https://www.kaigokensaku.mhlw.go.jp/20/index.php?action_kouhyou_detail_004_kani=true&JigyosyoCd=2090400058-00&ServiceCd=720&Type=search", "url2": "http://www.mcsg.co.jp/business/group_home.html" }, "geometry": { "type": "Point", "coordinates": [ 138.050311599999986, 36.0655119 ] } },
{ "type": "Feature", "properties": { "内容": "ウェルハートおかや認知症対応型通所介護事業所【認知症対応型通所介護】長野県岡谷市長地片間町１－１１－１", "url": "https://www.kaigokensaku.mhlw.go.jp/20/index.php?action_kouhyou_detail_004_kani=true&JigyosyoCd=2070400110-00&ServiceCd=720&Type=search", "url2": "https://www.wellheart-okaya.com/" }, "geometry": { "type": "Point", "coordinates": [ 138.059557600000062, 36.0766301 ] } },
{ "type": "Feature", "properties": { "内容": "デイサービスあぐり山本【認知症対応型通所介護】長野県飯田市竹佐653-1", "url": "https://www.kaigokensaku.mhlw.go.jp/20/index.php?action_kouhyou_detail_004_kani=true&JigyosyoCd=2090500204-00&ServiceCd=720&Type=search", "url2": null }, "geometry": { "type": "Point", "coordinates": [ 137.764038699999986, 35.4712044 ] } },
{ "type": "Feature", "properties": { "内容": "羽場赤坂デイ【認知症対応型通所介護】長野県飯田市羽場赤坂2021-50", "url": "https://www.kaigokensaku.mhlw.go.jp/20/index.php?action_kouhyou_detail_004_kani=true&JigyosyoCd=2090500170-00&ServiceCd=720&Type=search", "url2": "http://hp.kaipoke.biz/g2m/index.html" }, "geometry": { "type": "Point", "coordinates": [ 137.796143867459136, 35.519613173372321 ] } },
{ "type": "Feature", "properties": { "内容": "グループホームわだの家【認知症対応型通所介護】長野県飯田市南信濃和田５１８－１", "url": "https://www.kaigokensaku.mhlw.go.jp/20/index.php?action_kouhyou_detail_004_kani=true&JigyosyoCd=2090500071-00&ServiceCd=720&Type=search", "url2": null }, "geometry": { "type": "Point", "coordinates": [ 137.92810570000006, 35.3215406 ] } },
{ "type": "Feature", "properties": { "内容": "宅老所まつお【認知症対応型通所介護】長野県飯田市松尾久井　２５４２－１", "url": "https://www.kaigokensaku.mhlw.go.jp/20/index.php?action_kouhyou_detail_004_kani=true&JigyosyoCd=2090500154-00&ServiceCd=720&Type=search", "url2": "https://oinanyo.com" }, "geometry": { "type": "Point", "coordinates": [ 137.842514899999969, 35.500244 ] } },
{ "type": "Feature", "properties": { "内容": "茶屋町デイサービスセンター【認知症対応型通所介護】長野県飯田市鼎下茶屋2178番地2", "url": "https://www.kaigokensaku.mhlw.go.jp/20/index.php?action_kouhyou_detail_004_kani=true&JigyosyoCd=2090500444-00&ServiceCd=720&Type=search", "url2": "https://yamarikishoujyukai.jp/" }, "geometry": { "type": "Point", "coordinates": [ 137.827304976443514, 35.510119442929913 ] } },
{ "type": "Feature", "properties": { "内容": "デイサービスセンターあすか座光寺【認知症対応型通所介護】長野県飯田市座光寺4021番地３", "url": "https://www.kaigokensaku.mhlw.go.jp/20/index.php?action_kouhyou_detail_004_kani=true&JigyosyoCd=2090500121-00&ServiceCd=720&Type=search", "url2": null }, "geometry": { "type": "Point", "coordinates": [ 137.858920200000057, 35.5274079 ] } },
{ "type": "Feature", "properties": { "内容": "飯田市竜東デイサービスセンター【認知症対応型通所介護】長野県飯田市下久堅知久平123", "url": "https://www.kaigokensaku.mhlw.go.jp/20/index.php?action_kouhyou_detail_004_kani=true&JigyosyoCd=2070500349-00&ServiceCd=720&Type=search", "url2": null }, "geometry": { "type": "Point", "coordinates": [ 137.851312199999938, 35.4756694 ] } },
{ "type": "Feature", "properties": { "内容": "須坂市社協　デイサービスセンター　ことぶき【認知症対応型通所介護】長野県須坂市大字野辺１３３５－７番地", "url": "https://www.kaigokensaku.mhlw.go.jp/20/index.php?action_kouhyou_detail_004_kani=true&JigyosyoCd=2070700147-00&ServiceCd=720&Type=search", "url2": "http://www.suzaka-shakyo.jp" }, "geometry": { "type": "Point", "coordinates": [ 138.320590836245685, 36.635727065630149 ] } },
{ "type": "Feature", "properties": { "内容": "ニチイケアセンター柏木【認知症対応型通所介護】伊那市境1845", "url": "https://www.kaigokensaku.mhlw.go.jp/20/index.php?action_kouhyou_detail_004_kani=true&JigyosyoCd=2090900057-00&ServiceCd=720&Type=search", "url2": "hsts88@nichiigakkan.co.jp" }, "geometry": { "type": "Point", "coordinates": [ 137.968173200000024, 35.8325305 ] } },
{ "type": "Feature", "properties": { "内容": "認知症対応型通所介護　みぶの里【認知症対応型通所介護】長野県伊那市美篶5324-1複合福祉施設みぶの里", "url": "https://www.kaigokensaku.mhlw.go.jp/20/index.php?action_kouhyou_detail_004_kani=true&JigyosyoCd=2090900149-00&ServiceCd=720&Type=search", "url2": "https://s-sawayaka.or.jp" }, "geometry": { "type": "Point", "coordinates": [ 138.006595054708896, 35.832550682697246 ] } },
{ "type": "Feature", "properties": { "内容": "宅老所ひなたぼこ【認知症対応型通所介護】長野県伊那市荒井３８１９－１１", "url": "https://www.kaigokensaku.mhlw.go.jp/20/index.php?action_kouhyou_detail_004_kani=true&JigyosyoCd=2070900226-00&ServiceCd=720&Type=search", "url2": null }, "geometry": { "type": "Point", "coordinates": [ 137.94401629999993, 35.8499528 ] } },
{ "type": "Feature", "properties": { "内容": "デイサービスなかの【認知症対応型通所介護】長野県中野市大字岩船292－1", "url": "https://www.kaigokensaku.mhlw.go.jp/20/index.php?action_kouhyou_detail_004_kani=true&JigyosyoCd=2091100129-00&ServiceCd=720&Type=search", "url2": "http//www.home-shinano.come" }, "geometry": { "type": "Point", "coordinates": [ 138.3584021, 36.7455942 ] } },
{ "type": "Feature", "properties": { "内容": "まるごとケアの家やわらぎ【認知症対応型通所介護】長野県中野市岩船19-17", "url": "https://www.kaigokensaku.mhlw.go.jp/20/index.php?action_kouhyou_detail_004_kani=true&JigyosyoCd=2071100255-00&ServiceCd=720&Type=search", "url2": null }, "geometry": { "type": "Point", "coordinates": [ 138.348476092577783, 36.738971785187232 ] } },
{ "type": "Feature", "properties": { "内容": "宅老所　ひなたぼっこ【認知症対応型通所介護】長野県中野市吉田1249-1", "url": "https://www.kaigokensaku.mhlw.go.jp/20/index.php?action_kouhyou_detail_004_kani=true&JigyosyoCd=2091100046-00&ServiceCd=720&Type=search", "url2": null }, "geometry": { "type": "Point", "coordinates": [ 138.368508600000041, 36.7532317 ] } },
{ "type": "Feature", "properties": { "内容": "ニチイケアセンターおおまち【認知症対応型通所介護】大町市大町1380-1", "url": "https://www.kaigokensaku.mhlw.go.jp/20/index.php?action_kouhyou_detail_004_kani=true&JigyosyoCd=2091200044-00&ServiceCd=720&Type=search", "url2": null }, "geometry": { "type": "Point", "coordinates": [ 137.860199, 36.5152412 ] } },
{ "type": "Feature", "properties": { "内容": "ぽれぽれお春香【認知症対応型通所介護】長野県大町市大町１５９８番地２", "url": "https://www.kaigokensaku.mhlw.go.jp/20/index.php?action_kouhyou_detail_004_kani=true&JigyosyoCd=2091200028-00&ServiceCd=720&Type=search", "url2": "http://www.porepore.info/" }, "geometry": { "type": "Point", "coordinates": [ 137.855921500000022, 36.5172075 ] } },
{ "type": "Feature", "properties": { "内容": "デイサービスセンターひなたぼっこ【認知症対応型通所介護】長野県大町市大町１１７８－１", "url": "https://www.kaigokensaku.mhlw.go.jp/20/index.php?action_kouhyou_detail_004_kani=true&JigyosyoCd=2091200036-00&ServiceCd=720&Type=search", "url2": "https://www.omachishakyo.org" }, "geometry": { "type": "Point", "coordinates": [ 137.863384900000028, 36.5091366 ] } },
{ "type": "Feature", "properties": { "内容": "カトレヤデイサービスセンター【認知症対応型通所介護】長野県大町市平1955番地971", "url": "https://www.kaigokensaku.mhlw.go.jp/20/index.php?action_kouhyou_detail_004_kani=true&JigyosyoCd=2071200055-00&ServiceCd=720&Type=search", "url2": "http://www.syuukoukai.jp" }, "geometry": { "type": "Point", "coordinates": [ 137.803920100000028, 36.5206969 ] } },
{ "type": "Feature", "properties": { "内容": "飯山市社協デイサービスセンターゆきつばき（舞姫の里）【認知症対応型通所介護】長野県飯山市大字飯山７３５５－４", "url": "https://www.kaigokensaku.mhlw.go.jp/20/index.php?action_kouhyou_detail_004_kani=true&JigyosyoCd=2071300053-00&ServiceCd=720&Type=search", "url2": "https://iiyama-shakyo.or.jp/" }, "geometry": { "type": "Point", "coordinates": [ 138.35950379999997, 36.8669175 ] } },
{ "type": "Feature", "properties": { "内容": "社会福祉法人ジェイエー長野会デイサービスセンター北部ひだまり【認知症対応型通所介護】長野県飯山市大字常郷28-1", "url": "https://www.kaigokensaku.mhlw.go.jp/20/index.php?action_kouhyou_detail_004_kani=true&JigyosyoCd=2091300034-00&ServiceCd=720&Type=search", "url2": null }, "geometry": { "type": "Point", "coordinates": [ 138.39369350000004, 36.9189118 ] } },
{ "type": "Feature", "properties": { "内容": "ﾆﾁｲｹｱｾﾝﾀ-塩尻【認知症対応型通所介護】長野県塩尻市大門三番町2番3号", "url": "https://www.kaigokensaku.mhlw.go.jp/20/index.php?action_kouhyou_detail_004_kani=true&JigyosyoCd=2091500070-00&ServiceCd=720&Type=search", "url2": null }, "geometry": { "type": "Point", "coordinates": [ 137.956962100000027, 36.110695 ] } },
{ "type": "Feature", "properties": { "内容": "塩尻市社会福祉協議会デイサービスセンターつくしの郷【認知症対応型通所介護】長野県塩尻市広丘堅石２１５０番地２", "url": "https://www.kaigokensaku.mhlw.go.jp/20/index.php?action_kouhyou_detail_004_kani=true&JigyosyoCd=2071500165-00&ServiceCd=720&Type=search", "url2": "http://www.shiojirishakyo.or.jp/" }, "geometry": { "type": "Point", "coordinates": [ 137.949561020237752, 36.134797772680237 ] } },
{ "type": "Feature", "properties": { "内容": "認知症カイフクデイサービスさいわい【認知症対応型通所介護】長野県塩尻市大門幸町5-20　1階", "url": "https://www.kaigokensaku.mhlw.go.jp/20/index.php?action_kouhyou_detail_004_kani=true&JigyosyoCd=2091500211-00&ServiceCd=720&Type=search", "url2": "https://kaifuku-day.com/" }, "geometry": { "type": "Point", "coordinates": [ 137.9569947, 36.1177764 ] } },
{ "type": "Feature", "properties": { "内容": "デイサービスセンターこまくさ野村【認知症対応型通所介護】長野県塩尻市広丘野村2146", "url": "https://www.kaigokensaku.mhlw.go.jp/20/index.php?action_kouhyou_detail_004_kani=true&JigyosyoCd=2071500512-00&ServiceCd=720&Type=search", "url2": "http://www.komakusa-nomura.jp/" }, "geometry": { "type": "Point", "coordinates": [ 137.955408300000045, 36.1485155 ] } },
{ "type": "Feature", "properties": { "内容": "宅幼老所百彩館【認知症対応型通所介護】長野県塩尻市上西条430-2", "url": "https://www.kaigokensaku.mhlw.go.jp/20/index.php?action_kouhyou_detail_004_kani=true&JigyosyoCd=2071500496-00&ServiceCd=720&Type=search", "url2": null }, "geometry": { "type": "Point", "coordinates": [ 137.973081500000035, 36.0948281 ] } },
{ "type": "Feature", "properties": { "内容": "望月デイサービスセンター結い【認知症対応型通所介護】長野県佐久市望月３２６－４望月地域老人福祉拠点施設　１階", "url": "https://www.kaigokensaku.mhlw.go.jp/20/index.php?action_kouhyou_detail_004_kani=true&JigyosyoCd=2072100452-00&ServiceCd=720&Type=search", "url2": "http://www.yuugen-fukushikai.com/" }, "geometry": { "type": "Point", "coordinates": [ 138.35720850000007, 36.2653439 ] } },
{ "type": "Feature", "properties": { "内容": "佐久市あいとぴあ臼田デイサービスセンター【認知症対応型通所介護】長野県佐久市下越１６－５佐久市臼田総合福祉センターあいとぴあ臼田", "url": "https://www.kaigokensaku.mhlw.go.jp/20/index.php?action_kouhyou_detail_004_kani=true&JigyosyoCd=2072000199-00&ServiceCd=720&Type=search", "url2": "https://www.sakusi-shakyo.or.jp/pages/11/" }, "geometry": { "type": "Point", "coordinates": [ 138.48722, 36.1982568 ] } },
{ "type": "Feature", "properties": { "内容": "宅幼老所ひまわり【認知症対応型通所介護】長野県佐久市臼田新屋敷１２２３番地１", "url": "https://www.kaigokensaku.mhlw.go.jp/20/index.php?action_kouhyou_detail_004_kani=true&JigyosyoCd=2072000447-00&ServiceCd=720&Type=search", "url2": "https://www.mirai-himawari.com/" }, "geometry": { "type": "Point", "coordinates": [ 138.488084, 36.193921 ] } },
{ "type": "Feature", "properties": { "内容": "佐久市みついデイサービスセンター【認知症対応型通所介護】長野県佐久市新子田８６６番地", "url": "https://www.kaigokensaku.mhlw.go.jp/20/index.php?action_kouhyou_detail_004_kani=true&JigyosyoCd=2071700294-00&ServiceCd=720&Type=search", "url2": "https://www.naganosaiseikai.jp" }, "geometry": { "type": "Point", "coordinates": [ 138.505286100000035, 36.2579289 ] } },
{ "type": "Feature", "properties": { "内容": "認知症対応型デイサービスつむぎの家【認知症対応型通所介護】長野県千曲市寂蒔769-2", "url": "https://www.kaigokensaku.mhlw.go.jp/20/index.php?action_kouhyou_detail_004_kani=true&JigyosyoCd=2091800215-00&ServiceCd=720&Type=search", "url2": null }, "geometry": { "type": "Point", "coordinates": [ 138.132795199999975, 36.514710699999981 ] } },
{ "type": "Feature", "properties": { "内容": "宅老所千曲市屋代デイサービスセンター【認知症対応型通所介護】長野県千曲市大字屋代133番地1", "url": "https://www.kaigokensaku.mhlw.go.jp/20/index.php?action_kouhyou_detail_004_kani=true&JigyosyoCd=2071600197-00&ServiceCd=720&Type=search", "url2": "http://www.taishikai.or.jp/kaigo/sub05.html" }, "geometry": { "type": "Point", "coordinates": [ 138.132661900000016, 36.5374325 ] } },
{ "type": "Feature", "properties": { "内容": "グループホームかみやまだ敬老園【認知症対応型通所介護】長野県千曲市上山田２８７１－１", "url": "https://www.kaigokensaku.mhlw.go.jp/20/index.php?action_kouhyou_detail_004_kani=true&JigyosyoCd=2071800037-00&ServiceCd=720&Type=search", "url2": null }, "geometry": { "type": "Point", "coordinates": [ 138.144640100000061, 36.4725509 ] } },
{ "type": "Feature", "properties": { "内容": "あっといーずホーム【認知症対応型通所介護】長野県千曲市磯部１７０－２", "url": "https://www.kaigokensaku.mhlw.go.jp/20/index.php?action_kouhyou_detail_004_kani=true&JigyosyoCd=2091800058-00&ServiceCd=720&Type=search", "url2": "http://www.at-ease-care.com/company/company.html" }, "geometry": { "type": "Point", "coordinates": [ 138.159735800000021, 36.4812199 ] } },
{ "type": "Feature", "properties": { "内容": "グループホーム御姫尊【認知症対応型通所介護】長野県東御市祢津３３７－２", "url": "https://www.kaigokensaku.mhlw.go.jp/20/index.php?action_kouhyou_detail_004_kani=true&JigyosyoCd=2072200443-00&ServiceCd=720&Type=search", "url2": "http://www.ryokufuukai.or.jp/group.html" }, "geometry": { "type": "Point", "coordinates": [ 138.35643129999994, 36.3681797 ] } },
{ "type": "Feature", "properties": { "内容": "ほのぼの【認知症対応型通所介護】長野県東御市八重原2151-2", "url": "https://www.kaigokensaku.mhlw.go.jp/20/index.php?action_kouhyou_detail_004_kani=true&JigyosyoCd=2091900114-00&ServiceCd=720&Type=search", "url2": null }, "geometry": { "type": "Point", "coordinates": [ 138.325713574837579, 36.325407722163398 ] } },
{ "type": "Feature", "properties": { "内容": "通い処輝楽【認知症対応型通所介護】長野県東御市常田220-1", "url": "https://www.kaigokensaku.mhlw.go.jp/20/index.php?action_kouhyou_detail_004_kani=true&JigyosyoCd=2091900098-00&ServiceCd=720&Type=search", "url2": null }, "geometry": { "type": "Point", "coordinates": [ 138.3463063, 36.3584194 ] } },
{ "type": "Feature", "properties": { "内容": "縁側処だいだい【認知症対応型通所介護】長野県安曇野市三郷明盛4633番地", "url": "https://www.kaigokensaku.mhlw.go.jp/20/index.php?action_kouhyou_detail_004_kani=true&JigyosyoCd=2094000367-00&ServiceCd=720&Type=search", "url2": null }, "geometry": { "type": "Point", "coordinates": [ 137.8876287, 36.2586343 ] } },
{ "type": "Feature", "properties": { "内容": "JAあづみあんしんの里「楡」【認知症対応型通所介護】長野県安曇野市三郷温5798-3", "url": "https://www.kaigokensaku.mhlw.go.jp/20/index.php?action_kouhyou_detail_004_kani=true&JigyosyoCd=2072800663-00&ServiceCd=720&Type=search", "url2": "http://www.ja-azm.iijan.or.jp/welfare/nire/" }, "geometry": { "type": "Point", "coordinates": [ 137.880832300000066, 36.2700285 ] } },
{ "type": "Feature", "properties": { "内容": "寄合所えにしや【認知症対応型通所介護】長野県安曇野市豊科高家４５２６", "url": "https://www.kaigokensaku.mhlw.go.jp/20/index.php?action_kouhyou_detail_004_kani=true&JigyosyoCd=2094000052-00&ServiceCd=720&Type=search", "url2": "https://enishiya-azumino.com" }, "geometry": { "type": "Point", "coordinates": [ 137.924486600000023, 36.2835534 ] } },
{ "type": "Feature", "properties": { "内容": "デイホーム楓【認知症対応型通所介護】長野県安曇野市三郷温3399－3", "url": "https://www.kaigokensaku.mhlw.go.jp/20/index.php?action_kouhyou_detail_004_kani=true&JigyosyoCd=2094000037-00&ServiceCd=720&Type=search", "url2": "http://www.alwith.com/" }, "geometry": { "type": "Point", "coordinates": [ 137.88865450000003, 36.2554747 ] } },
{ "type": "Feature", "properties": { "内容": "川上村本郷宅老所【認知症対応型通所介護】長野県南佐久郡川上村大字御所平４４６－１", "url": "https://www.kaigokensaku.mhlw.go.jp/20/index.php?action_kouhyou_detail_004_kani=true&JigyosyoCd=2072000553-00&ServiceCd=720&Type=search", "url2": "http://www.kawakami-shakyo.jp" }, "geometry": { "type": "Point", "coordinates": [ 138.544054800000026, 35.9726511 ] } },
{ "type": "Feature", "properties": { "内容": "デイサービスだんらん【認知症対応型通所介護】長野県北佐久郡立科町芦田3723番地", "url": "https://www.kaigokensaku.mhlw.go.jp/20/index.php?action_kouhyou_detail_004_kani=true&JigyosyoCd=2092100060-00&ServiceCd=720&Type=search", "url2": "http://www.hc-tateshina.jp" }, "geometry": { "type": "Point", "coordinates": [ 138.312993400000011, 36.2805116 ] } },
{ "type": "Feature", "properties": { "内容": "認知症対応型通所介護　通いサービスはるかぜ【認知症対応型通所介護】長野県諏訪郡下諏訪町西赤砂4429-30", "url": "https://www.kaigokensaku.mhlw.go.jp/20/index.php?action_kouhyou_detail_004_kani=true&JigyosyoCd=2092300090-00&ServiceCd=720&Type=search", "url2": "http://www.skhp.or.jp" }, "geometry": { "type": "Point", "coordinates": [ 138.075073100000054, 36.0678483 ] } },
{ "type": "Feature", "properties": { "内容": "グループホームやまゆり【認知症対応型通所介護】長野県諏訪郡富士見町富士見3796番地5", "url": "https://www.kaigokensaku.mhlw.go.jp/20/index.php?action_kouhyou_detail_004_kani=true&JigyosyoCd=2092300033-00&ServiceCd=720&Type=search", "url2": "http://www.lcv.ne.jp/^kougen/index.html" }, "geometry": { "type": "Point", "coordinates": [ 138.229449499999987, 35.9093941 ] } },
{ "type": "Feature", "properties": { "内容": "グループホームひめばら【認知症対応型通所介護】長野県諏訪郡原村17217-125", "url": "https://www.kaigokensaku.mhlw.go.jp/20/index.php?action_kouhyou_detail_004_kani=true&JigyosyoCd=2092300215-00&ServiceCd=720&Type=search", "url2": "https://fujimihp.com/" }, "geometry": { "type": "Point", "coordinates": [ 138.254063785948063, 35.966562489871649 ] } },
{ "type": "Feature", "properties": { "内容": "グループホームやまなみ【認知症対応型通所介護】長野県上伊那郡飯島町飯島2050-1", "url": "https://www.kaigokensaku.mhlw.go.jp/20/index.php?action_kouhyou_detail_004_kani=true&JigyosyoCd=2092400171-00&ServiceCd=720&Type=search", "url2": "http://www.kamiina-mcoop.com/" }, "geometry": { "type": "Point", "coordinates": [ 137.927382200000011, 35.6781982 ] } },
{ "type": "Feature", "properties": { "内容": "認知症対応型通所介護　スローライフ【認知症対応型通所介護】長野県上伊那郡南箕輪村2380-1086", "url": "https://www.kaigokensaku.mhlw.go.jp/20/index.php?action_kouhyou_detail_004_kani=true&JigyosyoCd=2092400189-00&ServiceCd=720&Type=search", "url2": null }, "geometry": { "type": "Point", "coordinates": [ 137.95292541872405, 35.881134758823819 ] } },
{ "type": "Feature", "properties": { "内容": "野の花宅老所【認知症対応型通所介護】長野県上伊那郡中川村片桐6790-11", "url": "https://www.kaigokensaku.mhlw.go.jp/20/index.php?action_kouhyou_detail_004_kani=true&JigyosyoCd=2092400221-00&ServiceCd=720&Type=search", "url2": null }, "geometry": { "type": "Point", "coordinates": [ 137.9192118, 35.6491978 ] } },
{ "type": "Feature", "properties": { "内容": "グループホームいきいき【認知症対応型通所介護】長野県下伊那郡松川町元大島5274-22", "url": "https://www.kaigokensaku.mhlw.go.jp/20/index.php?action_kouhyou_detail_004_kani=true&JigyosyoCd=2072501204-00&ServiceCd=720&Type=search", "url2": null }, "geometry": { "type": "Point", "coordinates": [ 137.901353699999959, 35.6026963 ] } },
{ "type": "Feature", "properties": { "内容": "認知症対応型通所介護グループホームコスモス松川【認知症対応型通所介護】長野県下伊那郡松川町元大島1629番地３", "url": "https://www.kaigokensaku.mhlw.go.jp/20/index.php?action_kouhyou_detail_004_kani=true&JigyosyoCd=2092500038-00&ServiceCd=720&Type=search", "url2": "http://www.cosmosnet.or.jp/file/matsukawa_gh.html" }, "geometry": { "type": "Point", "coordinates": [ 137.916713499999986, 35.5975807 ] } },
{ "type": "Feature", "properties": { "内容": "グループホーム大地【認知症対応型通所介護】長野県下伊那郡阿智村春日２９４８－３", "url": "https://www.kaigokensaku.mhlw.go.jp/20/index.php?action_kouhyou_detail_004_kani=true&JigyosyoCd=2092500020-00&ServiceCd=720&Type=search", "url2": "https://a-lifesupport.co.jp" }, "geometry": { "type": "Point", "coordinates": [ 137.757774633848811, 35.443332869948954 ] } },
{ "type": "Feature", "properties": { "内容": "社会福祉法人泰阜村社会福祉協議会指定通所介護事業所【認知症対応型通所介護】長野県下伊那郡泰阜村３２４７番地３", "url": "https://www.kaigokensaku.mhlw.go.jp/20/index.php?action_kouhyou_detail_004_kani=true&JigyosyoCd=2072500537-00&ServiceCd=720&Type=search", "url2": "http://yasuokasyakyo.jp/" }, "geometry": { "type": "Point", "coordinates": [ 137.830006300000036, 35.4062628 ] } },
{ "type": "Feature", "properties": { "内容": "つどい場福寿庵【認知症対応型通所介護】長野県木曽郡木曽町新開2293", "url": "https://www.kaigokensaku.mhlw.go.jp/20/index.php?action_kouhyou_detail_004_kani=true&JigyosyoCd=2092600085-00&ServiceCd=720&Type=search", "url2": null }, "geometry": { "type": "Point", "coordinates": [ 137.7126179, 35.8570385 ] } },
{ "type": "Feature", "properties": { "内容": "生坂デイサービスセンターはるかぜ【認知症対応型通所介護】長野県東筑摩郡生坂村８２７２－１", "url": "https://www.kaigokensaku.mhlw.go.jp/20/index.php?action_kouhyou_detail_004_kani=true&JigyosyoCd=2092700042-00&ServiceCd=720&Type=search", "url2": "http://www.ikusaka-shakyo.or.jp/" }, "geometry": { "type": "Point", "coordinates": [ 137.941432912950205, 36.44425745771715 ] } },
{ "type": "Feature", "properties": { "内容": "宅老所たかちゃん家【認知症対応型通所介護】長野県北安曇郡池田町大字池田３２２－１", "url": "https://www.kaigokensaku.mhlw.go.jp/20/index.php?action_kouhyou_detail_004_kani=true&JigyosyoCd=2072900364-00&ServiceCd=720&Type=search", "url2": null }, "geometry": { "type": "Point", "coordinates": [ 137.8743435, 36.4416184 ] } },
{ "type": "Feature", "properties": { "内容": "宅老所たかちゃん家　新屋【認知症対応型通所介護】長野県北安曇郡池田町大字池田322-2", "url": "https://www.kaigokensaku.mhlw.go.jp/20/index.php?action_kouhyou_detail_004_kani=true&JigyosyoCd=2092900030-00&ServiceCd=720&Type=search", "url2": null }, "geometry": { "type": "Point", "coordinates": [ 137.8743435, 36.4416184 ] } },
{ "type": "Feature", "properties": { "内容": "宅老所花時計【認知症対応型通所介護】長野県北安曇郡松川村５９６０番地１６５", "url": "https://www.kaigokensaku.mhlw.go.jp/20/index.php?action_kouhyou_detail_004_kani=true&JigyosyoCd=2092900014-00&ServiceCd=720&Type=search", "url2": null }, "geometry": { "type": "Point", "coordinates": [ 137.855728417665773, 36.392836446891593 ] } },
{ "type": "Feature", "properties": { "内容": "宅老所ぼだい桜の杜【認知症対応型通所介護】長野県埴科郡坂城町大字南条979-2", "url": "https://www.kaigokensaku.mhlw.go.jp/20/index.php?action_kouhyou_detail_004_kani=true&JigyosyoCd=2073100170-00&ServiceCd=720&Type=search", "url2": "http://www.ssakaki.com/" }, "geometry": { "type": "Point", "coordinates": [ 138.198714599999988, 36.43164620000001 ] } },
{ "type": "Feature", "properties": { "内容": "木島平村社協指定認知症対応型通所介護事業所【認知症対応型通所介護】長野県下高井郡木島平村大字往郷９０４－６", "url": "https://www.kaigokensaku.mhlw.go.jp/20/index.php?action_kouhyou_detail_004_kani=true&JigyosyoCd=2093300065-00&ServiceCd=720&Type=search", "url2": "https://sites.google.com/kijimasyakyo/" }, "geometry": { "type": "Point", "coordinates": [ 138.406415700000025, 36.8566562 ] } },
{ "type": "Feature", "properties": { "内容": "認知症対応型通所介護事業所ケアプラザみつえ【認知症対応型通所介護】上水内郡飯綱町大字牟礼２５１９-１", "url": "https://www.kaigokensaku.mhlw.go.jp/20/index.php?action_kouhyou_detail_004_kani=true&JigyosyoCd=2093400022-00&ServiceCd=720&Type=search", "url2": "http://careplaza-mitsue.jp/" }, "geometry": { "type": "Point", "coordinates": [ 138.234666800000014, 36.7522108 ] } },
{ "type": "Feature", "properties": { "内容": "わが家【認知症対応型通所介護】長野県上水内郡飯綱町大字倉井２９０７－１グループホームわが家", "url": "https://www.kaigokensaku.mhlw.go.jp/20/index.php?action_kouhyou_detail_004_kani=true&JigyosyoCd=2093400055-00&ServiceCd=720&Type=search", "url2": "http://ii-shakyo.or.jp" }, "geometry": { "type": "Point", "coordinates": [ 138.2602756, 36.7539447 ] } }
]
}
