{
"type": "FeatureCollection",
"name": "geo_20_福祉用具貸与",
"crs": { "type": "name", "properties": { "name": "urn:ogc:def:crs:OGC:1.3:CRS84" } },
"features": [
{ "type": "Feature", "properties": { "内容": "イーケア【福祉用具貸与】長野県長野市篠ノ井御幣川1093-1", "url": "https://www.kaigokensaku.mhlw.go.jp/20/index.php?action_kouhyou_detail_004_kani=true&JigyosyoCd=2070107020-00&ServiceCd=170&Type=search", "url2": "http://hp.kaipoke.biz/ddf/" }, "geometry": { "type": "Point", "coordinates": [ 138.140525348089426, 36.571884960561903 ] } },
{ "type": "Feature", "properties": { "内容": "アムール長野福祉用具貸与販売事業所【福祉用具貸与】長野県長野市栗田1568", "url": "https://www.kaigokensaku.mhlw.go.jp/20/index.php?action_kouhyou_detail_004_kani=true&JigyosyoCd=2070107855-00&ServiceCd=170&Type=search", "url2": "https://www.amour.or.jp/" }, "geometry": { "type": "Point", "coordinates": [ 138.187351799999988, 36.6393107 ] } },
{ "type": "Feature", "properties": { "内容": "アイム在宅ケアセンター長野【福祉用具貸与】長野県長野市川中島町今井1688-5", "url": "https://www.kaigokensaku.mhlw.go.jp/20/index.php?action_kouhyou_detail_004_kani=true&JigyosyoCd=2070103771-00&ServiceCd=170&Type=search", "url2": "https://www.aim-nagano.com" }, "geometry": { "type": "Point", "coordinates": [ 138.153500744339937, 36.59559043327387 ] } },
{ "type": "Feature", "properties": { "内容": "さくらメディカル株式会社　長野営業所【福祉用具貸与】長野県長野市稲葉914-1", "url": "https://www.kaigokensaku.mhlw.go.jp/20/index.php?action_kouhyou_detail_004_kani=true&JigyosyoCd=2070106550-00&ServiceCd=170&Type=search", "url2": "https://www.sakura-medical.com/" }, "geometry": { "type": "Point", "coordinates": [ 138.211907800000063, 36.6288312 ] } },
{ "type": "Feature", "properties": { "内容": "エフビー介護サービス株式会社長野営業所【福祉用具貸与】長野県長野市金井田65-2", "url": "https://www.kaigokensaku.mhlw.go.jp/20/index.php?action_kouhyou_detail_004_kani=true&JigyosyoCd=2070104647-00&ServiceCd=170&Type=search", "url2": "http://fb-kaigo.co.jp" }, "geometry": { "type": "Point", "coordinates": [ 138.159582, 36.5821617 ] } },
{ "type": "Feature", "properties": { "内容": "フランスベッド株式会社メディカル長野営業所【福祉用具貸与】長野県長野市稲里町下氷鉋492-2", "url": "https://www.kaigokensaku.mhlw.go.jp/20/index.php?action_kouhyou_detail_004_kani=true&JigyosyoCd=2070103987-00&ServiceCd=170&Type=search", "url2": "http://www.francebed.co.jp/" }, "geometry": { "type": "Point", "coordinates": [ 138.179823162565668, 36.602842648089066 ] } },
{ "type": "Feature", "properties": { "内容": "サクラケア長野店【福祉用具貸与】長野県長野市若里７-７-５", "url": "https://www.kaigokensaku.mhlw.go.jp/20/index.php?action_kouhyou_detail_004_kani=true&JigyosyoCd=2070101817-00&ServiceCd=170&Type=search", "url2": "http://www.sakura-care.co.jp" }, "geometry": { "type": "Point", "coordinates": [ 138.199928799999952, 36.6284889 ] } },
{ "type": "Feature", "properties": { "内容": "ケアサポート太陽【福祉用具貸与】長野県長野市金箱141", "url": "https://www.kaigokensaku.mhlw.go.jp/20/index.php?action_kouhyou_detail_004_kani=true&JigyosyoCd=2070107632-00&ServiceCd=170&Type=search", "url2": null }, "geometry": { "type": "Point", "coordinates": [ 138.255348871163932, 36.676566328991434 ] } },
{ "type": "Feature", "properties": { "内容": "株式会社アップルケア【福祉用具貸与】長野県長野市松代町西寺尾字上高相1047-1", "url": "https://www.kaigokensaku.mhlw.go.jp/20/index.php?action_kouhyou_detail_004_kani=true&JigyosyoCd=2070101197-00&ServiceCd=170&Type=search", "url2": "http://apple-care.jp" }, "geometry": { "type": "Point", "coordinates": [ 138.196783642466698, 36.569083129717171 ] } },
{ "type": "Feature", "properties": { "内容": "株式会社ヤマシタ長野営業所【福祉用具貸与】長野県長野市丹波島1-1-10", "url": "https://www.kaigokensaku.mhlw.go.jp/20/index.php?action_kouhyou_detail_004_kani=true&JigyosyoCd=2070100694-00&ServiceCd=170&Type=search", "url2": "http://www.yco.co.jp" }, "geometry": { "type": "Point", "coordinates": [ 138.175037959602349, 36.617581416675584 ] } },
{ "type": "Feature", "properties": { "内容": "ユアーズ介護センター【福祉用具貸与】長野県長野市川合新田370-405", "url": "https://www.kaigokensaku.mhlw.go.jp/20/index.php?action_kouhyou_detail_004_kani=true&JigyosyoCd=2070105834-00&ServiceCd=170&Type=search", "url2": null }, "geometry": { "type": "Point", "coordinates": [ 138.213211054717249, 36.622675329042046 ] } },
{ "type": "Feature", "properties": { "内容": "シルバーサポート長野店【福祉用具貸与】長野県長野市若宮1丁目6-20モンフレールI棟", "url": "https://www.kaigokensaku.mhlw.go.jp/20/index.php?action_kouhyou_detail_004_kani=true&JigyosyoCd=2070104902-00&ServiceCd=170&Type=search", "url2": "http://www.ramico.co.jp/" }, "geometry": { "type": "Point", "coordinates": [ 138.221213408958135, 36.646068292995629 ] } },
{ "type": "Feature", "properties": { "内容": "株式会社麻屋家具製作所【福祉用具貸与】長野市信州新町新町698", "url": "https://www.kaigokensaku.mhlw.go.jp/20/index.php?action_kouhyou_detail_004_kani=true&JigyosyoCd=2073400174-00&ServiceCd=170&Type=search", "url2": "http://asaya-smile.com" }, "geometry": { "type": "Point", "coordinates": [ 138.008916199999931, 36.5697051 ] } },
{ "type": "Feature", "properties": { "内容": "あかりサービス【福祉用具貸与】長野県長野市南堀477-1ＯＳビルⅡ202", "url": "https://www.kaigokensaku.mhlw.go.jp/20/index.php?action_kouhyou_detail_004_kani=true&JigyosyoCd=2070107202-00&ServiceCd=170&Type=search", "url2": "https://wellnesslife.info/company.php" }, "geometry": { "type": "Point", "coordinates": [ 138.231296630813262, 36.671796074761673 ] } },
{ "type": "Feature", "properties": { "内容": "多宝たねむら有限会社【福祉用具貸与】長野県長野市三輪1丁目3番11号", "url": "https://www.kaigokensaku.mhlw.go.jp/20/index.php?action_kouhyou_detail_004_kani=true&JigyosyoCd=2070102922-00&ServiceCd=170&Type=search", "url2": null }, "geometry": { "type": "Point", "coordinates": [ 138.20349490000001, 36.6567681 ] } },
{ "type": "Feature", "properties": { "内容": "福祉用具販売・レンタルコスモスプラネット【福祉用具貸与】長野県長野市篠ノ井会614-1コスモスポールスター総合ケアセンター1F", "url": "https://www.kaigokensaku.mhlw.go.jp/20/index.php?action_kouhyou_detail_004_kani=true&JigyosyoCd=2070105842-00&ServiceCd=170&Type=search", "url2": "http://cosmosnet.or.jp/index.php" }, "geometry": { "type": "Point", "coordinates": [ 138.150525169983979, 36.57006761596169 ] } },
{ "type": "Feature", "properties": { "内容": "ダスキンヘルスレント長野ステーション【福祉用具貸与】長野県長野市吉田5-22-34", "url": "https://www.kaigokensaku.mhlw.go.jp/20/index.php?action_kouhyou_detail_004_kani=true&JigyosyoCd=2070107129-00&ServiceCd=170&Type=search", "url2": "https://healthrent.duskin.jp/station/nagano/nagano.html" }, "geometry": { "type": "Point", "coordinates": [ 138.227361100000053, 36.6593571 ] } },
{ "type": "Feature", "properties": { "内容": "サクラケア長野南店【福祉用具貸与】長野県長野市里島10-1", "url": "https://www.kaigokensaku.mhlw.go.jp/20/index.php?action_kouhyou_detail_004_kani=true&JigyosyoCd=2070104209-00&ServiceCd=170&Type=search", "url2": "http://www.sakura-care.co.jp/mc/business/index.html" }, "geometry": { "type": "Point", "coordinates": [ 138.152055099999984, 36.5814115 ] } },
{ "type": "Feature", "properties": { "内容": "パナソニックエイジフリーショップ長野南【福祉用具貸与】長野県長野市篠ノ井御幣川字池田１０５３-１１", "url": "https://www.kaigokensaku.mhlw.go.jp/20/index.php?action_kouhyou_detail_004_kani=true&JigyosyoCd=2070103920-00&ServiceCd=170&Type=search", "url2": "http://www.densen.co.jp" }, "geometry": { "type": "Point", "coordinates": [ 138.142790008737194, 36.570469013913311 ] } },
{ "type": "Feature", "properties": { "内容": "アビリティーズ・ケアネット株式会社松本営業所【福祉用具貸与】長野県松本市野溝木工１－９－３４", "url": "https://www.kaigokensaku.mhlw.go.jp/20/index.php?action_kouhyou_detail_004_kani=true&JigyosyoCd=2070201013-00&ServiceCd=170&Type=search", "url2": "http://www.abilities.jp/" }, "geometry": { "type": "Point", "coordinates": [ 137.957702615234894, 36.202331756025693 ] } },
{ "type": "Feature", "properties": { "内容": "株式会社フロンティア　長野営業所【福祉用具貸与】長野県松本市高宮南７－４６", "url": "https://www.kaigokensaku.mhlw.go.jp/20/index.php?action_kouhyou_detail_004_kani=true&JigyosyoCd=2070203076-00&ServiceCd=170&Type=search", "url2": "http://www.frontier-ph.com/homecare/kaigo/index.html" }, "geometry": { "type": "Point", "coordinates": [ 137.957459214758273, 36.211236172019774 ] } },
{ "type": "Feature", "properties": { "内容": "元気ライフ有限会社【福祉用具貸与】長野県松本市大字島内4173番地5", "url": "https://www.kaigokensaku.mhlw.go.jp/20/index.php?action_kouhyou_detail_004_kani=true&JigyosyoCd=2070201534-00&ServiceCd=170&Type=search", "url2": null }, "geometry": { "type": "Point", "coordinates": [ 137.945765007934625, 36.243352470568645 ] } },
{ "type": "Feature", "properties": { "内容": "サクラケア南松本店【福祉用具貸与】長野県松本市笹部2丁目-12-19", "url": "https://www.kaigokensaku.mhlw.go.jp/20/index.php?action_kouhyou_detail_004_kani=true&JigyosyoCd=2070204553-00&ServiceCd=170&Type=search", "url2": "https://www.sakura-care.co.jp/" }, "geometry": { "type": "Point", "coordinates": [ 137.951697, 36.2123011 ] } },
{ "type": "Feature", "properties": { "内容": "エフビー介護サービス株式会社松本営業所【福祉用具貸与】長野県松本市島内４９７２-５", "url": "https://www.kaigokensaku.mhlw.go.jp/20/index.php?action_kouhyou_detail_004_kani=true&JigyosyoCd=2070201930-00&ServiceCd=170&Type=search", "url2": "http://www.fb-kaigo.co.jp" }, "geometry": { "type": "Point", "coordinates": [ 137.941666899999973, 36.2511851 ] } },
{ "type": "Feature", "properties": { "内容": "中日本メディカルリンク株式会社　介護用品営業所　ヘルスケアテック【福祉用具貸与】長野県松本市丸の内8-3", "url": "https://www.kaigokensaku.mhlw.go.jp/20/index.php?action_kouhyou_detail_004_kani=true&JigyosyoCd=2070200304-00&ServiceCd=170&Type=search", "url2": null }, "geometry": { "type": "Point", "coordinates": [ 137.972734, 36.239390800000017 ] } },
{ "type": "Feature", "properties": { "内容": "ひまわり館　松本営業所【福祉用具貸与】長野県松本市筑摩4-20-17", "url": "https://www.kaigokensaku.mhlw.go.jp/20/index.php?action_kouhyou_detail_004_kani=true&JigyosyoCd=2070203555-00&ServiceCd=170&Type=search", "url2": "https://www.himawarikan.co.jp/" }, "geometry": { "type": "Point", "coordinates": [ 137.985819399999968, 36.2238796 ] } },
{ "type": "Feature", "properties": { "内容": "介護ショップ　ビソウ【福祉用具貸与】長野県松本市北深志1丁目1-6", "url": "https://www.kaigokensaku.mhlw.go.jp/20/index.php?action_kouhyou_detail_004_kani=true&JigyosyoCd=2070203977-00&ServiceCd=170&Type=search", "url2": "https://clusterbisoum28.wixsite.com/kaigobisou/handling-goods" }, "geometry": { "type": "Point", "coordinates": [ 137.971732056879318, 36.240807602394405 ] } },
{ "type": "Feature", "properties": { "内容": "医療法人心泉会上條記念病院【福祉用具貸与】長野県松本市村井町西2-16-1", "url": "https://www.kaigokensaku.mhlw.go.jp/20/index.php?action_kouhyou_detail_004_kani=true&JigyosyoCd=2010217335-00&ServiceCd=170&Type=search", "url2": "http://www.kamijyomhp.or.jp/" }, "geometry": { "type": "Point", "coordinates": [ 137.947433, 36.1724485 ] } },
{ "type": "Feature", "properties": { "内容": "株式会社信濃毎日新聞松本専売所　福祉事業部【福祉用具貸与】長野県松本市大手4丁目10番16号", "url": "https://www.kaigokensaku.mhlw.go.jp/20/index.php?action_kouhyou_detail_004_kani=true&JigyosyoCd=2070203688-00&ServiceCd=170&Type=search", "url2": "http://fukushi.matsusen.jp/" }, "geometry": { "type": "Point", "coordinates": [ 137.972127384655778, 36.236682845909606 ] } },
{ "type": "Feature", "properties": { "内容": "有限会社クモイエージェンシー【福祉用具貸与】長野県松本市波田１００６９番地３", "url": "https://www.kaigokensaku.mhlw.go.jp/20/index.php?action_kouhyou_detail_004_kani=true&JigyosyoCd=2072700210-00&ServiceCd=170&Type=search", "url2": null }, "geometry": { "type": "Point", "coordinates": [ 137.864177700000027, 36.204432900000015 ] } },
{ "type": "Feature", "properties": { "内容": "十字屋リース株式会社【福祉用具貸与】長野県松本市筑摩１－１５－１", "url": "https://www.kaigokensaku.mhlw.go.jp/20/index.php?action_kouhyou_detail_004_kani=true&JigyosyoCd=2070200643-00&ServiceCd=170&Type=search", "url2": "http://www.jujiya-l.co.jp" }, "geometry": { "type": "Point", "coordinates": [ 137.97606780000001, 36.2213906 ] } },
{ "type": "Feature", "properties": { "内容": "株式会社サン・アイ福祉部中信事業所【福祉用具貸与】長野県松本市征矢野２－１０－１マイパレス高宮１Ｆ西", "url": "https://www.kaigokensaku.mhlw.go.jp/20/index.php?action_kouhyou_detail_004_kani=true&JigyosyoCd=2070200841-00&ServiceCd=170&Type=search", "url2": null }, "geometry": { "type": "Point", "coordinates": [ 137.956514435888664, 36.215382330387797 ] } },
{ "type": "Feature", "properties": { "内容": "フランスベッド株式会社メディカル松本営業所【福祉用具貸与】長野県松本市双葉10-22双葉町ビルＢ棟2Ｆ", "url": "https://www.kaigokensaku.mhlw.go.jp/20/index.php?action_kouhyou_detail_004_kani=true&JigyosyoCd=2070202789-00&ServiceCd=170&Type=search", "url2": "https://medical.francebed.co.jp/office_medical/nagano/107/" }, "geometry": { "type": "Point", "coordinates": [ 137.963923600000044, 36.2089747 ] } },
{ "type": "Feature", "properties": { "内容": "タカサワ通商松本営業所【福祉用具貸与】長野県松本市征矢野２-１２-４６", "url": "https://www.kaigokensaku.mhlw.go.jp/20/index.php?action_kouhyou_detail_004_kani=true&JigyosyoCd=2070200189-00&ServiceCd=170&Type=search", "url2": "http://takasawatsusho.co.jp/" }, "geometry": { "type": "Point", "coordinates": [ 137.954900800000019, 36.2152349 ] } },
{ "type": "Feature", "properties": { "内容": "ダスキンヘルスレント松本ステーション【福祉用具貸与】長野県松本市双葉18番2号", "url": "https://www.kaigokensaku.mhlw.go.jp/20/index.php?action_kouhyou_detail_004_kani=true&JigyosyoCd=2070201757-00&ServiceCd=170&Type=search", "url2": "http://healthrent.duskin.jp/index.html" }, "geometry": { "type": "Point", "coordinates": [ 137.962465893101182, 36.212868632122927 ] } },
{ "type": "Feature", "properties": { "内容": "サクラケア松本店【福祉用具貸与】長野県松本市梓川倭466‐3", "url": "https://www.kaigokensaku.mhlw.go.jp/20/index.php?action_kouhyou_detail_004_kani=true&JigyosyoCd=2074000551-00&ServiceCd=170&Type=search", "url2": "http://www.sakura-care.co.jp/mc/" }, "geometry": { "type": "Point", "coordinates": [ 137.890820764790305, 36.235998013768885 ] } },
{ "type": "Feature", "properties": { "内容": "マツイ商会有限会社【福祉用具貸与】長野県松本市出川２丁目１９番６号", "url": "https://www.kaigokensaku.mhlw.go.jp/20/index.php?action_kouhyou_detail_004_kani=true&JigyosyoCd=2070201773-00&ServiceCd=170&Type=search", "url2": null }, "geometry": { "type": "Point", "coordinates": [ 137.972224, 36.2149551 ] } },
{ "type": "Feature", "properties": { "内容": "そら介護サポート【福祉用具貸与】長野県松本市深志2-6-9LONBLDG.2階A", "url": "https://www.kaigokensaku.mhlw.go.jp/20/index.php?action_kouhyou_detail_004_kani=true&JigyosyoCd=2070204447-00&ServiceCd=170&Type=search", "url2": "https://kaigo-aozora.co.jp/" }, "geometry": { "type": "Point", "coordinates": [ 137.971363330094135, 36.230723880978346 ] } },
{ "type": "Feature", "properties": { "内容": "㈱ライフ　エコ　サポート【福祉用具貸与】長野県松本市洞659番地", "url": "https://www.kaigokensaku.mhlw.go.jp/20/index.php?action_kouhyou_detail_004_kani=true&JigyosyoCd=2070202599-00&ServiceCd=170&Type=search", "url2": null }, "geometry": { "type": "Point", "coordinates": [ 137.989303100000029, 36.2777751 ] } },
{ "type": "Feature", "properties": { "内容": "エフビー介護サービス株式会社上田営業所【福祉用具貸与】長野県上田市常入１-１１-４０", "url": "https://www.kaigokensaku.mhlw.go.jp/20/index.php?action_kouhyou_detail_004_kani=true&JigyosyoCd=2070300419-00&ServiceCd=170&Type=search", "url2": "http://www.fb-kaigo.co.jp/" }, "geometry": { "type": "Point", "coordinates": [ 138.267935200000011, 36.3894462 ] } },
{ "type": "Feature", "properties": { "内容": "有限会社だいまる【福祉用具貸与】長野県上田市上丸子３３１－１", "url": "https://www.kaigokensaku.mhlw.go.jp/20/index.php?action_kouhyou_detail_004_kani=true&JigyosyoCd=2072200575-00&ServiceCd=170&Type=search", "url2": null }, "geometry": { "type": "Point", "coordinates": [ 138.271615929242444, 36.3268818033252 ] } },
{ "type": "Feature", "properties": { "内容": "リーフケア株式会社【福祉用具貸与】長野県上田市真田町本原７７５－４", "url": "https://www.kaigokensaku.mhlw.go.jp/20/index.php?action_kouhyou_detail_004_kani=true&JigyosyoCd=2070301029-00&ServiceCd=170&Type=search", "url2": "http://www.leafcare.com/welfare/" }, "geometry": { "type": "Point", "coordinates": [ 138.297960800000027, 36.4265645 ] } },
{ "type": "Feature", "properties": { "内容": "タカサワ通商ふれあい上田【福祉用具貸与】長野県上田市古里29-22", "url": "https://www.kaigokensaku.mhlw.go.jp/20/index.php?action_kouhyou_detail_004_kani=true&JigyosyoCd=2070302092-00&ServiceCd=170&Type=search", "url2": "http://takasawatsusho.co.jp/" }, "geometry": { "type": "Point", "coordinates": [ 138.280733400000031, 36.4003784 ] } },
{ "type": "Feature", "properties": { "内容": "サクラケア上田店【福祉用具貸与】長野県上田市住吉２８０－８", "url": "https://www.kaigokensaku.mhlw.go.jp/20/index.php?action_kouhyou_detail_004_kani=true&JigyosyoCd=2070300658-00&ServiceCd=170&Type=search", "url2": "http://www.sakura-care.co.jp/" }, "geometry": { "type": "Point", "coordinates": [ 138.2760141, 36.4049418 ] } },
{ "type": "Feature", "properties": { "内容": "パナソニックエイジフリーショップ上田【福祉用具貸与】長野県上田市問屋町505", "url": "https://www.kaigokensaku.mhlw.go.jp/20/index.php?action_kouhyou_detail_004_kani=true&JigyosyoCd=2070301300-00&ServiceCd=170&Type=search", "url2": "http://panasonic.biz/healthcare/afsh/store/search/shop_detail.php?shop=3D3" }, "geometry": { "type": "Point", "coordinates": [ 138.232900903346348, 36.411012061657601 ] } },
{ "type": "Feature", "properties": { "内容": "在宅介護リフォームセンターふれあいショップ【福祉用具貸与】長野県岡谷市塚間町一丁目６－９", "url": "https://www.kaigokensaku.mhlw.go.jp/20/index.php?action_kouhyou_detail_004_kani=true&JigyosyoCd=2070400102-00&ServiceCd=170&Type=search", "url2": null }, "geometry": { "type": "Point", "coordinates": [ 138.053030900000067, 36.0622844 ] } },
{ "type": "Feature", "properties": { "内容": "福祉用具貸与事業所あぐり【福祉用具貸与】長野県飯田市鼎上山2662-1", "url": "https://www.kaigokensaku.mhlw.go.jp/20/index.php?action_kouhyou_detail_004_kani=true&JigyosyoCd=2070502030-00&ServiceCd=170&Type=search", "url2": "minami-fukushiyougu@email.plala.or.jp" }, "geometry": { "type": "Point", "coordinates": [ 137.82026581349993, 35.505642285601951 ] } },
{ "type": "Feature", "properties": { "内容": "介護のかふね【福祉用具貸与】長野県飯田市北方2456-3", "url": "https://www.kaigokensaku.mhlw.go.jp/20/index.php?action_kouhyou_detail_004_kani=true&JigyosyoCd=2070500596-00&ServiceCd=170&Type=search", "url2": "http://kafune.jp/" }, "geometry": { "type": "Point", "coordinates": [ 137.795657347995473, 35.505675403505983 ] } },
{ "type": "Feature", "properties": { "内容": "株式会社マスト【福祉用具貸与】長野県飯田市上郷別府3313-8", "url": "https://www.kaigokensaku.mhlw.go.jp/20/index.php?action_kouhyou_detail_004_kani=true&JigyosyoCd=2070500216-00&ServiceCd=170&Type=search", "url2": "https://www.mast-iida.co.jp" }, "geometry": { "type": "Point", "coordinates": [ 137.844308800000022, 35.5074959 ] } },
{ "type": "Feature", "properties": { "内容": "福祉住環境ひいらぎ【福祉用具貸与】長野県飯田市松尾上溝2797-3", "url": "https://www.kaigokensaku.mhlw.go.jp/20/index.php?action_kouhyou_detail_004_kani=true&JigyosyoCd=2070502212-00&ServiceCd=170&Type=search", "url2": "https://fukushi-jukankyo.com" }, "geometry": { "type": "Point", "coordinates": [ 137.843180536212543, 35.502372395009274 ] } },
{ "type": "Feature", "properties": { "内容": "株式会社サン・アイ福祉部【福祉用具貸与】長野県飯田市松尾明8055-1", "url": "https://www.kaigokensaku.mhlw.go.jp/20/index.php?action_kouhyou_detail_004_kani=true&JigyosyoCd=2070500604-00&ServiceCd=170&Type=search", "url2": "https://sanai-hukusibu.com/" }, "geometry": { "type": "Point", "coordinates": [ 137.848967600000037, 35.486768 ] } },
{ "type": "Feature", "properties": { "内容": "タカサワ通商諏訪営業所【福祉用具貸与】長野県諏訪市四賀赤沼1817", "url": "https://www.kaigokensaku.mhlw.go.jp/20/index.php?action_kouhyou_detail_004_kani=true&JigyosyoCd=2070601089-00&ServiceCd=170&Type=search", "url2": null }, "geometry": { "type": "Point", "coordinates": [ 138.12496879086828, 36.018073903064803 ] } },
{ "type": "Feature", "properties": { "内容": "サクラケア諏訪店【福祉用具貸与】長野県諏訪市大字中洲字三ツ俣5709-24", "url": "https://www.kaigokensaku.mhlw.go.jp/20/index.php?action_kouhyou_detail_004_kani=true&JigyosyoCd=2070601022-00&ServiceCd=170&Type=search", "url2": "https://www.sakura-care.co.jp/" }, "geometry": { "type": "Point", "coordinates": [ 138.115562, 36.026143 ] } },
{ "type": "Feature", "properties": { "内容": "福祉用具貸与・販売事業所　こころ【福祉用具貸与】長野県諏訪市高島一丁目２１番１４号", "url": "https://www.kaigokensaku.mhlw.go.jp/20/index.php?action_kouhyou_detail_004_kani=true&JigyosyoCd=2070600602-00&ServiceCd=170&Type=search", "url2": "http://www.kokoro5560.or.jp/" }, "geometry": { "type": "Point", "coordinates": [ 138.114055793423404, 36.040292674320142 ] } },
{ "type": "Feature", "properties": { "内容": "みよし家介護サービス【福祉用具貸与】長野県諏訪市湯の脇二丁目９番１３号", "url": "https://www.kaigokensaku.mhlw.go.jp/20/index.php?action_kouhyou_detail_004_kani=true&JigyosyoCd=2070600388-00&ServiceCd=170&Type=search", "url2": "http://www.miyosiya.jp" }, "geometry": { "type": "Point", "coordinates": [ 138.1157478, 36.0501457 ] } },
{ "type": "Feature", "properties": { "内容": "有限会社安心指定福祉用具貸与事業所須坂店【福祉用具貸与】長野県須坂市大字須坂1403-2", "url": "https://www.kaigokensaku.mhlw.go.jp/20/index.php?action_kouhyou_detail_004_kani=true&JigyosyoCd=2070700600-00&ServiceCd=170&Type=search", "url2": "https://www.ansin1.com" }, "geometry": { "type": "Point", "coordinates": [ 138.309339173016411, 36.652500630207776 ] } },
{ "type": "Feature", "properties": { "内容": "楽蔵【福祉用具貸与】長野県須坂市大字井上1700-21", "url": "https://www.kaigokensaku.mhlw.go.jp/20/index.php?action_kouhyou_detail_004_kani=true&JigyosyoCd=2070700550-00&ServiceCd=170&Type=search", "url2": null }, "geometry": { "type": "Point", "coordinates": [ 138.27929180000001, 36.6379622 ] } },
{ "type": "Feature", "properties": { "内容": "福祉ショップことぶき【福祉用具貸与】長野県小諸市御影新田字池ノ上2130-8", "url": "https://www.kaigokensaku.mhlw.go.jp/20/index.php?action_kouhyou_detail_004_kani=true&JigyosyoCd=2070800459-00&ServiceCd=170&Type=search", "url2": "http://kotobuki-group.jp/" }, "geometry": { "type": "Point", "coordinates": [ 138.466909629264791, 36.301938951469282 ] } },
{ "type": "Feature", "properties": { "内容": "タカノハートワークスショップ伊那【福祉用具貸与】長野県伊那市美篶5324-1", "url": "https://www.kaigokensaku.mhlw.go.jp/20/index.php?action_kouhyou_detail_004_kani=true&JigyosyoCd=2070900903-00&ServiceCd=170&Type=search", "url2": "https://www.takano-net.co.jp/" }, "geometry": { "type": "Point", "coordinates": [ 138.00637, 35.832398 ] } },
{ "type": "Feature", "properties": { "内容": "サクラケア伊那店【福祉用具貸与】長野県伊那市山寺2850-7", "url": "https://www.kaigokensaku.mhlw.go.jp/20/index.php?action_kouhyou_detail_004_kani=true&JigyosyoCd=2070900473-00&ServiceCd=170&Type=search", "url2": "http://www.sakura-care.co.jp/mc/business/index.html#shop" }, "geometry": { "type": "Point", "coordinates": [ 137.952778913374317, 35.852321284099723 ] } },
{ "type": "Feature", "properties": { "内容": "十字屋リース株式会社南信営業所【福祉用具貸与】長野県伊那市荒井３５７８", "url": "https://www.kaigokensaku.mhlw.go.jp/20/index.php?action_kouhyou_detail_004_kani=true&JigyosyoCd=2070900309-00&ServiceCd=170&Type=search", "url2": "http://www.jujiya-l.co.jp" }, "geometry": { "type": "Point", "coordinates": [ 137.956798899999967, 35.8406433 ] } },
{ "type": "Feature", "properties": { "内容": "株式会社　ＢＩＳＯ【福祉用具貸与】長野県伊那市東春近549番地3", "url": "https://www.kaigokensaku.mhlw.go.jp/20/index.php?action_kouhyou_detail_004_kani=true&JigyosyoCd=2070900507-00&ServiceCd=170&Type=search", "url2": "http://biso-ina.jp" }, "geometry": { "type": "Point", "coordinates": [ 137.976861869155869, 35.82465914575814 ] } },
{ "type": "Feature", "properties": { "内容": "株式会社サン・アイ福祉部　伊那事業所【福祉用具貸与】長野県伊那市西春近表木前6068-1", "url": "https://www.kaigokensaku.mhlw.go.jp/20/index.php?action_kouhyou_detail_004_kani=true&JigyosyoCd=2070900770-00&ServiceCd=170&Type=search", "url2": "http://sanai-hukusibu.com/" }, "geometry": { "type": "Point", "coordinates": [ 137.9449118, 35.7861114 ] } },
{ "type": "Feature", "properties": { "内容": "株式会社介護センター花岡伊那店【福祉用具貸与】長野県伊那市下新田３１９８番地１", "url": "https://www.kaigokensaku.mhlw.go.jp/20/index.php?action_kouhyou_detail_004_kani=true&JigyosyoCd=2070900184-00&ServiceCd=170&Type=search", "url2": "http://www.kaigo-hanaoka.com/" }, "geometry": { "type": "Point", "coordinates": [ 137.953715661376918, 35.829771251440221 ] } },
{ "type": "Feature", "properties": { "内容": "介護レンタル　ともえ【福祉用具貸与】長野県駒ヶ根市東町7-11", "url": "https://www.kaigokensaku.mhlw.go.jp/20/index.php?action_kouhyou_detail_004_kani=true&JigyosyoCd=2071000349-00&ServiceCd=170&Type=search", "url2": "http://www.tomoe.kouji.biz" }, "geometry": { "type": "Point", "coordinates": [ 137.940018469648521, 35.734503311323287 ] } },
{ "type": "Feature", "properties": { "内容": "サクラケア中野店【福祉用具貸与】長野県中野市新井608-5", "url": "https://www.kaigokensaku.mhlw.go.jp/20/index.php?action_kouhyou_detail_004_kani=true&JigyosyoCd=2071100230-00&ServiceCd=170&Type=search", "url2": "http://www.sakura-care.co.jp/" }, "geometry": { "type": "Point", "coordinates": [ 138.36552570036929, 36.759570379450309 ] } },
{ "type": "Feature", "properties": { "内容": "シルバー介護ショップピュアケア【福祉用具貸与】長野県中野市西1-4-29", "url": "https://www.kaigokensaku.mhlw.go.jp/20/index.php?action_kouhyou_detail_004_kani=true&JigyosyoCd=2071100065-00&ServiceCd=170&Type=search", "url2": null }, "geometry": { "type": "Point", "coordinates": [ 138.366887924745242, 36.745084659341408 ] } },
{ "type": "Feature", "properties": { "内容": "有限会社安心指定福祉用具貸与事業所なかの店【福祉用具貸与】長野県中野市三好町1丁目4-28", "url": "https://www.kaigokensaku.mhlw.go.jp/20/index.php?action_kouhyou_detail_004_kani=true&JigyosyoCd=2071100495-00&ServiceCd=170&Type=search", "url2": "https://ansin1.com" }, "geometry": { "type": "Point", "coordinates": [ 138.368504517196698, 36.741535019009021 ] } },
{ "type": "Feature", "properties": { "内容": "介護ショップしおいり【福祉用具貸与】長野県大町市大町２５４７－３", "url": "https://www.kaigokensaku.mhlw.go.jp/20/index.php?action_kouhyou_detail_004_kani=true&JigyosyoCd=2071200238-00&ServiceCd=170&Type=search", "url2": "https://ja-jp.facebook.com/shioiri.kagu/" }, "geometry": { "type": "Point", "coordinates": [ 137.859643499999947, 36.5052621 ] } },
{ "type": "Feature", "properties": { "内容": "福祉環境サービス【福祉用具貸与】長野県大町市大町921－9", "url": "https://www.kaigokensaku.mhlw.go.jp/20/index.php?action_kouhyou_detail_004_kani=true&JigyosyoCd=2071200618-00&ServiceCd=170&Type=search", "url2": "作成中" }, "geometry": { "type": "Point", "coordinates": [ 137.8660767, 36.5081999 ] } },
{ "type": "Feature", "properties": { "内容": "有限会社　山室家具店【福祉用具貸与】飯山市大字飯山5238－2", "url": "https://www.kaigokensaku.mhlw.go.jp/20/index.php?action_kouhyou_detail_004_kani=true&JigyosyoCd=2071300178-00&ServiceCd=170&Type=search", "url2": "https://yamamurokague.wixsite.com/mysite" }, "geometry": { "type": "Point", "coordinates": [ 138.373092748934965, 36.870213976142381 ] } },
{ "type": "Feature", "properties": { "内容": "有限会社坂東ホーム【福祉用具貸与】長野県飯山市南町１８－２", "url": "https://www.kaigokensaku.mhlw.go.jp/20/index.php?action_kouhyou_detail_004_kani=true&JigyosyoCd=2071300152-00&ServiceCd=170&Type=search", "url2": null }, "geometry": { "type": "Point", "coordinates": [ 138.362484499999937, 36.8481531 ] } },
{ "type": "Feature", "properties": { "内容": "ダスキンヘルスレント茅野ステーション【福祉用具貸与】長野県茅野市塚原2-13-39竹村ビル1F", "url": "https://www.kaigokensaku.mhlw.go.jp/20/index.php?action_kouhyou_detail_004_kani=true&JigyosyoCd=2071401034-00&ServiceCd=170&Type=search", "url2": "https://healthrent.duskin.jp/" }, "geometry": { "type": "Point", "coordinates": [ 138.157407299999988, 35.9970208 ] } },
{ "type": "Feature", "properties": { "内容": "ケアライフ【福祉用具貸与】長野県茅野市仲町12－16", "url": "https://www.kaigokensaku.mhlw.go.jp/20/index.php?action_kouhyou_detail_004_kani=true&JigyosyoCd=2071401174-00&ServiceCd=170&Type=search", "url2": null }, "geometry": { "type": "Point", "coordinates": [ 138.1543991, 35.9928716 ] } },
{ "type": "Feature", "properties": { "内容": "エフビー介護サービス株式会社　介護ショップほほえみ【福祉用具貸与】広丘吉田664番地1", "url": "https://www.kaigokensaku.mhlw.go.jp/20/index.php?action_kouhyou_detail_004_kani=true&JigyosyoCd=2071501072-00&ServiceCd=170&Type=search", "url2": "https://www.fb-kaigo.co.jp/" }, "geometry": { "type": "Point", "coordinates": [ 137.95208550000001, 36.1649624 ] } },
{ "type": "Feature", "properties": { "内容": "株式会社介護センター花岡塩尻店【福祉用具貸与】長野県塩尻市広丘高出2228-10", "url": "https://www.kaigokensaku.mhlw.go.jp/20/index.php?action_kouhyou_detail_004_kani=true&JigyosyoCd=2071500918-00&ServiceCd=170&Type=search", "url2": "http://ｗｗｗ.kaigo-hanaoka.com/" }, "geometry": { "type": "Point", "coordinates": [ 137.950526299999979, 36.1273652 ] } },
{ "type": "Feature", "properties": { "内容": "サクラケア塩尻店【福祉用具貸与】長野県塩尻市広丘吉田３３４８", "url": "https://www.kaigokensaku.mhlw.go.jp/20/index.php?action_kouhyou_detail_004_kani=true&JigyosyoCd=2071500553-00&ServiceCd=170&Type=search", "url2": "https://sakura-care.co.jp/store/shiojiri/#contact" }, "geometry": { "type": "Point", "coordinates": [ 137.950569399999949, 36.1600862 ] } },
{ "type": "Feature", "properties": { "内容": "介護ショップヒライデ【福祉用具貸与】長野県塩尻市大門五番町１２番４１号", "url": "https://www.kaigokensaku.mhlw.go.jp/20/index.php?action_kouhyou_detail_004_kani=true&JigyosyoCd=2071500686-00&ServiceCd=170&Type=search", "url2": null }, "geometry": { "type": "Point", "coordinates": [ 137.959998499999983, 36.1137393 ] } },
{ "type": "Feature", "properties": { "内容": "株式会社ライフサポート【福祉用具貸与】佐久市猿久保７４２－３", "url": "https://www.kaigokensaku.mhlw.go.jp/20/index.php?action_kouhyou_detail_004_kani=true&JigyosyoCd=2071700880-00&ServiceCd=170&Type=search", "url2": null }, "geometry": { "type": "Point", "coordinates": [ 138.474527699999953, 36.2573536 ] } },
{ "type": "Feature", "properties": { "内容": "有限会社ケーアンドケーメディカル【福祉用具貸与】長野県佐久市臼田1935", "url": "https://www.kaigokensaku.mhlw.go.jp/20/index.php?action_kouhyou_detail_004_kani=true&JigyosyoCd=2072000132-00&ServiceCd=170&Type=search", "url2": "http://www.kk-medical.co.jp" }, "geometry": { "type": "Point", "coordinates": [ 138.473862899999972, 36.196882 ] } },
{ "type": "Feature", "properties": { "内容": "メディコケイジン株式会社【福祉用具貸与】長野県佐久市中込3-15-1", "url": "https://www.kaigokensaku.mhlw.go.jp/20/index.php?action_kouhyou_detail_004_kani=true&JigyosyoCd=2071700070-00&ServiceCd=170&Type=search", "url2": "https://www.keijinnet.or.jp/medico-keijin/" }, "geometry": { "type": "Point", "coordinates": [ 138.477868680287202, 36.227732648424976 ] } },
{ "type": "Feature", "properties": { "内容": "エフビー介護サービス佐久営業所【福祉用具貸与】長野県佐久市長土呂８６２番地２", "url": "https://www.kaigokensaku.mhlw.go.jp/20/index.php?action_kouhyou_detail_004_kani=true&JigyosyoCd=2071700104-00&ServiceCd=170&Type=search", "url2": "http://www.fb-kaigo.co.jp/" }, "geometry": { "type": "Point", "coordinates": [ 138.470666599999959, 36.2924802 ] } },
{ "type": "Feature", "properties": { "内容": "福祉用具ステーション【福祉用具貸与】長野県佐久市桜井671番地１デイサービスセンターひだまり", "url": "https://www.kaigokensaku.mhlw.go.jp/20/index.php?action_kouhyou_detail_004_kani=true&JigyosyoCd=2071701649-00&ServiceCd=170&Type=search", "url2": "http://www.ja-naganokai.or.jp/" }, "geometry": { "type": "Point", "coordinates": [ 138.448507799999987, 36.2380505 ] } },
{ "type": "Feature", "properties": { "内容": "サクラケア佐久店【福祉用具貸与】長野県佐久市中込３６３９－３", "url": "https://www.kaigokensaku.mhlw.go.jp/20/index.php?action_kouhyou_detail_004_kani=true&JigyosyoCd=2071700690-00&ServiceCd=170&Type=search", "url2": "http://www.sakura-care.co.jp/" }, "geometry": { "type": "Point", "coordinates": [ 138.468066186508167, 36.252971137259458 ] } },
{ "type": "Feature", "properties": { "内容": "サクラケア千曲店【福祉用具貸与】長野県千曲市小島３１７２", "url": "https://www.kaigokensaku.mhlw.go.jp/20/index.php?action_kouhyou_detail_004_kani=true&JigyosyoCd=2071800045-00&ServiceCd=170&Type=search", "url2": "http://www.sakura-care.co.jp/" }, "geometry": { "type": "Point", "coordinates": [ 138.1271848, 36.5342994 ] } },
{ "type": "Feature", "properties": { "内容": "株式会社トーカイ長野支店【福祉用具貸与】長野県千曲市稲荷山６８８番地７", "url": "https://www.kaigokensaku.mhlw.go.jp/20/index.php?action_kouhyou_detail_004_kani=true&JigyosyoCd=2071600114-00&ServiceCd=170&Type=search", "url2": "http://www.tokai-corp.com/" }, "geometry": { "type": "Point", "coordinates": [ 138.105828400000064, 36.5396037 ] } },
{ "type": "Feature", "properties": { "内容": "陽だまりの杜　東御【福祉用具貸与】長野県東御市和2080-4", "url": "https://www.kaigokensaku.mhlw.go.jp/20/index.php?action_kouhyou_detail_004_kani=true&JigyosyoCd=2071900399-00&ServiceCd=170&Type=search", "url2": null }, "geometry": { "type": "Point", "coordinates": [ 138.3139152, 36.3761615 ] } },
{ "type": "Feature", "properties": { "内容": "エフビー介護サービス株式会社介護ショップほほえみ安曇野【福祉用具貸与】長野県安曇野市豊科5703-15", "url": "https://www.kaigokensaku.mhlw.go.jp/20/index.php?action_kouhyou_detail_004_kani=true&JigyosyoCd=2074001393-00&ServiceCd=170&Type=search", "url2": "http://www.fb-kaigo.co.jp" }, "geometry": { "type": "Point", "coordinates": [ 137.9075158, 36.3018223 ] } },
{ "type": "Feature", "properties": { "内容": "サクラケア安曇野店【福祉用具貸与】長野県安曇野市豊科4198-5", "url": "https://www.kaigokensaku.mhlw.go.jp/20/index.php?action_kouhyou_detail_004_kani=true&JigyosyoCd=2074001328-00&ServiceCd=170&Type=search", "url2": "https://sakura-care.co.jp/" }, "geometry": { "type": "Point", "coordinates": [ 137.9094547, 36.2902601 ] } },
{ "type": "Feature", "properties": { "内容": "十字屋リース株式会社安曇野営業所【福祉用具貸与】長野県安曇野市豊科4877-1DM1号館1FB室", "url": "https://www.kaigokensaku.mhlw.go.jp/20/index.php?action_kouhyou_detail_004_kani=true&JigyosyoCd=2074001047-00&ServiceCd=170&Type=search", "url2": "http//www.jujiya-l.co.jp" }, "geometry": { "type": "Point", "coordinates": [ 137.903967200000011, 36.3002959 ] } },
{ "type": "Feature", "properties": { "内容": "Jケアリース【福祉用具貸与】長野県小県郡長和町長久保295番２", "url": "https://www.kaigokensaku.mhlw.go.jp/20/index.php?action_kouhyou_detail_004_kani=true&JigyosyoCd=2072200799-00&ServiceCd=170&Type=search", "url2": null }, "geometry": { "type": "Point", "coordinates": [ 138.2697417, 36.2620635 ] } },
{ "type": "Feature", "properties": { "内容": "株式会社介護センター花岡【福祉用具貸与】長野県諏訪郡下諏訪町6188番地1", "url": "https://www.kaigokensaku.mhlw.go.jp/20/index.php?action_kouhyou_detail_004_kani=true&JigyosyoCd=2072300144-00&ServiceCd=170&Type=search", "url2": "http://www.kaigo-hanaoka.com/" }, "geometry": { "type": "Point", "coordinates": [ 138.093931531829867, 36.067682988739712 ] } },
{ "type": "Feature", "properties": { "内容": "株式会社介護センター花岡飯島店【福祉用具貸与】長野県上伊那郡飯島町飯島2050-1", "url": "https://www.kaigokensaku.mhlw.go.jp/20/index.php?action_kouhyou_detail_004_kani=true&JigyosyoCd=2072401421-00&ServiceCd=170&Type=search", "url2": "http://www.kaigo-hanaoka.com/" }, "geometry": { "type": "Point", "coordinates": [ 137.927382200000011, 35.6781982 ] } },
{ "type": "Feature", "properties": { "内容": "介護ショップパインコーン【福祉用具貸与】長野県上伊那郡南箕輪村田畑6125番地１コーポハラ203号", "url": "https://www.kaigokensaku.mhlw.go.jp/20/index.php?action_kouhyou_detail_004_kani=true&JigyosyoCd=2072401595-00&ServiceCd=170&Type=search", "url2": null }, "geometry": { "type": "Point", "coordinates": [ 137.9737577, 35.8643432 ] } },
{ "type": "Feature", "properties": { "内容": "タカノハートワークスショップ宮田【福祉用具貸与】長野県上伊那郡宮田村359-5", "url": "https://www.kaigokensaku.mhlw.go.jp/20/index.php?action_kouhyou_detail_004_kani=true&JigyosyoCd=2072400308-00&ServiceCd=170&Type=search", "url2": "http://www.takano-hw.com/" }, "geometry": { "type": "Point", "coordinates": [ 137.948184199999986, 35.7647049 ] } },
{ "type": "Feature", "properties": { "内容": "株式会社ライフケア【福祉用具貸与】長野県下伊那郡松川町元大島3158-3", "url": "https://www.kaigokensaku.mhlw.go.jp/20/index.php?action_kouhyou_detail_004_kani=true&JigyosyoCd=2072501469-00&ServiceCd=170&Type=search", "url2": null }, "geometry": { "type": "Point", "coordinates": [ 137.911575099999936, 35.599297 ] } },
{ "type": "Feature", "properties": { "内容": "おうえん福祉用具【福祉用具貸与】長野県下伊那郡高森町上市田２４４番地１２", "url": "https://www.kaigokensaku.mhlw.go.jp/20/index.php?action_kouhyou_detail_004_kani=true&JigyosyoCd=2072501436-00&ServiceCd=170&Type=search", "url2": null }, "geometry": { "type": "Point", "coordinates": [ 137.860294100000033, 35.5523798 ] } },
{ "type": "Feature", "properties": { "内容": "有限会社アサイ【福祉用具貸与】長野県木曽郡南木曽町3643-11", "url": "https://www.kaigokensaku.mhlw.go.jp/20/index.php?action_kouhyou_detail_004_kani=true&JigyosyoCd=2072600865-00&ServiceCd=170&Type=search", "url2": null }, "geometry": { "type": "Point", "coordinates": [ 137.608961099999988, 35.6038071 ] } },
{ "type": "Feature", "properties": { "内容": "ＪＡ木曽福祉用具貸与事業所【福祉用具貸与】長野県木曽郡木曽町福島２８６３番地の４", "url": "https://www.kaigokensaku.mhlw.go.jp/20/index.php?action_kouhyou_detail_004_kani=true&JigyosyoCd=2072600196-00&ServiceCd=170&Type=search", "url2": null }, "geometry": { "type": "Point", "coordinates": [ 137.687705160713193, 35.837949774247605 ] } },
{ "type": "Feature", "properties": { "内容": "麻屋大北営業所【福祉用具貸与】長野県北安曇郡松川村7027", "url": "https://www.kaigokensaku.mhlw.go.jp/20/index.php?action_kouhyou_detail_004_kani=true&JigyosyoCd=2072900851-00&ServiceCd=170&Type=search", "url2": "http://asaya-smile.com/" }, "geometry": { "type": "Point", "coordinates": [ 137.857724, 36.4260599 ] } },
{ "type": "Feature", "properties": { "内容": "ケアショップナカジマ【福祉用具貸与】長野県上高井郡小布施町大字押羽77", "url": "https://www.kaigokensaku.mhlw.go.jp/20/index.php?action_kouhyou_detail_004_kani=true&JigyosyoCd=2070103268-00&ServiceCd=170&Type=search", "url2": "http://www.nakajima-wa.com/" }, "geometry": { "type": "Point", "coordinates": [ 138.322752799999989, 36.715104 ] } },
{ "type": "Feature", "properties": { "内容": "有限会社安心指定福祉用具貸与事業所【福祉用具貸与】長野県下高井郡山ノ内町大字平穏３２４３番地の2", "url": "https://www.kaigokensaku.mhlw.go.jp/20/index.php?action_kouhyou_detail_004_kani=true&JigyosyoCd=2073300200-00&ServiceCd=170&Type=search", "url2": "http://www.ansin-shop.com/" }, "geometry": { "type": "Point", "coordinates": [ 138.4134434, 36.7431534 ] } },
{ "type": "Feature", "properties": { "内容": "社会福祉法人　山ノ内町社会福祉協議会　指定福祉用具貸与事業所【福祉用具貸与】長野県下高井郡山ノ内町大字平穏３３５６－３", "url": "https://www.kaigokensaku.mhlw.go.jp/20/index.php?action_kouhyou_detail_004_kani=true&JigyosyoCd=2073300150-00&ServiceCd=170&Type=search", "url2": "http://www.honobono-shakyo.or.jp/" }, "geometry": { "type": "Point", "coordinates": [ 138.413404280950942, 36.744034520280877 ] } },
{ "type": "Feature", "properties": { "内容": "黒姫ホームサービス株式会社【福祉用具貸与】長野県上水内郡信濃町大字柏原２５５２番地８", "url": "https://www.kaigokensaku.mhlw.go.jp/20/index.php?action_kouhyou_detail_004_kani=true&JigyosyoCd=2073400711-00&ServiceCd=170&Type=search", "url2": null }, "geometry": { "type": "Point", "coordinates": [ 138.198472300000049, 36.8083032 ] } }
]
}
