{
"type": "FeatureCollection",
"name": "geo_20_通所リハビリテーション",
"crs": { "type": "name", "properties": { "name": "urn:ogc:def:crs:OGC:1.3:CRS84" } },
"features": [
{ "type": "Feature", "properties": { "内容": "老人保健施設ケアポート三輪【通所リハビリテーション】長野市三輪５-４３-２０", "url": "https://www.kaigokensaku.mhlw.go.jp/20/index.php?action_kouhyou_detail_004_kani=true&JigyosyoCd=2050180062-00&ServiceCd=160&Type=search", "url2": "http://www7.ocn.ne.jp/~keapoto/dei.html" }, "geometry": { "type": "Point", "coordinates": [ 138.202006100000062, 36.6584928 ] } },
{ "type": "Feature", "properties": { "内容": "医療法人大和真田会ましまクリニック【通所リハビリテーション】長野県長野市真島町真島２２０９", "url": "https://www.kaigokensaku.mhlw.go.jp/20/index.php?action_kouhyou_detail_004_kani=true&JigyosyoCd=2010118392-00&ServiceCd=160&Type=search", "url2": null }, "geometry": { "type": "Point", "coordinates": [ 138.209083400000054, 36.6044839 ] } },
{ "type": "Feature", "properties": { "内容": "ゆたかの【通所リハビリテーション】長野県長野市豊野町豊野６３４", "url": "https://www.kaigokensaku.mhlw.go.jp/20/index.php?action_kouhyou_detail_004_kani=true&JigyosyoCd=2053480014-00&ServiceCd=160&Type=search", "url2": "http://www.san-ikukai.or.jp/toyono/yutakano/" }, "geometry": { "type": "Point", "coordinates": [ 138.282821399999989, 36.7109033 ] } },
{ "type": "Feature", "properties": { "内容": "学校法人四徳学園長野保健医療大学附属整形外科リハビリクリニック【通所リハビリテーション】長野県長野市川中島町今井原１１－８", "url": "https://www.kaigokensaku.mhlw.go.jp/20/index.php?action_kouhyou_detail_004_kani=true&JigyosyoCd=2010118889-00&ServiceCd=160&Type=search", "url2": "http://shitoku.ac.jp/rehabili-clinic/" }, "geometry": { "type": "Point", "coordinates": [ 138.145033, 36.5930964 ] } },
{ "type": "Feature", "properties": { "内容": "長野松代総合病院【通所リハビリテーション】長野市松代町松代183", "url": "https://www.kaigokensaku.mhlw.go.jp/20/index.php?action_kouhyou_detail_004_kani=true&JigyosyoCd=2010117246-00&ServiceCd=160&Type=search", "url2": null }, "geometry": { "type": "Point", "coordinates": [ 138.1986861, 36.5638356 ] } },
{ "type": "Feature", "properties": { "内容": "介護老人保健施設コスモスさいなみ通所リハビリテーション【通所リハビリテーション】長野県長野市小島田町４４９番地", "url": "https://www.kaigokensaku.mhlw.go.jp/20/index.php?action_kouhyou_detail_004_kani=true&JigyosyoCd=2050180096-00&ServiceCd=160&Type=search", "url2": "http://www.cosmosnet.or.jp/file/ro_sainamo_top.html" }, "geometry": { "type": "Point", "coordinates": [ 138.1810597, 36.5954945 ] } },
{ "type": "Feature", "properties": { "内容": "長野県厚生農業協同組合連合会南長野医療センター新町病院【通所リハビリテーション】長野県長野市信州新町上条137番地", "url": "https://www.kaigokensaku.mhlw.go.jp/20/index.php?action_kouhyou_detail_004_kani=true&JigyosyoCd=2010119200-00&ServiceCd=160&Type=search", "url2": "http://www.shinmachi-hsp.com" }, "geometry": { "type": "Point", "coordinates": [ 138.021345200000042, 36.5731167 ] } },
{ "type": "Feature", "properties": { "内容": "介護老人保健施設コスモス長野【通所リハビリテーション】長野県長野市小島田町３８０番地", "url": "https://www.kaigokensaku.mhlw.go.jp/20/index.php?action_kouhyou_detail_004_kani=true&JigyosyoCd=2050180039-00&ServiceCd=160&Type=search", "url2": "http://www.cosmosnet.or.jp" }, "geometry": { "type": "Point", "coordinates": [ 138.181251299999985, 36.597411 ] } },
{ "type": "Feature", "properties": { "内容": "コンフォート岡田【通所リハビリテーション】長野県長野市大字北長池９１４番地", "url": "https://www.kaigokensaku.mhlw.go.jp/20/index.php?action_kouhyou_detail_004_kani=true&JigyosyoCd=2050180021-00&ServiceCd=160&Type=search", "url2": "https://www.keiseikai-group.org" }, "geometry": { "type": "Point", "coordinates": [ 138.247595, 36.6501153 ] } },
{ "type": "Feature", "properties": { "内容": "長野医療生活協同組合　南長池診療所【通所リハビリテーション】長野県長野市南長池８３０", "url": "https://www.kaigokensaku.mhlw.go.jp/20/index.php?action_kouhyou_detail_004_kani=true&JigyosyoCd=2010118137-00&ServiceCd=160&Type=search", "url2": "http://www.minaminagaike-clinic.jp" }, "geometry": { "type": "Point", "coordinates": [ 138.231227499999932, 36.6453212 ] } },
{ "type": "Feature", "properties": { "内容": "介護老人保健施設すめらぎ【通所リハビリテーション】長野県長野市中条住良木８２９１番地１", "url": "https://www.kaigokensaku.mhlw.go.jp/20/index.php?action_kouhyou_detail_004_kani=true&JigyosyoCd=2053480022-00&ServiceCd=160&Type=search", "url2": "https://www.sumeragi.jp" }, "geometry": { "type": "Point", "coordinates": [ 138.013400700000062, 36.6053826 ] } },
{ "type": "Feature", "properties": { "内容": "老人保健施設星のさと　通所リハビリテ―ション【通所リハビリテーション】長野県長野市篠ノ井小松原2360", "url": "https://www.kaigokensaku.mhlw.go.jp/20/index.php?action_kouhyou_detail_004_kani=true&JigyosyoCd=2050180070-00&ServiceCd=160&Type=search", "url2": null }, "geometry": { "type": "Point", "coordinates": [ 138.131047800000033, 36.6062752 ] } },
{ "type": "Feature", "properties": { "内容": "ふるさと【通所リハビリテーション】長野県長野市三才683", "url": "https://www.kaigokensaku.mhlw.go.jp/20/index.php?action_kouhyou_detail_004_kani=true&JigyosyoCd=2050180088-00&ServiceCd=160&Type=search", "url2": "http://www.healthcoop-nagano.or.jp" }, "geometry": { "type": "Point", "coordinates": [ 138.251833900000065, 36.6863048 ] } },
{ "type": "Feature", "properties": { "内容": "インターコート藤　通所リハビリテーション【通所リハビリテーション】長野県長野市青木島町綱島字小中島７８２－６", "url": "https://www.kaigokensaku.mhlw.go.jp/20/index.php?action_kouhyou_detail_004_kani=true&JigyosyoCd=2050180054-00&ServiceCd=160&Type=search", "url2": "https://intercourt-fuji.com/" }, "geometry": { "type": "Point", "coordinates": [ 138.207201016086913, 36.611963037052128 ] } },
{ "type": "Feature", "properties": { "内容": "長野医療生活協同組合稲里生協クリニック【通所リハビリテーション】長野県長野市稲里町中央2丁目17－8", "url": "https://www.kaigokensaku.mhlw.go.jp/20/index.php?action_kouhyou_detail_004_kani=true&JigyosyoCd=2010118814-00&ServiceCd=160&Type=search", "url2": "https://healthcoop-nagano.or.jp/archives/office/605" }, "geometry": { "type": "Point", "coordinates": [ 138.1707937, 36.6026407 ] } },
{ "type": "Feature", "properties": { "内容": "長野県厚生農業協同組合連合会南長野医療センター篠ノ井総合病院【通所リハビリテーション】長野県長野市篠ノ井会666-1", "url": "https://www.kaigokensaku.mhlw.go.jp/20/index.php?action_kouhyou_detail_004_kani=true&JigyosyoCd=2010117345-00&ServiceCd=160&Type=search", "url2": "https://shinonoi-ghp.jp" }, "geometry": { "type": "Point", "coordinates": [ 138.149558500000012, 36.5757147 ] } },
{ "type": "Feature", "properties": { "内容": "長野県厚生農業協同組合連合会長野松代総合病院附属若穂病院【通所リハビリテーション】長野県長野市若穂綿内7615-1", "url": "https://www.kaigokensaku.mhlw.go.jp/20/index.php?action_kouhyou_detail_004_kani=true&JigyosyoCd=2010118939-00&ServiceCd=160&Type=search", "url2": "http://www.nagano-matsushiro.or.jp/wakaho/care_daycare.html" }, "geometry": { "type": "Point", "coordinates": [ 138.252065499475094, 36.610890504303271 ] } },
{ "type": "Feature", "properties": { "内容": "介護老人保健施設桜ホームデイケアセンター【通所リハビリテーション】長野県長野市篠ノ井二ツ柳字大当1432-3", "url": "https://www.kaigokensaku.mhlw.go.jp/20/index.php?action_kouhyou_detail_004_kani=true&JigyosyoCd=2050180104-00&ServiceCd=160&Type=search", "url2": "https://hakujinkai-sakurahome.jp/" }, "geometry": { "type": "Point", "coordinates": [ 138.132917438653493, 36.566507764278761 ] } },
{ "type": "Feature", "properties": { "内容": "医療法人愛和会デイケアセンター愛和【通所リハビリテーション】長野県長野市大字鶴賀1044-2愛和病院", "url": "https://www.kaigokensaku.mhlw.go.jp/20/index.php?action_kouhyou_detail_004_kani=true&JigyosyoCd=2070103698-00&ServiceCd=160&Type=search", "url2": "https://aiwahp.net/daycare/" }, "geometry": { "type": "Point", "coordinates": [ 138.195004508242846, 36.646159450113309 ] } },
{ "type": "Feature", "properties": { "内容": "松本中川病院通所リハビリテーション【通所リハビリテーション】長野県松本市野溝西2丁目3番２３号サービス付き高齢者向け住宅「悠庵」１階", "url": "https://www.kaigokensaku.mhlw.go.jp/20/index.php?action_kouhyou_detail_004_kani=true&JigyosyoCd=2010218226-00&ServiceCd=160&Type=search", "url2": "http://www.mnh2001.jp" }, "geometry": { "type": "Point", "coordinates": [ 137.953604, 36.2010231 ] } },
{ "type": "Feature", "properties": { "内容": "介護老人保健施設ハーモニー【通所リハビリテーション】長野県松本市島内広田4064番地２", "url": "https://www.kaigokensaku.mhlw.go.jp/20/index.php?action_kouhyou_detail_004_kani=true&JigyosyoCd=2050280045-00&ServiceCd=160&Type=search", "url2": "http://www.harmony-matsumoto.or.jp" }, "geometry": { "type": "Point", "coordinates": [ 137.947710719022439, 36.242660367216246 ] } },
{ "type": "Feature", "properties": { "内容": "医療法人心泉会上條記念病院【通所リハビリテーション】長野県松本市村井町西2-16-1", "url": "https://www.kaigokensaku.mhlw.go.jp/20/index.php?action_kouhyou_detail_004_kani=true&JigyosyoCd=2010217335-00&ServiceCd=160&Type=search", "url2": "http://www.kamijyomhp.or.jp/kaigo/zaitaku.html" }, "geometry": { "type": "Point", "coordinates": [ 137.947433, 36.1724485 ] } },
{ "type": "Feature", "properties": { "内容": "介護老人保健施設のむぎ【通所リハビリテーション】長野県松本市波田9802-1", "url": "https://www.kaigokensaku.mhlw.go.jp/20/index.php?action_kouhyou_detail_004_kani=true&JigyosyoCd=2052780018-00&ServiceCd=160&Type=search", "url2": "https://nomugi.jp/" }, "geometry": { "type": "Point", "coordinates": [ 137.854937, 36.198239 ] } },
{ "type": "Feature", "properties": { "内容": "相澤通所リハビリテーション「歩み」【通所リハビリテーション】長野県松本市本庄２丁目１０番２１号", "url": "https://www.kaigokensaku.mhlw.go.jp/20/index.php?action_kouhyou_detail_004_kani=true&JigyosyoCd=2070202169-00&ServiceCd=160&Type=search", "url2": "https://jisenkai.aizawahospital.jp/home_medical/" }, "geometry": { "type": "Point", "coordinates": [ 137.975134199999957, 36.2277674 ] } },
{ "type": "Feature", "properties": { "内容": "介護老人保健施設つかまの里【通所リハビリテーション】長野県松本市筑摩３－１５－３１", "url": "https://www.kaigokensaku.mhlw.go.jp/20/index.php?action_kouhyou_detail_004_kani=true&JigyosyoCd=2050280060-00&ServiceCd=160&Type=search", "url2": "http://www.mhl.janis.or.jp/~kokusai/" }, "geometry": { "type": "Point", "coordinates": [ 137.983156, 36.2198244 ] } },
{ "type": "Feature", "properties": { "内容": "寿の里【通所リハビリテーション】長野県松本市寿北８丁目２１番２号", "url": "https://www.kaigokensaku.mhlw.go.jp/20/index.php?action_kouhyou_detail_004_kani=true&JigyosyoCd=2050280011-00&ServiceCd=160&Type=search", "url2": "http://www.seiunkai.or.jp" }, "geometry": { "type": "Point", "coordinates": [ 137.977178891540461, 36.19049394839849 ] } },
{ "type": "Feature", "properties": { "内容": "ローズガーデン【通所リハビリテーション】長野県松本市中山７４９４－８", "url": "https://www.kaigokensaku.mhlw.go.jp/20/index.php?action_kouhyou_detail_004_kani=true&JigyosyoCd=2050280029-00&ServiceCd=160&Type=search", "url2": "http://www.rosegarden-s.com" }, "geometry": { "type": "Point", "coordinates": [ 138.006675200000018, 36.1712388 ] } },
{ "type": "Feature", "properties": { "内容": "一之瀬脳神経外科病院【通所リハビリテーション】長野県松本市島立2093番地", "url": "https://www.kaigokensaku.mhlw.go.jp/20/index.php?action_kouhyou_detail_004_kani=true&JigyosyoCd=2010217756-00&ServiceCd=160&Type=search", "url2": "http://inh.or.jp/" }, "geometry": { "type": "Point", "coordinates": [ 137.937302778434741, 36.229520743635078 ] } },
{ "type": "Feature", "properties": { "内容": "介護老人保健施設山望苑【通所リハビリテーション】長野県松本市大字新村１９５６－１", "url": "https://www.kaigokensaku.mhlw.go.jp/20/index.php?action_kouhyou_detail_004_kani=true&JigyosyoCd=2050280052-00&ServiceCd=160&Type=search", "url2": "http://www.washinkai.jp/policy.html" }, "geometry": { "type": "Point", "coordinates": [ 137.906773499999986, 36.2178606 ] } },
{ "type": "Feature", "properties": { "内容": "通所リハビリテーションスワニーあずさ【通所リハビリテーション】長野県松本市梓川梓２３４４－１", "url": "https://www.kaigokensaku.mhlw.go.jp/20/index.php?action_kouhyou_detail_004_kani=true&JigyosyoCd=2070201807-00&ServiceCd=160&Type=search", "url2": "http://www.azusa-clinic.jp/cgi-bin/azusagawa/siteup.cgi?category=2&page=3" }, "geometry": { "type": "Point", "coordinates": [ 137.866665499999954, 36.2221614 ] } },
{ "type": "Feature", "properties": { "内容": "松本市城山介護老人保健施設　通所リハビリテーション【通所リハビリテーション】長野県松本市蟻ケ崎2132", "url": "https://www.kaigokensaku.mhlw.go.jp/20/index.php?action_kouhyou_detail_004_kani=true&JigyosyoCd=2070203944-00&ServiceCd=160&Type=search", "url2": "http://www.matsu-med.or.jp" }, "geometry": { "type": "Point", "coordinates": [ 137.956124600000066, 36.2524787 ] } },
{ "type": "Feature", "properties": { "内容": "さなだクリニック【通所リハビリテーション】長野県上田市真田町長３９０８番地１", "url": "https://www.kaigokensaku.mhlw.go.jp/20/index.php?action_kouhyou_detail_004_kani=true&JigyosyoCd=2010317770-00&ServiceCd=160&Type=search", "url2": "http://www.keijinnet.or.jp/02_03_5_sanada.html" }, "geometry": { "type": "Point", "coordinates": [ 138.321149500000047, 36.4473682 ] } },
{ "type": "Feature", "properties": { "内容": "長野県厚生農業協同組合連合会鹿教湯三才山ﾘﾊﾋﾞﾘﾃｰｼｮﾝｾﾝﾀｰ介護療養型老人保健施設いずみの【通所リハビリテーション】長野県上田市小泉72番地1", "url": "https://www.kaigokensaku.mhlw.go.jp/20/index.php?action_kouhyou_detail_004_kani=true&JigyosyoCd=2050380050-00&ServiceCd=160&Type=search", "url2": "http://www.ianis.or.jp/use" }, "geometry": { "type": "Point", "coordinates": [ 138.194938699999966, 36.3863681 ] } },
{ "type": "Feature", "properties": { "内容": "丸子中央病院【通所リハビリテーション】長野県上田市中丸子１７７１番地１", "url": "https://www.kaigokensaku.mhlw.go.jp/20/index.php?action_kouhyou_detail_004_kani=true&JigyosyoCd=2010317689-00&ServiceCd=160&Type=search", "url2": "http://maruyamakai.or.jp/maruko-hp/co-deikea.html" }, "geometry": { "type": "Point", "coordinates": [ 138.270923700000026, 36.3264349 ] } },
{ "type": "Feature", "properties": { "内容": "医療法人健静会上田病院【通所リハビリテーション】長野県上田市中央1丁目3番3号", "url": "https://www.kaigokensaku.mhlw.go.jp/20/index.php?action_kouhyou_detail_004_kani=true&JigyosyoCd=2010317077-00&ServiceCd=160&Type=search", "url2": "http://www.ueda-hp.or.jp/" }, "geometry": { "type": "Point", "coordinates": [ 138.251572200000027, 36.3984869 ] } },
{ "type": "Feature", "properties": { "内容": "介護老人保健施設チェリーガーデン【通所リハビリテーション】長野県上田市保野７１０", "url": "https://www.kaigokensaku.mhlw.go.jp/20/index.php?action_kouhyou_detail_004_kani=true&JigyosyoCd=2050380043-00&ServiceCd=160&Type=search", "url2": "http://www.koujin-kai.or.jp/" }, "geometry": { "type": "Point", "coordinates": [ 138.1924838, 36.3743389 ] } },
{ "type": "Feature", "properties": { "内容": "長野県厚生農業協同組合連合会鹿教湯三才山リハビリテーションセンター鹿教湯病院【通所リハビリテーション】上田市鹿教湯温泉１３０８鹿教湯病院", "url": "https://www.kaigokensaku.mhlw.go.jp/20/index.php?action_kouhyou_detail_004_kani=true&JigyosyoCd=2010317713-00&ServiceCd=160&Type=search", "url2": "https://km-rehacenter.jp/" }, "geometry": { "type": "Point", "coordinates": [ 138.135960800000021, 36.3023543 ] } },
{ "type": "Feature", "properties": { "内容": "御所苑【通所リハビリテーション】長野県上田市御所666番地", "url": "https://www.kaigokensaku.mhlw.go.jp/20/index.php?action_kouhyou_detail_004_kani=true&JigyosyoCd=2050380027-00&ServiceCd=160&Type=search", "url2": "http://gosyoen.maruyamakai.jp/" }, "geometry": { "type": "Point", "coordinates": [ 138.234151, 36.3986841 ] } },
{ "type": "Feature", "properties": { "内容": "介護老人保健施設ほのぼの【通所リハビリテーション】長野県上田市住吉322", "url": "https://www.kaigokensaku.mhlw.go.jp/20/index.php?action_kouhyou_detail_004_kani=true&JigyosyoCd=2050380035-00&ServiceCd=160&Type=search", "url2": "http://www.jishyukai.or.jp/honobono/" }, "geometry": { "type": "Point", "coordinates": [ 138.279236, 36.4058444 ] } },
{ "type": "Feature", "properties": { "内容": "ケアホーム上田【通所リハビリテーション】長野県上田市中野29番地2", "url": "https://www.kaigokensaku.mhlw.go.jp/20/index.php?action_kouhyou_detail_004_kani=true&JigyosyoCd=2050380019-00&ServiceCd=160&Type=search", "url2": "http://shioda-hp.jp/" }, "geometry": { "type": "Point", "coordinates": [ 138.197998, 36.3603737 ] } },
{ "type": "Feature", "properties": { "内容": "上田生協診療所通所ﾘﾊﾋﾞﾘﾃｰｼｮﾝ【通所リハビリテーション】長野県上田市上塩尻393-1", "url": "https://www.kaigokensaku.mhlw.go.jp/20/index.php?action_kouhyou_detail_004_kani=true&JigyosyoCd=2010317267-00&ServiceCd=160&Type=search", "url2": "http://www.toshin-iryou.com" }, "geometry": { "type": "Point", "coordinates": [ 138.221359500000062, 36.4148017 ] } },
{ "type": "Feature", "properties": { "内容": "医療法人秀栄会岸医院【通所リハビリテーション】長野県上田市上丸子３２８－１", "url": "https://www.kaigokensaku.mhlw.go.jp/20/index.php?action_kouhyou_detail_004_kani=true&JigyosyoCd=2010317705-00&ServiceCd=160&Type=search", "url2": "http://www.kishi-clinic.or.jp" }, "geometry": { "type": "Point", "coordinates": [ 138.270959700000049, 36.3282124 ] } },
{ "type": "Feature", "properties": { "内容": "医療法人健救会柳澤病院【通所リハビリテーション】長野県上田市中央西一丁目２番１０号", "url": "https://www.kaigokensaku.mhlw.go.jp/20/index.php?action_kouhyou_detail_004_kani=true&JigyosyoCd=2070300831-00&ServiceCd=160&Type=search", "url2": "http://kenkyukai.or.jp" }, "geometry": { "type": "Point", "coordinates": [ 138.248274700000024, 36.4053001 ] } },
{ "type": "Feature", "properties": { "内容": "岡谷市民病院【通所リハビリテーション】長野県岡谷市本町四丁目１１番３３号", "url": "https://www.kaigokensaku.mhlw.go.jp/20/index.php?action_kouhyou_detail_004_kani=true&JigyosyoCd=2010417026-00&ServiceCd=160&Type=search", "url2": "http://www.okaya-hosp.jp" }, "geometry": { "type": "Point", "coordinates": [ 138.048433899999964, 36.0660172 ] } },
{ "type": "Feature", "properties": { "内容": "諏訪湖畔病院【通所リハビリテーション】長野県岡谷市長地小萩１－１１－３０", "url": "https://www.kaigokensaku.mhlw.go.jp/20/index.php?action_kouhyou_detail_004_kani=true&JigyosyoCd=2070400086-00&ServiceCd=160&Type=search", "url2": "http://www.kensei-kai.jp/" }, "geometry": { "type": "Point", "coordinates": [ 138.055602300000032, 36.0808989 ] } },
{ "type": "Feature", "properties": { "内容": "つるみね共立診療所【通所リハビリテーション】長野県岡谷市川岸上1-22-21", "url": "https://www.kaigokensaku.mhlw.go.jp/20/index.php?action_kouhyou_detail_004_kani=true&JigyosyoCd=2010417075-00&ServiceCd=160&Type=search", "url2": "http://www.skhp.or.jp/tsurumine/" }, "geometry": { "type": "Point", "coordinates": [ 138.0339467, 36.0540045 ] } },
{ "type": "Feature", "properties": { "内容": "介護老人保健施設白寿荘通所リハビリテーション【通所リハビリテーション】長野県岡谷市長地小萩1-11-30", "url": "https://www.kaigokensaku.mhlw.go.jp/20/index.php?action_kouhyou_detail_004_kani=true&JigyosyoCd=2070400821-00&ServiceCd=160&Type=search", "url2": "http://kensei-kai.jp/" }, "geometry": { "type": "Point", "coordinates": [ 138.055519, 36.0808878 ] } },
{ "type": "Feature", "properties": { "内容": "介護老人保健施設　千年の緑【通所リハビリテーション】飯田市鼎中平２２５８", "url": "https://www.kaigokensaku.mhlw.go.jp/20/index.php?action_kouhyou_detail_004_kani=true&JigyosyoCd=2070501610-00&ServiceCd=160&Type=search", "url2": null }, "geometry": { "type": "Point", "coordinates": [ 137.826266, 35.5080064 ] } },
{ "type": "Feature", "properties": { "内容": "介護老人保健施設アップルハイツ飯田【通所リハビリテーション】長野県飯田市羽場権現１６１８番地", "url": "https://www.kaigokensaku.mhlw.go.jp/20/index.php?action_kouhyou_detail_004_kani=true&JigyosyoCd=2050580014-00&ServiceCd=160&Type=search", "url2": "http://www.iida.or.jp/related-facility/apple/" }, "geometry": { "type": "Point", "coordinates": [ 137.799015599999962, 35.5206159 ] } },
{ "type": "Feature", "properties": { "内容": "健和会病院【通所リハビリテーション】長野県飯田市鼎中平１９３６", "url": "https://www.kaigokensaku.mhlw.go.jp/20/index.php?action_kouhyou_detail_004_kani=true&JigyosyoCd=2010517205-00&ServiceCd=160&Type=search", "url2": "http://www.kenwakai.or.jp/" }, "geometry": { "type": "Point", "coordinates": [ 137.825041199999987, 35.5054067 ] } },
{ "type": "Feature", "properties": { "内容": "飯田病院附属仲ノ町診療所　通所リハビリテーション丘の上【通所リハビリテーション】長野県飯田市仲ノ町1丁目2番地ウェルネスタウン丘の上", "url": "https://www.kaigokensaku.mhlw.go.jp/20/index.php?action_kouhyou_detail_004_kani=true&JigyosyoCd=2010517726-00&ServiceCd=160&Type=search", "url2": "http:iidahp-okanoue.com/" }, "geometry": { "type": "Point", "coordinates": [ 137.82870928584444, 35.516154635460971 ] } },
{ "type": "Feature", "properties": { "内容": "飯田市立病院介護老人保健施設【通所リハビリテーション】長野県飯田市上郷黒田341番地", "url": "https://www.kaigokensaku.mhlw.go.jp/20/index.php?action_kouhyou_detail_004_kani=true&JigyosyoCd=2050580022-00&ServiceCd=160&Type=search", "url2": "https://www.imh.jp/section/yuuyuu" }, "geometry": { "type": "Point", "coordinates": [ 137.840175199999976, 35.5179668 ] } },
{ "type": "Feature", "properties": { "内容": "介護老人保健施設万年青苑【通所リハビリテーション】長野県飯田市毛賀１７０７番地", "url": "https://www.kaigokensaku.mhlw.go.jp/20/index.php?action_kouhyou_detail_004_kani=true&JigyosyoCd=2050580030-00&ServiceCd=160&Type=search", "url2": "http://www.kizankai.or.jp/omoto/index.html" }, "geometry": { "type": "Point", "coordinates": [ 137.841502100000071, 35.4770412 ] } },
{ "type": "Feature", "properties": { "内容": "介護老人保健施設掬水【通所リハビリテーション】長野県諏訪市豊田８３７－１", "url": "https://www.kaigokensaku.mhlw.go.jp/20/index.php?action_kouhyou_detail_004_kani=true&JigyosyoCd=2050680038-00&ServiceCd=160&Type=search", "url2": "http://www.heisei-kai.jp" }, "geometry": { "type": "Point", "coordinates": [ 138.0953836, 36.0324476 ] } },
{ "type": "Feature", "properties": { "内容": "介護老人保健施設かりんの里【通所リハビリテーション】長野県諏訪市湖岸通り５－１１－５", "url": "https://www.kaigokensaku.mhlw.go.jp/20/index.php?action_kouhyou_detail_004_kani=true&JigyosyoCd=2050680012-00&ServiceCd=160&Type=search", "url2": "http://suwafukushi.com/" }, "geometry": { "type": "Point", "coordinates": [ 138.109298599999988, 36.0421328 ] } },
{ "type": "Feature", "properties": { "内容": "老人保健施設みづうみ【通所リハビリテーション】長野県諏訪市豊田2400-9", "url": "https://www.kaigokensaku.mhlw.go.jp/20/index.php?action_kouhyou_detail_004_kani=true&JigyosyoCd=2050680046-00&ServiceCd=160&Type=search", "url2": "https://fujimihp.com/facility/老人保健施設みづうみ" }, "geometry": { "type": "Point", "coordinates": [ 138.081439047221323, 36.029303923387197 ] } },
{ "type": "Feature", "properties": { "内容": "高齢者総合福祉施設須坂やすらぎの園【通所リハビリテーション】長野県須坂市大字日滝字寺窪２８８７-２", "url": "https://www.kaigokensaku.mhlw.go.jp/20/index.php?action_kouhyou_detail_004_kani=true&JigyosyoCd=2050780010-00&ServiceCd=160&Type=search", "url2": "http://suzaka-yasuraginosono.com/index" }, "geometry": { "type": "Point", "coordinates": [ 138.307191699999947, 36.6510973 ] } },
{ "type": "Feature", "properties": { "内容": "ウィングラス　デイケア【通所リハビリテーション】長野県須坂市大字仁礼７番地１０", "url": "https://www.kaigokensaku.mhlw.go.jp/20/index.php?action_kouhyou_detail_004_kani=true&JigyosyoCd=2050780028-00&ServiceCd=160&Type=search", "url2": "http://www.greenarum.jp" }, "geometry": { "type": "Point", "coordinates": [ 138.338664699999981, 36.6137439 ] } },
{ "type": "Feature", "properties": { "内容": "介護老人保健施設しののめの里【通所リハビリテーション】長野県小諸市東雲5-8-1", "url": "https://www.kaigokensaku.mhlw.go.jp/20/index.php?action_kouhyou_detail_004_kani=true&JigyosyoCd=2050880034-00&ServiceCd=160&Type=search", "url2": "http://www.sinonomenosato.com" }, "geometry": { "type": "Point", "coordinates": [ 138.440851299999963, 36.3334938 ] } },
{ "type": "Feature", "properties": { "内容": "老人保健施設こまくさ【通所リハビリテーション】長野県小諸市南町２－２－２７", "url": "https://www.kaigokensaku.mhlw.go.jp/20/index.php?action_kouhyou_detail_004_kani=true&JigyosyoCd=2050880018-00&ServiceCd=160&Type=search", "url2": "http://komoro-mc.com" }, "geometry": { "type": "Point", "coordinates": [ 138.427819, 36.3230586 ] } },
{ "type": "Feature", "properties": { "内容": "介護老人保健施設メディトピア小諸【通所リハビリテーション】長野県小諸市大字諸３５１番地", "url": "https://www.kaigokensaku.mhlw.go.jp/20/index.php?action_kouhyou_detail_004_kani=true&JigyosyoCd=2050880026-00&ServiceCd=160&Type=search", "url2": "http://www.yanagibashi.or.jp" }, "geometry": { "type": "Point", "coordinates": [ 138.411961499999961, 36.3390064 ] } },
{ "type": "Feature", "properties": { "内容": "老人保健施設はびろの里【通所リハビリテーション】長野県伊那市西箕輪2758-1", "url": "https://www.kaigokensaku.mhlw.go.jp/20/index.php?action_kouhyou_detail_004_kani=true&JigyosyoCd=2050980024-00&ServiceCd=160&Type=search", "url2": "http://www.kamiina-mcoop.com/" }, "geometry": { "type": "Point", "coordinates": [ 137.924805, 35.888089 ] } },
{ "type": "Feature", "properties": { "内容": "富士見高原医療福祉センターみすず診療所【通所リハビリテーション】長野県伊那市美篶７７９3番地１", "url": "https://www.kaigokensaku.mhlw.go.jp/20/index.php?action_kouhyou_detail_004_kani=true&JigyosyoCd=2070900481-00&ServiceCd=160&Type=search", "url2": "http://www.fujimihp.com/" }, "geometry": { "type": "Point", "coordinates": [ 138.001472599999943, 35.8423019 ] } },
{ "type": "Feature", "properties": { "内容": "老人保健施設すずたけ【通所リハビリテーション】長野県伊那市美篶７７９２番地３", "url": "https://www.kaigokensaku.mhlw.go.jp/20/index.php?action_kouhyou_detail_004_kani=true&JigyosyoCd=2050980032-00&ServiceCd=160&Type=search", "url2": null }, "geometry": { "type": "Point", "coordinates": [ 138.001780899999972, 35.8427713 ] } },
{ "type": "Feature", "properties": { "内容": "富士見高原医療福祉センター西箕輪診療所【通所リハビリテーション】長野県伊那市西箕輪6700番地2", "url": "https://www.kaigokensaku.mhlw.go.jp/20/index.php?action_kouhyou_detail_004_kani=true&JigyosyoCd=2010917546-00&ServiceCd=160&Type=search", "url2": "http://www.fujimihp.com/" }, "geometry": { "type": "Point", "coordinates": [ 137.9280516, 35.8758242 ] } },
{ "type": "Feature", "properties": { "内容": "介護老人保健施設みぶの里(通所リハビリテーション)【通所リハビリテーション】長野県伊那市美篶5324-1複合福祉施設みぶの里", "url": "https://www.kaigokensaku.mhlw.go.jp/20/index.php?action_kouhyou_detail_004_kani=true&JigyosyoCd=2050980040-00&ServiceCd=160&Type=search", "url2": "https://s-sawayaka.or.jp" }, "geometry": { "type": "Point", "coordinates": [ 138.006592069975341, 35.832581215091942 ] } },
{ "type": "Feature", "properties": { "内容": "介護老人保健施設辛夷園【通所リハビリテーション】長野県伊那市荒井３８３１", "url": "https://www.kaigokensaku.mhlw.go.jp/20/index.php?action_kouhyou_detail_004_kani=true&JigyosyoCd=2050980016-00&ServiceCd=160&Type=search", "url2": "http://wwwe-seizankai.or.jp/intro.hen1" }, "geometry": { "type": "Point", "coordinates": [ 137.943430300000045, 35.8494251 ] } },
{ "type": "Feature", "properties": { "内容": "老人保健施設フラワーハイツ【通所リハビリテーション】長野県駒ヶ根市赤穂３２４９番地４", "url": "https://www.kaigokensaku.mhlw.go.jp/20/index.php?action_kouhyou_detail_004_kani=true&JigyosyoCd=2051080014-00&ServiceCd=160&Type=search", "url2": "http://inanfukushi.or.jp/" }, "geometry": { "type": "Point", "coordinates": [ 137.919810900000016, 35.7369844 ] } },
{ "type": "Feature", "properties": { "内容": "通所リハビリこもれびの家【通所リハビリテーション】長野県駒ヶ根市赤穂14632-4", "url": "https://www.kaigokensaku.mhlw.go.jp/20/index.php?action_kouhyou_detail_004_kani=true&JigyosyoCd=2071000307-00&ServiceCd=160&Type=search", "url2": "http://suzuran-maeyama.com/concept/komorebi.html" }, "geometry": { "type": "Point", "coordinates": [ 137.9416615, 35.74251 ] } },
{ "type": "Feature", "properties": { "内容": "北信総合病院老人保健施設もえぎ【通所リハビリテーション】長野県中野市吉田１２３-１", "url": "https://www.kaigokensaku.mhlw.go.jp/20/index.php?action_kouhyou_detail_004_kani=true&JigyosyoCd=2051180012-00&ServiceCd=160&Type=search", "url2": "http://www.hokushin-hosp.jp/" }, "geometry": { "type": "Point", "coordinates": [ 138.351921400000037, 36.7525731 ] } },
{ "type": "Feature", "properties": { "内容": "介護老人保健施設虹の家【通所リハビリテーション】長野県大町市大町３１３０", "url": "https://www.kaigokensaku.mhlw.go.jp/20/index.php?action_kouhyou_detail_004_kani=true&JigyosyoCd=2051280010-00&ServiceCd=160&Type=search", "url2": "http://www.kita-alps.omachi.nagano.jp/" }, "geometry": { "type": "Point", "coordinates": [ 137.857185026319939, 36.501429233162007 ] } },
{ "type": "Feature", "properties": { "内容": "医療法人飯山介護老人保健施設みゆき【通所リハビリテーション】長野県飯山市大字下木島9番地", "url": "https://www.kaigokensaku.mhlw.go.jp/20/index.php?action_kouhyou_detail_004_kani=true&JigyosyoCd=2051380018-00&ServiceCd=160&Type=search", "url2": "http://www.miyuki-g.or.jp/service/shisetsu_s_dc.htm" }, "geometry": { "type": "Point", "coordinates": [ 138.3876285, 36.8550558 ] } },
{ "type": "Feature", "properties": { "内容": "アイグレーハート＆ケアクリニック【通所リハビリテーション】長野県茅野市本町東14番地3号", "url": "https://www.kaigokensaku.mhlw.go.jp/20/index.php?action_kouhyou_detail_004_kani=true&JigyosyoCd=2011417512-00&ServiceCd=160&Type=search", "url2": "https://aigleclinic.com/" }, "geometry": { "type": "Point", "coordinates": [ 138.172547900000012, 36.0006504 ] } },
{ "type": "Feature", "properties": { "内容": "土橋整形外科歯科医院【通所リハビリテーション】長野県茅野市塚原２－２－２２", "url": "https://www.kaigokensaku.mhlw.go.jp/20/index.php?action_kouhyou_detail_004_kani=true&JigyosyoCd=2011417173-00&ServiceCd=160&Type=search", "url2": null }, "geometry": { "type": "Point", "coordinates": [ 138.157046, 35.9942151 ] } },
{ "type": "Feature", "properties": { "内容": "介護老人保健施設虹の森【通所リハビリテーション】長野県茅野市ちの3094‐6", "url": "https://www.kaigokensaku.mhlw.go.jp/20/index.php?action_kouhyou_detail_004_kani=true&JigyosyoCd=2051480024-00&ServiceCd=160&Type=search", "url2": "http://www.lcv.ne.jp/~komakusa/" }, "geometry": { "type": "Point", "coordinates": [ 138.15018, 35.9934956 ] } },
{ "type": "Feature", "properties": { "内容": "諏訪中央病院組合介護老人保健施設やすらぎの丘【通所リハビリテーション】長野県茅野市玉川４３００", "url": "https://www.kaigokensaku.mhlw.go.jp/20/index.php?action_kouhyou_detail_004_kani=true&JigyosyoCd=2051480016-00&ServiceCd=160&Type=search", "url2": null }, "geometry": { "type": "Point", "coordinates": [ 138.176958300000024, 35.9910467 ] } },
{ "type": "Feature", "properties": { "内容": "介護老人保健施設まほろばの郷【通所リハビリテーション】長野県塩尻市宗賀１２９５番地", "url": "https://www.kaigokensaku.mhlw.go.jp/20/index.php?action_kouhyou_detail_004_kani=true&JigyosyoCd=2051580021-00&ServiceCd=160&Type=search", "url2": "http://www.keijin-kai.jp/home-health-care/mahorobanosato" }, "geometry": { "type": "Point", "coordinates": [ 137.9330066, 36.1111004 ] } },
{ "type": "Feature", "properties": { "内容": "老人保健施設こもれび【通所リハビリテーション】長野県塩尻市大門六番町４－３６", "url": "https://www.kaigokensaku.mhlw.go.jp/20/index.php?action_kouhyou_detail_004_kani=true&JigyosyoCd=2051580039-00&ServiceCd=160&Type=search", "url2": "http://shiojiri-komorebi.jp/" }, "geometry": { "type": "Point", "coordinates": [ 137.954676699999936, 36.1149112 ] } },
{ "type": "Feature", "properties": { "内容": "ロングライフ塩尻【通所リハビリテーション】長野県塩尻市広丘高出１６１４－１", "url": "https://www.kaigokensaku.mhlw.go.jp/20/index.php?action_kouhyou_detail_004_kani=true&JigyosyoCd=2051580013-00&ServiceCd=160&Type=search", "url2": "http://www.longlife-shiojiri.jp/guide/ambulatory.php" }, "geometry": { "type": "Point", "coordinates": [ 137.959073100000069, 36.1216828 ] } },
{ "type": "Feature", "properties": { "内容": "萌生の里【通所リハビリテーション】長野県塩尻市大字木曽平沢２３９６－１", "url": "https://www.kaigokensaku.mhlw.go.jp/20/index.php?action_kouhyou_detail_004_kani=true&JigyosyoCd=2052680028-00&ServiceCd=160&Type=search", "url2": "https://www.keijin-kai.jp/home-health-care/moeunosato" }, "geometry": { "type": "Point", "coordinates": [ 137.828637800000024, 35.9811914 ] } },
{ "type": "Feature", "properties": { "内容": "社会医療法人財団慈泉会地域在宅医療支援センター塩尻診療所【通所リハビリテーション】長野県塩尻市大字大門79-2", "url": "https://www.kaigokensaku.mhlw.go.jp/20/index.php?action_kouhyou_detail_004_kani=true&JigyosyoCd=2011517261-00&ServiceCd=160&Type=search", "url2": "https://jisenkai.aizawahospital.jp/home_medical/" }, "geometry": { "type": "Point", "coordinates": [ 137.94618401509706, 36.119242485469279 ] } },
{ "type": "Feature", "properties": { "内容": "老人保健施設シルバーポートつかばら【通所リハビリテーション】長野県佐久市塚原字寺脇1894番地1", "url": "https://www.kaigokensaku.mhlw.go.jp/20/index.php?action_kouhyou_detail_004_kani=true&JigyosyoCd=2051780035-00&ServiceCd=160&Type=search", "url2": "https://www.keijinnet.or.jp/" }, "geometry": { "type": "Point", "coordinates": [ 138.436167, 36.2664683 ] } },
{ "type": "Feature", "properties": { "内容": "くろさわ病院【通所リハビリテーション】長野県佐久市中込1丁目17番地8号", "url": "https://www.kaigokensaku.mhlw.go.jp/20/index.php?action_kouhyou_detail_004_kani=true&JigyosyoCd=2011717150-00&ServiceCd=160&Type=search", "url2": "https://www.keijinnet.or.jp/" }, "geometry": { "type": "Point", "coordinates": [ 138.477911073730837, 36.230895652322637 ] } },
{ "type": "Feature", "properties": { "内容": "介護老人保健施設安寿苑【通所リハビリテーション】長野県佐久市中込1丁目17番地8", "url": "https://www.kaigokensaku.mhlw.go.jp/20/index.php?action_kouhyou_detail_004_kani=true&JigyosyoCd=2051780019-00&ServiceCd=160&Type=search", "url2": "http://www.keijinnet.or.jp/welfare/entry/anjuen.html" }, "geometry": { "type": "Point", "coordinates": [ 138.477767200000017, 36.2268593 ] } },
{ "type": "Feature", "properties": { "内容": "介護老人保健施設愛の郷【通所リハビリテーション】長野県佐久市長土呂８６０－２", "url": "https://www.kaigokensaku.mhlw.go.jp/20/index.php?action_kouhyou_detail_004_kani=true&JigyosyoCd=2051780043-00&ServiceCd=160&Type=search", "url2": "http://skdf.jp/" }, "geometry": { "type": "Point", "coordinates": [ 138.471536, 36.2918025 ] } },
{ "type": "Feature", "properties": { "内容": "佐久総合病院老人保健施設【通所リハビリテーション】長野県佐久市臼田779番地4", "url": "https://www.kaigokensaku.mhlw.go.jp/20/index.php?action_kouhyou_detail_004_kani=true&JigyosyoCd=2052080013-00&ServiceCd=160&Type=search", "url2": null }, "geometry": { "type": "Point", "coordinates": [ 138.477778666934228, 36.207822690047749 ] } },
{ "type": "Feature", "properties": { "内容": "デイケアさくら【通所リハビリテーション】長野県佐久市下小田切７３", "url": "https://www.kaigokensaku.mhlw.go.jp/20/index.php?action_kouhyou_detail_004_kani=true&JigyosyoCd=2072000538-00&ServiceCd=160&Type=search", "url2": "http://www.amemiya.or.jp/sakura/index.html" }, "geometry": { "type": "Point", "coordinates": [ 138.4791404, 36.1921826 ] } },
{ "type": "Feature", "properties": { "内容": "千曲中央病院【通所リハビリテーション】長野県千曲市大字杭瀬下58", "url": "https://www.kaigokensaku.mhlw.go.jp/20/index.php?action_kouhyou_detail_004_kani=true&JigyosyoCd=2011817026-00&ServiceCd=160&Type=search", "url2": "http://www.chikuma-chp.or.jp/" }, "geometry": { "type": "Point", "coordinates": [ 138.122929699999986, 36.5302423 ] } },
{ "type": "Feature", "properties": { "内容": "医療法人財団大西会老人保健施設ひまわり【通所リハビリテーション】長野県千曲市大字桑原1670-1", "url": "https://www.kaigokensaku.mhlw.go.jp/20/index.php?action_kouhyou_detail_004_kani=true&JigyosyoCd=2051680011-00&ServiceCd=160&Type=search", "url2": "http://chikuma-chp.com/" }, "geometry": { "type": "Point", "coordinates": [ 138.088707900000031, 36.5254045 ] } },
{ "type": "Feature", "properties": { "内容": "長野寿光会上山田病院【通所リハビリテーション】長野県千曲市上山田温泉3-34-3", "url": "https://www.kaigokensaku.mhlw.go.jp/20/index.php?action_kouhyou_detail_004_kani=true&JigyosyoCd=2011817174-00&ServiceCd=160&Type=search", "url2": "http://naganojukoukai.com/index.html" }, "geometry": { "type": "Point", "coordinates": [ 138.145970600000027, 36.4757367 ] } },
{ "type": "Feature", "properties": { "内容": "医療法人緑風会祢津診療所【通所リハビリテーション】長野県東御市祢津３４３－２シンフォニー", "url": "https://www.kaigokensaku.mhlw.go.jp/20/index.php?action_kouhyou_detail_004_kani=true&JigyosyoCd=2011917040-00&ServiceCd=160&Type=search", "url2": "http://www.ryokufuukai.or.jp/group.html" }, "geometry": { "type": "Point", "coordinates": [ 138.356847900000048, 36.3693463 ] } },
{ "type": "Feature", "properties": { "内容": "介護老人保健施設ハーモニック東部【通所リハビリテーション】長野県東御市祢津３４６－１", "url": "https://www.kaigokensaku.mhlw.go.jp/20/index.php?action_kouhyou_detail_004_kani=true&JigyosyoCd=2052280027-00&ServiceCd=160&Type=search", "url2": "http://www.ryokufuukai.or.jp/group.html" }, "geometry": { "type": "Point", "coordinates": [ 138.3574145, 36.3691518 ] } },
{ "type": "Feature", "properties": { "内容": "有明苑【通所リハビリテーション】長野県安曇野市穂高有明7261-3", "url": "https://www.kaigokensaku.mhlw.go.jp/20/index.php?action_kouhyou_detail_004_kani=true&JigyosyoCd=2052880024-00&ServiceCd=160&Type=search", "url2": "https://ariakeen.jp" }, "geometry": { "type": "Point", "coordinates": [ 137.816710271163942, 36.384579767800226 ] } },
{ "type": "Feature", "properties": { "内容": "介護老人保健施設　孝穂舘【通所リハビリテーション】長野県安曇野市穂高北穂高２５３１-３", "url": "https://www.kaigokensaku.mhlw.go.jp/20/index.php?action_kouhyou_detail_004_kani=true&JigyosyoCd=2052880040-00&ServiceCd=160&Type=search", "url2": "http://www.koumei.or.jp" }, "geometry": { "type": "Point", "coordinates": [ 137.878999499999964, 36.3533415 ] } },
{ "type": "Feature", "properties": { "内容": "介護老人保健施設安曇野メディア【通所リハビリテーション】長野県安曇野市豊科５６３３－１", "url": "https://www.kaigokensaku.mhlw.go.jp/20/index.php?action_kouhyou_detail_004_kani=true&JigyosyoCd=2052880016-00&ServiceCd=160&Type=search", "url2": "http://www.shironishi.or.jp/az/01.htm" }, "geometry": { "type": "Point", "coordinates": [ 137.904487199999949, 36.3042342 ] } },
{ "type": "Feature", "properties": { "内容": "老人保健施設あずみの里【通所リハビリテーション】長野県安曇野市豊科高家5285-11", "url": "https://www.kaigokensaku.mhlw.go.jp/20/index.php?action_kouhyou_detail_004_kani=true&JigyosyoCd=2052880032-00&ServiceCd=160&Type=search", "url2": "http://www18.ocn.ne.jp/~azumino1/kyouritsufukushikai/tokuchou_rouho.html" }, "geometry": { "type": "Point", "coordinates": [ 137.916107799999963, 36.2474265 ] } },
{ "type": "Feature", "properties": { "内容": "相澤通所リハビリテーションあずみの【通所リハビリテーション】長野県安曇野市穂高787", "url": "https://www.kaigokensaku.mhlw.go.jp/20/index.php?action_kouhyou_detail_004_kani=true&JigyosyoCd=2074001138-00&ServiceCd=160&Type=search", "url2": "http://www.ai-hosp.or.jp" }, "geometry": { "type": "Point", "coordinates": [ 137.893947921495823, 36.323477262860514 ] } },
{ "type": "Feature", "properties": { "内容": "佐久総合病院老人保健施設こうみ【通所リハビリテーション】長野県南佐久郡小海町大字小海4487-1", "url": "https://www.kaigokensaku.mhlw.go.jp/20/index.php?action_kouhyou_detail_004_kani=true&JigyosyoCd=2052080039-00&ServiceCd=160&Type=search", "url2": "http://www.sakuhp.or.jp/ja/related/2166/002174.html" }, "geometry": { "type": "Point", "coordinates": [ 138.4846172, 36.0863618 ] } },
{ "type": "Feature", "properties": { "内容": "佐久穂町老人保健施設【通所リハビリテーション】長野県南佐久郡佐久穂町大字高野町３５２番地２", "url": "https://www.kaigokensaku.mhlw.go.jp/20/index.php?action_kouhyou_detail_004_kani=true&JigyosyoCd=2052080021-00&ServiceCd=160&Type=search", "url2": "http://www.town.sakuho.nagano.jp/shisetsu/sayaka.html" }, "geometry": { "type": "Point", "coordinates": [ 138.478244099999984, 36.1632337 ] } },
{ "type": "Feature", "properties": { "内容": "医療法人團康会　軽井沢團クリニック　通所リハビリテーション　介護予防通所リハビリテーション【通所リハビリテーション】長野県北佐久郡軽井沢町大字長倉4417-5", "url": "https://www.kaigokensaku.mhlw.go.jp/20/index.php?action_kouhyou_detail_004_kani=true&JigyosyoCd=2012117327-00&ServiceCd=160&Type=search", "url2": "http://k-dan-clinic.jp/" }, "geometry": { "type": "Point", "coordinates": [ 138.574744, 36.3448237 ] } },
{ "type": "Feature", "properties": { "内容": "介護老人保健施設やまゆりの園【通所リハビリテーション】長野県北佐久郡御代田町大字御代田４１０７－１３９", "url": "https://www.kaigokensaku.mhlw.go.jp/20/index.php?action_kouhyou_detail_004_kani=true&JigyosyoCd=2052180011-00&ServiceCd=160&Type=search", "url2": "http://miyotahp.or.jp/yamayuri/daycare/" }, "geometry": { "type": "Point", "coordinates": [ 138.51615860000004, 36.3116679 ] } },
{ "type": "Feature", "properties": { "内容": "依田窪老人保健施設【通所リハビリテーション】長野県小県郡長和町古町3365-5", "url": "https://www.kaigokensaku.mhlw.go.jp/20/index.php?action_kouhyou_detail_004_kani=true&JigyosyoCd=2052280019-00&ServiceCd=160&Type=search", "url2": "http://www.kokuyou.ne.jp/~r-ikoi/" }, "geometry": { "type": "Point", "coordinates": [ 138.266768100000036, 36.273477 ] } },
{ "type": "Feature", "properties": { "内容": "諏訪共立病院【通所リハビリテーション】長野県諏訪郡下諏訪町矢木町２１４", "url": "https://www.kaigokensaku.mhlw.go.jp/20/index.php?action_kouhyou_detail_004_kani=true&JigyosyoCd=2012317091-00&ServiceCd=160&Type=search", "url2": "http://www.skhp.or.jp/" }, "geometry": { "type": "Point", "coordinates": [ 138.081651500000021, 36.0766707 ] } },
{ "type": "Feature", "properties": { "内容": "介護老人保健施設グレイスフル下諏訪【通所リハビリテーション】長野県諏訪郡下諏訪町９３７５－１", "url": "https://www.kaigokensaku.mhlw.go.jp/20/index.php?action_kouhyou_detail_004_kani=true&JigyosyoCd=2052380025-00&ServiceCd=160&Type=search", "url2": "http://www.sun-vision.or.jp/" }, "geometry": { "type": "Point", "coordinates": [ 138.106794700000023, 36.0672207 ] } },
{ "type": "Feature", "properties": { "内容": "老健すずかぜ　通所リハビリテーション【通所リハビリテーション】長野県諏訪郡下諏訪町西赤砂4429-6諏訪共立ケアセンター赤砂", "url": "https://www.kaigokensaku.mhlw.go.jp/20/index.php?action_kouhyou_detail_004_kani=true&JigyosyoCd=2052380047-00&ServiceCd=160&Type=search", "url2": "ｈｐｐｔ：//www.ｓｋｈｐ.or.jp/" }, "geometry": { "type": "Point", "coordinates": [ 138.076344467073113, 36.063871933037746 ] } },
{ "type": "Feature", "properties": { "内容": "老人保健施設あららぎ【通所リハビリテーション】長野県諏訪郡富士見町落合11106-1", "url": "https://www.kaigokensaku.mhlw.go.jp/20/index.php?action_kouhyou_detail_004_kani=true&JigyosyoCd=2052380017-00&ServiceCd=160&Type=search", "url2": "https://fujimihp.com/facility/%e8%80%81%e4%ba%ba%e4%bf%9d%e5%81%a5%e6%96%bd%e8%a8%ad%e3%81%82%e3%82%89%e3%82%89%e3%81%8e/" }, "geometry": { "type": "Point", "coordinates": [ 138.243953933729614, 35.914652429958352 ] } },
{ "type": "Feature", "properties": { "内容": "長野県厚生農業協同組合連合会富士見高原医療福祉センター中新田診療所【通所リハビリテーション】長野県諏訪郡原村13221番地2", "url": "https://www.kaigokensaku.mhlw.go.jp/20/index.php?action_kouhyou_detail_004_kani=true&JigyosyoCd=2012317190-00&ServiceCd=160&Type=search", "url2": "http://fujimihp.com/" }, "geometry": { "type": "Point", "coordinates": [ 138.236790954521581, 35.956015012819542 ] } },
{ "type": "Feature", "properties": { "内容": "介護老人保健施設さくらの【通所リハビリテーション】長野県諏訪郡原村13220番地1", "url": "https://www.kaigokensaku.mhlw.go.jp/20/index.php?action_kouhyou_detail_004_kani=true&JigyosyoCd=2052300015-00&ServiceCd=160&Type=search", "url2": "http://fujimihp.com/" }, "geometry": { "type": "Point", "coordinates": [ 138.2180922, 35.9617175 ] } },
{ "type": "Feature", "properties": { "内容": "両小野診療所【通所リハビリテーション】長野県上伊那郡辰野町小野1290-20", "url": "https://www.kaigokensaku.mhlw.go.jp/20/index.php?action_kouhyou_detail_004_kani=true&JigyosyoCd=2012417636-00&ServiceCd=160&Type=search", "url2": "http://www.fujimihp.com/?page_id=2551" }, "geometry": { "type": "Point", "coordinates": [ 137.969575310271694, 36.046189214313777 ] } },
{ "type": "Feature", "properties": { "内容": "老人保健施設きりとう【通所リハビリテーション】長野県上伊那郡辰野町小野1290番地5", "url": "https://www.kaigokensaku.mhlw.go.jp/20/index.php?action_kouhyou_detail_004_kani=true&JigyosyoCd=2052480056-00&ServiceCd=160&Type=search", "url2": "https://fujimihp.com/facility/" }, "geometry": { "type": "Point", "coordinates": [ 137.969080425656159, 36.046158739571155 ] } },
{ "type": "Feature", "properties": { "内容": "上伊那生協病院【通所リハビリテーション】長野県上伊那郡箕輪町大字中箕輪11324番地", "url": "https://www.kaigokensaku.mhlw.go.jp/20/index.php?action_kouhyou_detail_004_kani=true&JigyosyoCd=2012417537-00&ServiceCd=160&Type=search", "url2": "http://www.kamiina-mcoop.com" }, "geometry": { "type": "Point", "coordinates": [ 137.992344, 35.9032832 ] } },
{ "type": "Feature", "properties": { "内容": "介護老人保健施設　わかな【通所リハビリテーション】長野県上伊那郡箕輪町東箕輪大字東箕輪３２９６－１", "url": "https://www.kaigokensaku.mhlw.go.jp/20/index.php?action_kouhyou_detail_004_kani=true&JigyosyoCd=2052480031-00&ServiceCd=160&Type=search", "url2": "http://www.heisei-kai.jp/" }, "geometry": { "type": "Point", "coordinates": [ 137.994440019404578, 35.936003105484879 ] } },
{ "type": "Feature", "properties": { "内容": "デイケアやまなみ【通所リハビリテーション】長野県上伊那郡飯島町2050-1", "url": "https://www.kaigokensaku.mhlw.go.jp/20/index.php?action_kouhyou_detail_004_kani=true&JigyosyoCd=2072401561-00&ServiceCd=160&Type=search", "url2": "http://www.kamiina-mcoop.com/" }, "geometry": { "type": "Point", "coordinates": [ 137.9196478, 35.6766929 ] } },
{ "type": "Feature", "properties": { "内容": "介護老人保健施設プラムの里【通所リハビリテーション】長野県上伊那郡宮田村4804-1", "url": "https://www.kaigokensaku.mhlw.go.jp/20/index.php?action_kouhyou_detail_004_kani=true&JigyosyoCd=2052480023-00&ServiceCd=160&Type=search", "url2": "http://s-sawayaka.or.jp/" }, "geometry": { "type": "Point", "coordinates": [ 137.9428292, 35.7510211 ] } },
{ "type": "Feature", "properties": { "内容": "下伊那赤十字病院【通所リハビリテーション】長野県下伊那郡松川町元大島３１５９－１", "url": "https://www.kaigokensaku.mhlw.go.jp/20/index.php?action_kouhyou_detail_004_kani=true&JigyosyoCd=2012517187-00&ServiceCd=160&Type=search", "url2": "http://shimoina.jrc.or.jp" }, "geometry": { "type": "Point", "coordinates": [ 137.911455599999954, 35.6001914 ] } },
{ "type": "Feature", "properties": { "内容": "下伊那厚生病院【通所リハビリテーション】長野県下伊那郡高森町吉田４８１番地１３", "url": "https://www.kaigokensaku.mhlw.go.jp/20/index.php?action_kouhyou_detail_004_kani=true&JigyosyoCd=2012517559-00&ServiceCd=160&Type=search", "url2": "http://www.shimoina-hp.jp" }, "geometry": { "type": "Point", "coordinates": [ 137.888169799999986, 35.5511471 ] } },
{ "type": "Feature", "properties": { "内容": "円会センテナリアン【通所リハビリテーション】長野県下伊那郡高森町牛牧２４６８番地４", "url": "https://www.kaigokensaku.mhlw.go.jp/20/index.php?action_kouhyou_detail_004_kani=true&JigyosyoCd=2052580012-00&ServiceCd=160&Type=search", "url2": "http://www.seguchi-nouge.or.jp/cente-toppage.html" }, "geometry": { "type": "Point", "coordinates": [ 137.852089, 35.5606287 ] } },
{ "type": "Feature", "properties": { "内容": "長野県阿南介護老人保健施設【通所リハビリテーション】長野県下伊那郡阿南町北條２００９－１", "url": "https://www.kaigokensaku.mhlw.go.jp/20/index.php?action_kouhyou_detail_004_kani=true&JigyosyoCd=2052580038-00&ServiceCd=160&Type=search", "url2": "http://anan-hosp.jp/ailife/index.html" }, "geometry": { "type": "Point", "coordinates": [ 137.834708699999965, 35.3342035 ] } },
{ "type": "Feature", "properties": { "内容": "介護老人保健施設アルテンハイム会地の郷　通所リハビリテーション【通所リハビリテーション】長野県下伊那郡阿智村駒場１２４－１", "url": "https://www.kaigokensaku.mhlw.go.jp/20/index.php?action_kouhyou_detail_004_kani=true&JigyosyoCd=2052580046-00&ServiceCd=160&Type=search", "url2": "http://www.alten-heim.com/alten/alten.html" }, "geometry": { "type": "Point", "coordinates": [ 137.747035099999948, 35.4490623 ] } },
{ "type": "Feature", "properties": { "内容": "介護老人保健施設はやしの杜【通所リハビリテーション】長野県下伊那郡豊丘村大字神稲４１７６", "url": "https://www.kaigokensaku.mhlw.go.jp/20/index.php?action_kouhyou_detail_004_kani=true&JigyosyoCd=2052580020-00&ServiceCd=160&Type=search", "url2": "https://hayashinomori.notion.site/" }, "geometry": { "type": "Point", "coordinates": [ 137.8969217, 35.5430317 ] } },
{ "type": "Feature", "properties": { "内容": "長野県木曽介護老人保健施設【通所リハビリテーション】木曽郡木曽町福島６６１３－４", "url": "https://www.kaigokensaku.mhlw.go.jp/20/index.php?action_kouhyou_detail_004_kani=true&JigyosyoCd=2052680010-00&ServiceCd=160&Type=search", "url2": "https://kiso-hosp.jp/" }, "geometry": { "type": "Point", "coordinates": [ 137.683886600000051, 35.8355507 ] } },
{ "type": "Feature", "properties": { "内容": "医療法人玉井会玉井医院【通所リハビリテーション】長野県東筑摩郡麻績村麻４１５６－１", "url": "https://www.kaigokensaku.mhlw.go.jp/20/index.php?action_kouhyou_detail_004_kani=true&JigyosyoCd=2012717126-00&ServiceCd=160&Type=search", "url2": "hiroba-tamai.com" }, "geometry": { "type": "Point", "coordinates": [ 138.051122299999946, 36.4590635 ] } },
{ "type": "Feature", "properties": { "内容": "山形協立診療所【通所リハビリテーション】長野県東筑摩郡山形村２５２４-１", "url": "https://www.kaigokensaku.mhlw.go.jp/20/index.php?action_kouhyou_detail_004_kani=true&JigyosyoCd=2012717068-00&ServiceCd=160&Type=search", "url2": "http://www.chushin-miniren.gr.jp/yamagata/" }, "geometry": { "type": "Point", "coordinates": [ 137.874944231846598, 36.162977911410238 ] } },
{ "type": "Feature", "properties": { "内容": "介護老人保健施設にしじょう通所リハビリテーション【通所リハビリテーション】長野県東筑摩郡筑北村西条３８６８－１", "url": "https://www.kaigokensaku.mhlw.go.jp/20/index.php?action_kouhyou_detail_004_kani=true&JigyosyoCd=2052780026-00&ServiceCd=160&Type=search", "url2": "http://www.ten-yu-do.jp/" }, "geometry": { "type": "Point", "coordinates": [ 138.011443044659501, 36.405367006889243 ] } },
{ "type": "Feature", "properties": { "内容": "長野県厚生農業協同組合連合会　北アルプス医療センターあづみ病院【通所リハビリテーション】長野県北安曇郡池田町大字池田3207番地1", "url": "https://www.kaigokensaku.mhlw.go.jp/20/index.php?action_kouhyou_detail_004_kani=true&JigyosyoCd=2012917064-00&ServiceCd=160&Type=search", "url2": "https://www.azumi-ghp.jp/" }, "geometry": { "type": "Point", "coordinates": [ 137.8733403, 36.420746 ] } },
{ "type": "Feature", "properties": { "内容": "介護老人保健施設ライフ２【通所リハビリテーション】長野県北安曇郡松川村字南神戸４３６０-１７", "url": "https://www.kaigokensaku.mhlw.go.jp/20/index.php?action_kouhyou_detail_004_kani=true&JigyosyoCd=2052980030-00&ServiceCd=160&Type=search", "url2": "http://koushu-nagano.jp/index.php?id=26" }, "geometry": { "type": "Point", "coordinates": [ 137.848067899999933, 36.3954319 ] } },
{ "type": "Feature", "properties": { "内容": "介護老人保健施設孝松舘【通所リハビリテーション】長野県北安曇郡松川村東川原５６５０－２３", "url": "https://www.kaigokensaku.mhlw.go.jp/20/index.php?action_kouhyou_detail_004_kani=true&JigyosyoCd=2052980014-00&ServiceCd=160&Type=search", "url2": "http://www.koumei.or.jp" }, "geometry": { "type": "Point", "coordinates": [ 137.866583600000013, 36.403264 ] } },
{ "type": "Feature", "properties": { "内容": "介護老人保健施設白馬メディア【通所リハビリテーション】長野県北安曇郡白馬村神城２２８４４番地", "url": "https://www.kaigokensaku.mhlw.go.jp/20/index.php?action_kouhyou_detail_004_kani=true&JigyosyoCd=2052980022-00&ServiceCd=160&Type=search", "url2": "http://www.shironishi.or.jp/" }, "geometry": { "type": "Point", "coordinates": [ 137.847246300000052, 36.6687329 ] } },
{ "type": "Feature", "properties": { "内容": "岡野医院【通所リハビリテーション】長野県上高井郡小布施町六川１４", "url": "https://www.kaigokensaku.mhlw.go.jp/20/index.php?action_kouhyou_detail_004_kani=true&JigyosyoCd=2013210154-00&ServiceCd=160&Type=search", "url2": null }, "geometry": { "type": "Point", "coordinates": [ 138.322391050207358, 36.699415849249917 ] } },
{ "type": "Feature", "properties": { "内容": "特定医療法人新生病院【通所リハビリテーション】長野県上高井郡小布施町８５１番地４", "url": "https://www.kaigokensaku.mhlw.go.jp/20/index.php?action_kouhyou_detail_004_kani=true&JigyosyoCd=2013217068-00&ServiceCd=160&Type=search", "url2": "http://www.newlife.or.jp" }, "geometry": { "type": "Point", "coordinates": [ 138.318677222228985, 36.689646137641617 ] } },
{ "type": "Feature", "properties": { "内容": "介護老人保健施設朝日ホームおんせんリハビリテーションセンター【通所リハビリテーション】長野県上高井郡高山村大字牧１５１番地１", "url": "https://www.kaigokensaku.mhlw.go.jp/20/index.php?action_kouhyou_detail_004_kani=true&JigyosyoCd=2053280018-00&ServiceCd=160&Type=search", "url2": "http://www.dia.janis.or.jp/~asahi-t/" }, "geometry": { "type": "Point", "coordinates": [ 138.376562499999977, 36.6798428 ] } }
]
}
