{
"type": "FeatureCollection",
"name": "geo_20_地域密着型介護老人福祉施設入所者生活介護",
"crs": { "type": "name", "properties": { "name": "urn:ogc:def:crs:OGC:1.3:CRS84" } },
"features": [
{ "type": "Feature", "properties": { "内容": "地域密着型介護老人福祉施設やすらぎの園【地域密着型介護老人福祉施設入所者生活介護】長野県長野市篠ノ井杵淵字新田前213番地4", "url": "https://www.kaigokensaku.mhlw.go.jp/20/index.php?action_kouhyou_detail_004_kani=true&JigyosyoCd=2090100625-00&ServiceCd=540&Type=search", "url2": "http://m-yasuragi.com" }, "geometry": { "type": "Point", "coordinates": [ 138.184243199999969, 36.5829429 ] } },
{ "type": "Feature", "properties": { "内容": "柳原ふれあい荘【地域密着型介護老人福祉施設入所者生活介護】長野県長野市大字柳原1379番地1", "url": "https://www.kaigokensaku.mhlw.go.jp/20/index.php?action_kouhyou_detail_004_kani=true&JigyosyoCd=2090100476-00&ServiceCd=540&Type=search", "url2": "http://www.fureaiso.com/s_tokuyo/yanagihara/top" }, "geometry": { "type": "Point", "coordinates": [ 138.2570862, 36.6623801 ] } },
{ "type": "Feature", "properties": { "内容": "地域密着型特別養護老人ホーム山布施の里【地域密着型介護老人福祉施設入所者生活介護】長野県長野市篠ノ井山布施8485番地1地域密着型特別養護老人ホーム　山布施の里", "url": "https://www.kaigokensaku.mhlw.go.jp/20/index.php?action_kouhyou_detail_004_kani=true&JigyosyoCd=2090100641-00&ServiceCd=540&Type=search", "url2": "http://www.minamifukushi.or.jp" }, "geometry": { "type": "Point", "coordinates": [ 138.095483829499784, 36.617541143677549 ] } },
{ "type": "Feature", "properties": { "内容": "若槻ホーム別館【地域密着型介護老人福祉施設入所者生活介護】長野県長野市上野1丁目1462-1", "url": "https://www.kaigokensaku.mhlw.go.jp/20/index.php?action_kouhyou_detail_004_kani=true&JigyosyoCd=2090100732-00&ServiceCd=540&Type=search", "url2": "http://care-net.biz/20/wakatsuki/" }, "geometry": { "type": "Point", "coordinates": [ 138.226097200000027, 36.6921752 ] } },
{ "type": "Feature", "properties": { "内容": "コンフォートにしつるが【地域密着型介護老人福祉施設入所者生活介護】長野県長野市大字鶴賀西鶴賀町1940番地", "url": "https://www.kaigokensaku.mhlw.go.jp/20/index.php?action_kouhyou_detail_004_kani=true&JigyosyoCd=2090100427-00&ServiceCd=540&Type=search", "url2": "https://kmhg.jp/" }, "geometry": { "type": "Point", "coordinates": [ 138.196570699999938, 36.6536711 ] } },
{ "type": "Feature", "properties": { "内容": "地域密着型特別養護老人ホーム　ぬくもりの里伊勢宮【地域密着型介護老人福祉施設入所者生活介護】長野県長野市伊勢宮2-1-1", "url": "https://www.kaigokensaku.mhlw.go.jp/20/index.php?action_kouhyou_detail_004_kani=true&JigyosyoCd=2090100872-00&ServiceCd=540&Type=search", "url2": "http://www.serita-fukushi.or.jp/isemiya/" }, "geometry": { "type": "Point", "coordinates": [ 138.171914995770294, 36.631003299084036 ] } },
{ "type": "Feature", "properties": { "内容": "グリーンヒル【地域密着型介護老人福祉施設入所者生活介護】長野県長野市篠ノ井布施五明1973番地", "url": "https://www.kaigokensaku.mhlw.go.jp/20/index.php?action_kouhyou_detail_004_kani=true&JigyosyoCd=2090100633-00&ServiceCd=540&Type=search", "url2": null }, "geometry": { "type": "Point", "coordinates": [ 138.11700129999997, 36.574075 ] } },
{ "type": "Feature", "properties": { "内容": "ヒューマンヘリテージ神明34【地域密着型介護老人福祉施設入所者生活介護】長野県長野市神明34番地", "url": "https://www.kaigokensaku.mhlw.go.jp/20/index.php?action_kouhyou_detail_004_kani=true&JigyosyoCd=2090101185-00&ServiceCd=540&Type=search", "url2": "http://www.humanheritage.net/shinmei/" }, "geometry": { "type": "Point", "coordinates": [ 138.1807666, 36.5891914 ] } },
{ "type": "Feature", "properties": { "内容": "富竹の里和み【地域密着型介護老人福祉施設入所者生活介護】長野県長野市大字富竹1621番地", "url": "https://www.kaigokensaku.mhlw.go.jp/20/index.php?action_kouhyou_detail_004_kani=true&JigyosyoCd=2090100617-00&ServiceCd=540&Type=search", "url2": "http://tomitake-carenet.com/" }, "geometry": { "type": "Point", "coordinates": [ 138.257359916008028, 36.672641279287433 ] } },
{ "type": "Feature", "properties": { "内容": "第２ふれあい荘【地域密着型介護老人福祉施設入所者生活介護】長野県長野市松代町西寺尾1000番地", "url": "https://www.kaigokensaku.mhlw.go.jp/20/index.php?action_kouhyou_detail_004_kani=true&JigyosyoCd=2090100591-00&ServiceCd=540&Type=search", "url2": "https://fureaiso.shinshi-fukushi.com/" }, "geometry": { "type": "Point", "coordinates": [ 138.196447300000045, 36.5753305 ] } },
{ "type": "Feature", "properties": { "内容": "地域密着型特別養護老人ホーム光和【地域密着型介護老人福祉施設入所者生活介護】長野県長野市三輪1317-10地域密着型特別養護老人ホーム光和", "url": "https://www.kaigokensaku.mhlw.go.jp/20/index.php?action_kouhyou_detail_004_kani=true&JigyosyoCd=2090100575-00&ServiceCd=540&Type=search", "url2": "http://kowa-fukushi.or.jp/" }, "geometry": { "type": "Point", "coordinates": [ 138.192508508459468, 36.655347210108367 ] } },
{ "type": "Feature", "properties": { "内容": "柴やすらぎの園【地域密着型介護老人福祉施設入所者生活介護】長野県長野市松代町柴３３０番地１", "url": "https://www.kaigokensaku.mhlw.go.jp/20/index.php?action_kouhyou_detail_004_kani=true&JigyosyoCd=2090100351-00&ServiceCd=540&Type=search", "url2": "https://m-yasuragi.com" }, "geometry": { "type": "Point", "coordinates": [ 138.202123700000016, 36.5926431 ] } },
{ "type": "Feature", "properties": { "内容": "グリーンヒル篠ノ井中央館【地域密着型介護老人福祉施設入所者生活介護】長野県長野市篠ノ井布施高田６９２－１", "url": "https://www.kaigokensaku.mhlw.go.jp/20/index.php?action_kouhyou_detail_004_kani=true&JigyosyoCd=2090100518-00&ServiceCd=540&Type=search", "url2": "http://shitoku.or.jp/" }, "geometry": { "type": "Point", "coordinates": [ 138.143382141664119, 36.578984992178867 ] } },
{ "type": "Feature", "properties": { "内容": "地域密着型特別養護老人ホーム　栗田の里２号館【地域密着型介護老人福祉施設入所者生活介護】長野県長野市栗田747-6", "url": "https://www.kaigokensaku.mhlw.go.jp/20/index.php?action_kouhyou_detail_004_kani=true&JigyosyoCd=2090100807-00&ServiceCd=540&Type=search", "url2": "http://www.minamifukushi.or.jp/" }, "geometry": { "type": "Point", "coordinates": [ 138.199133195106469, 36.639060007279824 ] } },
{ "type": "Feature", "properties": { "内容": "地域密着型介護老人福祉施設　小規模特別養護老人ホーム大本願ユートピアわかほ【地域密着型介護老人福祉施設入所者生活介護】長野県長野市若穂綿内4429番地", "url": "https://www.kaigokensaku.mhlw.go.jp/20/index.php?action_kouhyou_detail_004_kani=true&JigyosyoCd=2090100344-00&ServiceCd=540&Type=search", "url2": "http://zenkouji-dw.com/" }, "geometry": { "type": "Point", "coordinates": [ 138.277680938098115, 36.608642950679595 ] } },
{ "type": "Feature", "properties": { "内容": "地域密着型介護老人福祉施設博仁会篠ノ井桜荘【地域密着型介護老人福祉施設入所者生活介護】長野県長野市篠ノ井二ツ柳字大当1535-1", "url": "https://www.kaigokensaku.mhlw.go.jp/20/index.php?action_kouhyou_detail_004_kani=true&JigyosyoCd=2090100609-00&ServiceCd=540&Type=search", "url2": "https://hakujinkai-nagano.or.jp/" }, "geometry": { "type": "Point", "coordinates": [ 138.129033599999957, 36.5693341 ] } },
{ "type": "Feature", "properties": { "内容": "ケアホームよしだ【地域密着型介護老人福祉施設入所者生活介護】長野県長野市吉田3丁目13-27", "url": "https://www.kaigokensaku.mhlw.go.jp/20/index.php?action_kouhyou_detail_004_kani=true&JigyosyoCd=2090100658-00&ServiceCd=540&Type=search", "url2": "http://s-sakae.com" }, "geometry": { "type": "Point", "coordinates": [ 138.220323300000018, 36.6710802 ] } },
{ "type": "Feature", "properties": { "内容": "介護老人福祉施設　愛ランドはるかぜ【地域密着型介護老人福祉施設入所者生活介護】長野県長野市大字大豆島5282番地", "url": "https://www.kaigokensaku.mhlw.go.jp/20/index.php?action_kouhyou_detail_004_kani=true&JigyosyoCd=2090100583-00&ServiceCd=540&Type=search", "url2": "ｈｔｔｐ：//iland-jikeikai.jp" }, "geometry": { "type": "Point", "coordinates": [ 138.234532400000035, 36.6277879 ] } },
{ "type": "Feature", "properties": { "内容": "地域密着型介護老人福祉施設コスモス苑こうほく【地域密着型介護老人福祉施設入所者生活介護】長野県長野市小島田町３３０番地１", "url": "https://www.kaigokensaku.mhlw.go.jp/20/index.php?action_kouhyou_detail_004_kani=true&JigyosyoCd=2090101219-00&ServiceCd=540&Type=search", "url2": "http://cosmosnet.or.jp/index.php" }, "geometry": { "type": "Point", "coordinates": [ 138.1871296, 36.5975303 ] } },
{ "type": "Feature", "properties": { "内容": "地域密着型特別養護ホーム光和若里【地域密着型介護老人福祉施設入所者生活介護】長野県長野市若里四丁目10番19号", "url": "https://www.kaigokensaku.mhlw.go.jp/20/index.php?action_kouhyou_detail_004_kani=true&JigyosyoCd=2090101425-00&ServiceCd=540&Type=search", "url2": "http://kowa-fukushi.or.jp" }, "geometry": { "type": "Point", "coordinates": [ 138.1844886, 36.6303654 ] } },
{ "type": "Feature", "properties": { "内容": "シルバーハウスレインボー【地域密着型介護老人福祉施設入所者生活介護】長野県長野市豊野石749-3", "url": "https://www.kaigokensaku.mhlw.go.jp/20/index.php?action_kouhyou_detail_004_kani=true&JigyosyoCd=2090100849-00&ServiceCd=540&Type=search", "url2": null }, "geometry": { "type": "Point", "coordinates": [ 138.259260499999982, 36.7001816 ] } },
{ "type": "Feature", "properties": { "内容": "地域密着型介護老人福祉施設博仁会川中島桜荘【地域密着型介護老人福祉施設入所者生活介護】長野県長野市川中島町今里字石原1034-1", "url": "https://www.kaigokensaku.mhlw.go.jp/20/index.php?action_kouhyou_detail_004_kani=true&JigyosyoCd=2090100336-00&ServiceCd=540&Type=search", "url2": "https://hakujinkai-nagano.or.jp/" }, "geometry": { "type": "Point", "coordinates": [ 138.142735699694157, 36.602321646001727 ] } },
{ "type": "Feature", "properties": { "内容": "地域密着型介護老人福祉施設コスモス苑【地域密着型介護老人福祉施設入所者生活介護】長野県長野市差出南三丁目７番１号", "url": "https://www.kaigokensaku.mhlw.go.jp/20/index.php?action_kouhyou_detail_004_kani=true&JigyosyoCd=2090100443-00&ServiceCd=540&Type=search", "url2": "http://cosmosnet.or.jp/guide/nyusho/cosmos_en.html" }, "geometry": { "type": "Point", "coordinates": [ 138.177208463893066, 36.628005486474549 ] } },
{ "type": "Feature", "properties": { "内容": "稲里ふれあい荘【地域密着型介護老人福祉施設入所者生活介護】長野県　長野市　稲里町田牧659番地1", "url": "https://www.kaigokensaku.mhlw.go.jp/20/index.php?action_kouhyou_detail_004_kani=true&JigyosyoCd=2090100435-00&ServiceCd=540&Type=search", "url2": "http://www.fureaiso.com" }, "geometry": { "type": "Point", "coordinates": [ 138.168277699999976, 36.5946108 ] } },
{ "type": "Feature", "properties": { "内容": "ゆめの里今井【地域密着型介護老人福祉施設入所者生活介護】長野県松本市今井1670", "url": "https://www.kaigokensaku.mhlw.go.jp/20/index.php?action_kouhyou_detail_004_kani=true&JigyosyoCd=2090200359-00&ServiceCd=540&Type=search", "url2": "http://yumenosato.info" }, "geometry": { "type": "Point", "coordinates": [ 137.9071111, 36.1519634 ] } },
{ "type": "Feature", "properties": { "内容": "地域密着型介護老人福祉施設ハーモニー沢村【地域密着型介護老人福祉施設入所者生活介護】長野県松本市沢村３丁目６－１６", "url": "https://www.kaigokensaku.mhlw.go.jp/20/index.php?action_kouhyou_detail_004_kani=true&JigyosyoCd=2090200276-00&ServiceCd=540&Type=search", "url2": "http://www.harmony-matsumoto.or.jp" }, "geometry": { "type": "Point", "coordinates": [ 137.969572327508558, 36.255136893640106 ] } },
{ "type": "Feature", "properties": { "内容": "地域密着型介護老人福祉施設リーベおおにわ【地域密着型介護老人福祉施設入所者生活介護】長野県松本市島立１７９９－１リーベおおにわ・1ｰ29室", "url": "https://www.kaigokensaku.mhlw.go.jp/20/index.php?action_kouhyou_detail_004_kani=true&JigyosyoCd=2090200391-00&ServiceCd=540&Type=search", "url2": "http://www.kita-alps.org/" }, "geometry": { "type": "Point", "coordinates": [ 137.936662899999988, 36.2190795 ] } },
{ "type": "Feature", "properties": { "内容": "地域密着型介護老人福祉施設リーベにいむら【地域密着型介護老人福祉施設入所者生活介護】長野県松本市新村１８２４－１", "url": "https://www.kaigokensaku.mhlw.go.jp/20/index.php?action_kouhyou_detail_004_kani=true&JigyosyoCd=2090200466-00&ServiceCd=540&Type=search", "url2": "http://www.kita-alps.org/" }, "geometry": { "type": "Point", "coordinates": [ 137.900627971340384, 36.221092048676056 ] } },
{ "type": "Feature", "properties": { "内容": "地域密着型特別養護老人ホーム上田大手門【地域密着型介護老人福祉施設入所者生活介護】長野県上田市中央2-3-8複合型老人福祉施設上田大手門", "url": "https://www.kaigokensaku.mhlw.go.jp/20/index.php?action_kouhyou_detail_004_kani=true&JigyosyoCd=2090300183-00&ServiceCd=540&Type=search", "url2": "http://taishikai.or.jp/kaigo/sub10.html" }, "geometry": { "type": "Point", "coordinates": [ 138.252099700000031, 36.4015755 ] } },
{ "type": "Feature", "properties": { "内容": "地域密着型特別養護老人ホーム　大樹【地域密着型介護老人福祉施設入所者生活介護】長野県上田市長瀬2885番地7", "url": "https://www.kaigokensaku.mhlw.go.jp/20/index.php?action_kouhyou_detail_004_kani=true&JigyosyoCd=2090300407-00&ServiceCd=540&Type=search", "url2": "http://www.maruko-f.or.jp" }, "geometry": { "type": "Point", "coordinates": [ 138.293571499999985, 36.3614848 ] } },
{ "type": "Feature", "properties": { "内容": "アザレアンさなだサテライト型居住施設【地域密着型介護老人福祉施設入所者生活介護】長野県上田市真田町本原７７２－２", "url": "https://www.kaigokensaku.mhlw.go.jp/20/index.php?action_kouhyou_detail_004_kani=true&JigyosyoCd=2072200724-00&ServiceCd=540&Type=search", "url2": "http://www.azarean.jp" }, "geometry": { "type": "Point", "coordinates": [ 138.297422, 36.4260451 ] } },
{ "type": "Feature", "properties": { "内容": "アザレアンさなだ　横尾サテライト【地域密着型介護老人福祉施設入所者生活介護】長野県上田市真田町長7141-1", "url": "https://www.kaigokensaku.mhlw.go.jp/20/index.php?action_kouhyou_detail_004_kani=true&JigyosyoCd=2090300241-00&ServiceCd=540&Type=search", "url2": "https://www.azarean.jp/" }, "geometry": { "type": "Point", "coordinates": [ 138.305767699999933, 36.4433461 ] } },
{ "type": "Feature", "properties": { "内容": "ユニット型地域密着型特別養護老人ホーム　すわべ敬老園【地域密着型介護老人福祉施設入所者生活介護】長野県上田市常磐城2243-1", "url": "https://www.kaigokensaku.mhlw.go.jp/20/index.php?action_kouhyou_detail_004_kani=true&JigyosyoCd=2090300324-00&ServiceCd=540&Type=search", "url2": "http://www.keiroen.or.jp" }, "geometry": { "type": "Point", "coordinates": [ 138.242541699999947, 36.4073359 ] } },
{ "type": "Feature", "properties": { "内容": "ローマンうえだ地域密着型サテライト特養上野の里【地域密着型介護老人福祉施設入所者生活介護】長野県上田市上野286番地1", "url": "https://www.kaigokensaku.mhlw.go.jp/20/index.php?action_kouhyou_detail_004_kani=true&JigyosyoCd=2090300175-00&ServiceCd=540&Type=search", "url2": "http://www.ja-naganokai.or.jp/facilities/ueda/" }, "geometry": { "type": "Point", "coordinates": [ 138.294087399999967, 36.405864 ] } },
{ "type": "Feature", "properties": { "内容": "特別養護老人ホーム　神川愛の郷【地域密着型介護老人福祉施設入所者生活介護】長野県上田市蒼久保1145番地2", "url": "https://www.kaigokensaku.mhlw.go.jp/20/index.php?action_kouhyou_detail_004_kani=true&JigyosyoCd=2090300415-00&ServiceCd=540&Type=search", "url2": "http://skdf.jp/" }, "geometry": { "type": "Point", "coordinates": [ 138.279769786508155, 36.378167605005629 ] } },
{ "type": "Feature", "properties": { "内容": "特別養護老人ホーム第２グレイスフル岡谷【地域密着型介護老人福祉施設入所者生活介護】長野県岡谷市加茂町３－８－７", "url": "https://www.kaigokensaku.mhlw.go.jp/20/index.php?action_kouhyou_detail_004_kani=true&JigyosyoCd=2090400025-00&ServiceCd=540&Type=search", "url2": "http://www.e-sunlife.or.jp/" }, "geometry": { "type": "Point", "coordinates": [ 138.05325270000003, 36.0752634 ] } },
{ "type": "Feature", "properties": { "内容": "特別養護老人ホームたまゆら【地域密着型介護老人福祉施設入所者生活介護】長野県飯田市北方３３５４－１", "url": "https://www.kaigokensaku.mhlw.go.jp/20/index.php?action_kouhyou_detail_004_kani=true&JigyosyoCd=2090500246-00&ServiceCd=540&Type=search", "url2": "https://www.nagano-tamayura.com/" }, "geometry": { "type": "Point", "coordinates": [ 137.786434500000041, 35.5069286 ] } },
{ "type": "Feature", "properties": { "内容": "第2やまりきの郷サテライト　下茶屋の庵【地域密着型介護老人福祉施設入所者生活介護】長野県飯田市鼎下茶屋2178番地2第2やまりきの郷サテライト　下茶屋の庵", "url": "https://www.kaigokensaku.mhlw.go.jp/20/index.php?action_kouhyou_detail_004_kani=true&JigyosyoCd=2070502386-00&ServiceCd=540&Type=search", "url2": "https://yamarikishoujyukai.jp/" }, "geometry": { "type": "Point", "coordinates": [ 137.827246801678058, 35.510130277430818 ] } },
{ "type": "Feature", "properties": { "内容": "地域密着型特別養護老人ホーム　陽だまりの丘【地域密着型介護老人福祉施設入所者生活介護】長野県飯田市北方3369番地1", "url": "https://www.kaigokensaku.mhlw.go.jp/20/index.php?action_kouhyou_detail_004_kani=true&JigyosyoCd=2090500139-00&ServiceCd=540&Type=search", "url2": "http://ichiyokai-iida.jp/" }, "geometry": { "type": "Point", "coordinates": [ 137.7880649, 35.5069647 ] } },
{ "type": "Feature", "properties": { "内容": "こころのひろば特別養護老人ホーム【地域密着型介護老人福祉施設入所者生活介護】長野県諏訪市高島一丁目２１番１４号", "url": "https://www.kaigokensaku.mhlw.go.jp/20/index.php?action_kouhyou_detail_004_kani=true&JigyosyoCd=2090600103-00&ServiceCd=540&Type=search", "url2": "http://www.kokoro5560.or.jp/" }, "geometry": { "type": "Point", "coordinates": [ 138.114633895106493, 36.040019585395129 ] } },
{ "type": "Feature", "properties": { "内容": "かりんの里複合福祉施設【地域密着型介護老人福祉施設入所者生活介護】長野県諏訪市高島１丁目１番１１号", "url": "https://www.kaigokensaku.mhlw.go.jp/20/index.php?action_kouhyou_detail_004_kani=true&JigyosyoCd=2090600038-00&ServiceCd=540&Type=search", "url2": "http://suwafukushi.com/022_fukugou/022_index.html" }, "geometry": { "type": "Point", "coordinates": [ 138.110829, 36.0417329 ] } },
{ "type": "Feature", "properties": { "内容": "地域密着型特別養護老人ホーム　うぐいすの森【地域密着型介護老人福祉施設入所者生活介護】長野県諏訪市沖田町四丁目２番１号", "url": "https://www.kaigokensaku.mhlw.go.jp/20/index.php?action_kouhyou_detail_004_kani=true&JigyosyoCd=2090600194-00&ServiceCd=540&Type=search", "url2": "www.lcv.ne.jp/~komakusa" }, "geometry": { "type": "Point", "coordinates": [ 138.131625399999962, 36.0070989 ] } },
{ "type": "Feature", "properties": { "内容": "地域密着型特別養護老人ホームそのさと【地域密着型介護老人福祉施設入所者生活介護】長野県須坂市大字豊丘２７５４番地１地域密着型特別養護老人ホームそのさと", "url": "https://www.kaigokensaku.mhlw.go.jp/20/index.php?action_kouhyou_detail_004_kani=true&JigyosyoCd=2090700085-00&ServiceCd=540&Type=search", "url2": "https://sonosato-suzaka.com" }, "geometry": { "type": "Point", "coordinates": [ 138.325692500000059, 36.6378577 ] } },
{ "type": "Feature", "properties": { "内容": "地域密着型特別養護老人ホームぬくもり園【地域密着型介護老人福祉施設入所者生活介護】長野県須坂市大字野辺1335番地1", "url": "https://www.kaigokensaku.mhlw.go.jp/20/index.php?action_kouhyou_detail_004_kani=true&JigyosyoCd=2090700051-00&ServiceCd=540&Type=search", "url2": "http://www.suzaka-shakyo.jp/" }, "geometry": { "type": "Point", "coordinates": [ 138.319783484655801, 36.635614839896121 ] } },
{ "type": "Feature", "properties": { "内容": "地域密着型特養　のぞみの郷【地域密着型介護老人福祉施設入所者生活介護】長野県小諸市和田966-151", "url": "https://www.kaigokensaku.mhlw.go.jp/20/index.php?action_kouhyou_detail_004_kani=true&JigyosyoCd=2090800075-00&ServiceCd=540&Type=search", "url2": "https://nozomi-g.co.jp" }, "geometry": { "type": "Point", "coordinates": [ 138.4617174, 36.2969766 ] } },
{ "type": "Feature", "properties": { "内容": "特別養護老人ホーム　小諸愛の郷【地域密着型介護老人福祉施設入所者生活介護】長野県小諸市甲1693-6", "url": "https://www.kaigokensaku.mhlw.go.jp/20/index.php?action_kouhyou_detail_004_kani=true&JigyosyoCd=2090800059-00&ServiceCd=540&Type=search", "url2": "ｈｔｔｐ：//ｗｗｗ.ｓｋｄｆ.ｊｐ" }, "geometry": { "type": "Point", "coordinates": [ 138.426288900000031, 36.3122376 ] } },
{ "type": "Feature", "properties": { "内容": "地域密着型小規模特別養護老人ホームあさがお【地域密着型介護老人福祉施設入所者生活介護】長野県小諸市東雲5-7-1", "url": "https://www.kaigokensaku.mhlw.go.jp/20/index.php?action_kouhyou_detail_004_kani=true&JigyosyoCd=2090800042-00&ServiceCd=540&Type=search", "url2": "sinonomenosato.com" }, "geometry": { "type": "Point", "coordinates": [ 134.677272499999958, 34.8336079 ] } },
{ "type": "Feature", "properties": { "内容": "特別養護老人ホーム　オアシス高遠【地域密着型介護老人福祉施設入所者生活介護】長野県伊那市高遠町西高遠698番地2", "url": "https://www.kaigokensaku.mhlw.go.jp/20/index.php?action_kouhyou_detail_004_kani=true&JigyosyoCd=2090900255-00&ServiceCd=540&Type=search", "url2": "https://yasuraginosato2011.or.jp/facility/oasis-tk/" }, "geometry": { "type": "Point", "coordinates": [ 138.056393384655763, 35.831617958142424 ] } },
{ "type": "Feature", "properties": { "内容": "地域密着型特別養護老人ホームみのりの杜【地域密着型介護老人福祉施設入所者生活介護】長野県伊那市東春近8897番地", "url": "https://www.kaigokensaku.mhlw.go.jp/20/index.php?action_kouhyou_detail_004_kani=true&JigyosyoCd=2090900131-00&ServiceCd=540&Type=search", "url2": "http://sakura-v.or.jp/" }, "geometry": { "type": "Point", "coordinates": [ 137.976942335426315, 35.817603887352206 ] } },
{ "type": "Feature", "properties": { "内容": "地域密着型特別養護老人ホームみぶの里【地域密着型介護老人福祉施設入所者生活介護】長野県伊那市美篶5324-1複合福祉施設みぶの里", "url": "https://www.kaigokensaku.mhlw.go.jp/20/index.php?action_kouhyou_detail_004_kani=true&JigyosyoCd=2090900156-00&ServiceCd=540&Type=search", "url2": "https://s-sawayaka.or.jp" }, "geometry": { "type": "Point", "coordinates": [ 138.006592372499881, 35.832583300957488 ] } },
{ "type": "Feature", "properties": { "内容": "地域密着型小規模特別養護老人ホーム　かがやき【地域密着型介護老人福祉施設入所者生活介護】長野県駒ヶ根市赤穂14番地892", "url": "https://www.kaigokensaku.mhlw.go.jp/20/index.php?action_kouhyou_detail_004_kani=true&JigyosyoCd=2091000071-00&ServiceCd=540&Type=search", "url2": "https://tokuyoukagayaki.wixsite.com/my-site" }, "geometry": { "type": "Point", "coordinates": [ 137.9220616, 35.7073555 ] } },
{ "type": "Feature", "properties": { "内容": "介護老人福祉施設アイリス茅野(サテライト)【地域密着型介護老人福祉施設入所者生活介護】長野県茅野市宮川5778-1", "url": "https://www.kaigokensaku.mhlw.go.jp/20/index.php?action_kouhyou_detail_004_kani=true&JigyosyoCd=2091400081-00&ServiceCd=540&Type=search", "url2": "http://www.iriss.or.jp" }, "geometry": { "type": "Point", "coordinates": [ 138.155874400000016, 35.986335500000024 ] } },
{ "type": "Feature", "properties": { "内容": "地域密着型特別養護老人ホームこまくさ野村渋池【地域密着型介護老人福祉施設入所者生活介護】長野県塩尻市広丘野村2223", "url": "https://www.kaigokensaku.mhlw.go.jp/20/index.php?action_kouhyou_detail_004_kani=true&JigyosyoCd=2091500187-00&ServiceCd=540&Type=search", "url2": "http://www.komakusa-nomura.jp" }, "geometry": { "type": "Point", "coordinates": [ 137.955835, 36.148114 ] } },
{ "type": "Feature", "properties": { "内容": "アムール戸倉　地域密着型特別養護老人ホーム【地域密着型介護老人福祉施設入所者生活介護】長野県千曲市戸倉1922-1", "url": "https://www.kaigokensaku.mhlw.go.jp/20/index.php?action_kouhyou_detail_004_kani=true&JigyosyoCd=2091800157-00&ServiceCd=540&Type=search", "url2": "https://www.amour.or.jp/" }, "geometry": { "type": "Point", "coordinates": [ 138.148475926319861, 36.490957305554154 ] } },
{ "type": "Feature", "properties": { "内容": "ユニット型小規模特別養護老人ホーム治田の里【地域密着型介護老人福祉施設入所者生活介護】長野県千曲市大字稲荷山1788番1", "url": "https://www.kaigokensaku.mhlw.go.jp/20/index.php?action_kouhyou_detail_004_kani=true&JigyosyoCd=2091800074-00&ServiceCd=540&Type=search", "url2": "https://sarashinanohoshi.com/" }, "geometry": { "type": "Point", "coordinates": [ 138.099146708429004, 36.533769389694626 ] } },
{ "type": "Feature", "properties": { "内容": "メディケア千曲中央【地域密着型介護老人福祉施設入所者生活介護】長野県千曲市大字桜堂字西沖367番地3", "url": "https://www.kaigokensaku.mhlw.go.jp/20/index.php?action_kouhyou_detail_004_kani=true&JigyosyoCd=2091800140-00&ServiceCd=540&Type=search", "url2": "https://care-net.biz/20/medicare/" }, "geometry": { "type": "Point", "coordinates": [ 138.122774199999981, 36.5296693 ] } },
{ "type": "Feature", "properties": { "内容": "地域密着型特別養護老人ホーム科野の里【地域密着型介護老人福祉施設入所者生活介護】長野県千曲市大字屋代128番地6", "url": "https://www.kaigokensaku.mhlw.go.jp/20/index.php?action_kouhyou_detail_004_kani=true&JigyosyoCd=2091800041-00&ServiceCd=540&Type=search", "url2": "http://taishikai.or.jp/kaigo/sub01-2.html" }, "geometry": { "type": "Point", "coordinates": [ 138.132939599999986, 36.5373631 ] } },
{ "type": "Feature", "properties": { "内容": "小規模特別養護老人ホーム湯の里ちくま【地域密着型介護老人福祉施設入所者生活介護】長野県千曲市上山田温泉１丁目７０－８", "url": "https://www.kaigokensaku.mhlw.go.jp/20/index.php?action_kouhyou_detail_004_kani=true&JigyosyoCd=2091800025-00&ServiceCd=540&Type=search", "url2": null }, "geometry": { "type": "Point", "coordinates": [ 138.143151699999976, 36.4812167 ] } },
{ "type": "Feature", "properties": { "内容": "穂高苑【地域密着型介護老人福祉施設入所者生活介護】長野県安曇野市穂高有明3074-4", "url": "https://www.kaigokensaku.mhlw.go.jp/20/index.php?action_kouhyou_detail_004_kani=true&JigyosyoCd=2094000102-00&ServiceCd=540&Type=search", "url2": null }, "geometry": { "type": "Point", "coordinates": [ 137.836247500000013, 36.3596226 ] } },
{ "type": "Feature", "properties": { "内容": "豊里苑【地域密着型介護老人福祉施設入所者生活介護】長野県安曇野市穂高有明8090", "url": "https://www.kaigokensaku.mhlw.go.jp/20/index.php?action_kouhyou_detail_004_kani=true&JigyosyoCd=2094000326-00&ServiceCd=540&Type=search", "url2": null }, "geometry": { "type": "Point", "coordinates": [ 137.8386577, 36.3433329 ] } },
{ "type": "Feature", "properties": { "内容": "みなみかるいざわ敬老園【地域密着型介護老人福祉施設入所者生活介護】長野県北佐久郡軽井沢町大字発地字二子塚190-3", "url": "https://www.kaigokensaku.mhlw.go.jp/20/index.php?action_kouhyou_detail_004_kani=true&JigyosyoCd=2092100037-00&ServiceCd=540&Type=search", "url2": "http://www.keiroen.or.jp" }, "geometry": { "type": "Point", "coordinates": [ 138.624152599410991, 36.306143743805677 ] } },
{ "type": "Feature", "properties": { "内容": "地域密着型特別養護老人ホーム和音【地域密着型介護老人福祉施設入所者生活介護】長野県諏訪郡下諏訪町西弥生町４７７０－２", "url": "https://www.kaigokensaku.mhlw.go.jp/20/index.php?action_kouhyou_detail_004_kani=true&JigyosyoCd=2092300124-00&ServiceCd=540&Type=search", "url2": "https://kyouritsu-fukushikai.or.jp" }, "geometry": { "type": "Point", "coordinates": [ 138.07745330000003, 36.0733976 ] } },
{ "type": "Feature", "properties": { "内容": "地域密着型特別養護老人ホームさくらの【地域密着型介護老人福祉施設入所者生活介護】長野県諏訪郡原村13221番地6", "url": "https://www.kaigokensaku.mhlw.go.jp/20/index.php?action_kouhyou_detail_004_kani=true&JigyosyoCd=2092300066-00&ServiceCd=540&Type=search", "url2": "http://fujimihp.com/" }, "geometry": { "type": "Point", "coordinates": [ 138.2180922, 35.9617175 ] } },
{ "type": "Feature", "properties": { "内容": "地域密着型特別養護老人ホームきりとう【地域密着型介護老人福祉施設入所者生活介護】長野県上伊那郡辰野町大字小野1290番地5", "url": "https://www.kaigokensaku.mhlw.go.jp/20/index.php?action_kouhyou_detail_004_kani=true&JigyosyoCd=2092400197-00&ServiceCd=540&Type=search", "url2": "http://fujimihp.com/?page_id=1477" }, "geometry": { "type": "Point", "coordinates": [ 137.96917162076258, 36.046180426386755 ] } },
{ "type": "Feature", "properties": { "内容": "ふらっと辰野特別養護老人ホーム【地域密着型介護老人福祉施設入所者生活介護】長野県上伊那郡辰野町伊那富6333番地2", "url": "https://www.kaigokensaku.mhlw.go.jp/20/index.php?action_kouhyou_detail_004_kani=true&JigyosyoCd=2092400122-00&ServiceCd=540&Type=search", "url2": "http://www5.ocn.ne.jp/~otohakai/pg999.html" }, "geometry": { "type": "Point", "coordinates": [ 137.985301199999981, 35.9552296 ] } },
{ "type": "Feature", "properties": { "内容": "みなみみのわふれあいの里【地域密着型介護老人福祉施設入所者生活介護】長野県上伊那郡南箕輪村1634-349", "url": "https://www.kaigokensaku.mhlw.go.jp/20/index.php?action_kouhyou_detail_004_kani=true&JigyosyoCd=2092400130-00&ServiceCd=540&Type=search", "url2": "minami-hureai＠woody.ocn.ne.jp" }, "geometry": { "type": "Point", "coordinates": [ 137.958135295879742, 35.89522354267659 ] } },
{ "type": "Feature", "properties": { "内容": "複合福祉施設小規模特別養護老人ホームプラムの里【地域密着型介護老人福祉施設入所者生活介護】長野県上伊那郡宮田村4804-1", "url": "https://www.kaigokensaku.mhlw.go.jp/20/index.php?action_kouhyou_detail_004_kani=true&JigyosyoCd=2092400072-00&ServiceCd=540&Type=search", "url2": "http://s-sawayaka.or.jp/" }, "geometry": { "type": "Point", "coordinates": [ 137.9428292, 35.7510211 ] } },
{ "type": "Feature", "properties": { "内容": "特別養護老人ホーム　グランスマイル【地域密着型介護老人福祉施設入所者生活介護】長野県下伊那郡高森町牛牧1968番地15特別養護老人ホーム　グランスマイル", "url": "https://www.kaigokensaku.mhlw.go.jp/20/index.php?action_kouhyou_detail_004_kani=true&JigyosyoCd=2092500087-00&ServiceCd=540&Type=search", "url2": "https://grandsmile.madokakai.jp/" }, "geometry": { "type": "Point", "coordinates": [ 137.850316900000053, 35.5609869 ] } },
{ "type": "Feature", "properties": { "内容": "小規模特別養護老人ホーム　太陽の家【地域密着型介護老人福祉施設入所者生活介護】長野県下伊那郡阿南町富草4022", "url": "https://www.kaigokensaku.mhlw.go.jp/20/index.php?action_kouhyou_detail_004_kani=true&JigyosyoCd=2092500061-00&ServiceCd=540&Type=search", "url2": null }, "geometry": { "type": "Point", "coordinates": [ 137.803022599999963, 35.3560083 ] } },
{ "type": "Feature", "properties": { "内容": "根羽村地域密着型特別養護老人ホームねばねの里「なごみ」【地域密着型介護老人福祉施設入所者生活介護】長野県下伊那郡根羽村3015番地362根羽村高齢者福祉施設ねばねの里「なごみ」", "url": "https://www.kaigokensaku.mhlw.go.jp/20/index.php?action_kouhyou_detail_004_kani=true&JigyosyoCd=2092500079-00&ServiceCd=540&Type=search", "url2": "https://iful-jikeikai.com/" }, "geometry": { "type": "Point", "coordinates": [ 137.622755346327637, 35.302524993053595 ] } },
{ "type": "Feature", "properties": { "内容": "地域密着型特別養護老人ホームはやしの杜【地域密着型介護老人福祉施設入所者生活介護】長野県下伊那郡豊丘村大字神稲４１７５番地", "url": "https://www.kaigokensaku.mhlw.go.jp/20/index.php?action_kouhyou_detail_004_kani=true&JigyosyoCd=2092500053-00&ServiceCd=540&Type=search", "url2": "https://hayashinomori.notion.site/" }, "geometry": { "type": "Point", "coordinates": [ 137.897439187974584, 35.543354277682887 ] } },
{ "type": "Feature", "properties": { "内容": "ゆめの里朝日【地域密着型介護老人福祉施設入所者生活介護】長野県東筑摩郡朝日村大字古見２４２２－３", "url": "https://www.kaigokensaku.mhlw.go.jp/20/index.php?action_kouhyou_detail_004_kani=true&JigyosyoCd=2092700034-00&ServiceCd=540&Type=search", "url2": "ｈｔｔｐ//yumenosato.info" }, "geometry": { "type": "Point", "coordinates": [ 137.880331399999932, 36.143748 ] } },
{ "type": "Feature", "properties": { "内容": "特別養護老人ホーム第二美里園【地域密着型介護老人福祉施設入所者生活介護】長野県埴科郡坂城町坂城9051-6", "url": "https://www.kaigokensaku.mhlw.go.jp/20/index.php?action_kouhyou_detail_004_kani=true&JigyosyoCd=2093100028-00&ServiceCd=540&Type=search", "url2": "http://sakakifukushikai.or.jp/" }, "geometry": { "type": "Point", "coordinates": [ 138.192958500000032, 36.4527491 ] } },
{ "type": "Feature", "properties": { "内容": "朝日高井ホーム【地域密着型介護老人福祉施設入所者生活介護】長野県上高井郡高山村大字高井458小規模特別養護老人ホーム「朝日高井ホーム」", "url": "https://www.kaigokensaku.mhlw.go.jp/20/index.php?action_kouhyou_detail_004_kani=true&JigyosyoCd=2093200067-00&ServiceCd=540&Type=search", "url2": null }, "geometry": { "type": "Point", "coordinates": [ 138.361158499999988, 36.676670699999981 ] } },
{ "type": "Feature", "properties": { "内容": "地域密着型特別養護老人ホーム　里山の家　木島平【地域密着型介護老人福祉施設入所者生活介護】長野県下高井郡木島平村大字穂高3115番地1", "url": "https://www.kaigokensaku.mhlw.go.jp/20/index.php?action_kouhyou_detail_004_kani=true&JigyosyoCd=2093300081-00&ServiceCd=540&Type=search", "url2": "http://miyuki-f.or.jp" }, "geometry": { "type": "Point", "coordinates": [ 138.404954500000031, 36.8633776 ] } }
]
}
