{
"type": "FeatureCollection",
"name": "geo_20_4",
"crs": { "type": "name", "properties": { "name": "urn:ogc:def:crs:OGC:1.3:CRS84" } },
"features": [
{ "type": "Feature", "properties": { "ID": 2045200000020, "正式名称": "マアーマケアさぐち", "機関区分": 4, "都道府県コード": 20, "市区町村コード": 217, "所在地": "長野県佐久市下越２２４－１", "緯度": 36.19548, "経度": 138.484842, "url": "https://www.iryou.teikyouseido.mhlw.go.jp/znk-web/juminkanja/S2430/initialize?prefCd=20&kikanCd=5200000020&kikanKbn=4", "url2": null, "内容": "マアーマケアさぐち【4:助産院】長野県佐久市下越２２４－１" }, "geometry": { "type": "Point", "coordinates": [ 138.484842, 36.19548 ] } },
{ "type": "Feature", "properties": { "ID": 2045200000030, "正式名称": "さんたままの助産院", "機関区分": 4, "都道府県コード": 20, "市区町村コード": 217, "所在地": "長野県佐久市内山２５２８－２", "緯度": 36.221896, "経度": 138.556973, "url": "https://www.iryou.teikyouseido.mhlw.go.jp/znk-web/juminkanja/S2430/initialize?prefCd=20&kikanCd=5200000030&kikanKbn=4", "url2": "http://santamama.2nd-moon.com/", "内容": "さんたままの助産院【4:助産院】長野県佐久市内山２５２８－２" }, "geometry": { "type": "Point", "coordinates": [ 138.556973, 36.221896 ] } },
{ "type": "Feature", "properties": { "ID": 2045200000050, "正式名称": "しのはら助産院・母乳育児相談室", "機関区分": 4, "都道府県コード": 20, "市区町村コード": 219, "所在地": "長野県東御市滋野乙２９９１－１３", "緯度": 36.347793, "経度": 138.374484, "url": "https://www.iryou.teikyouseido.mhlw.go.jp/znk-web/juminkanja/S2430/initialize?prefCd=20&kikanCd=5200000050&kikanKbn=4", "url2": "https://shinojo.jimdofree.com/", "内容": "しのはら助産院・母乳育児相談室【4:助産院】長野県東御市滋野乙２９９１－１３" }, "geometry": { "type": "Point", "coordinates": [ 138.374484, 36.347793 ] } },
{ "type": "Feature", "properties": { "ID": 2045200000090, "正式名称": "みぶ母乳育児相談室", "機関区分": 4, "都道府県コード": 20, "市区町村コード": 214, "所在地": "長野県茅野市玉川３１５４－６", "緯度": 35.993912, "経度": 138.197208, "url": "https://www.iryou.teikyouseido.mhlw.go.jp/znk-web/juminkanja/S2430/initialize?prefCd=20&kikanCd=5200000090&kikanKbn=4", "url2": null, "内容": "みぶ母乳育児相談室【4:助産院】長野県茅野市玉川３１５４－６" }, "geometry": { "type": "Point", "coordinates": [ 138.197208, 35.993912 ] } },
{ "type": "Feature", "properties": { "ID": 2045200000130, "正式名称": "助産所ドゥーラえむあい", "機関区分": 4, "都道府県コード": 20, "市区町村コード": 209, "所在地": "長野県伊那市日影５３４－１", "緯度": 35.824509, "経度": 137.96404, "url": "https://www.iryou.teikyouseido.mhlw.go.jp/znk-web/juminkanja/S2430/initialize?prefCd=20&kikanCd=5200000130&kikanKbn=4", "url2": "https://www.midwifemap.com/mysite/sanbabatyan/", "内容": "助産所ドゥーラえむあい【4:助産院】長野県伊那市日影５３４－１" }, "geometry": { "type": "Point", "coordinates": [ 137.96404, 35.824509 ] } },
{ "type": "Feature", "properties": { "ID": 2045200000140, "正式名称": "さくらこ助産所", "機関区分": 4, "都道府県コード": 20, "市区町村コード": 209, "所在地": "長野県伊那市西町５８５２－６", "緯度": 35.839646, "経度": 137.940847, "url": "https://www.iryou.teikyouseido.mhlw.go.jp/znk-web/juminkanja/S2430/initialize?prefCd=20&kikanCd=5200000140&kikanKbn=4", "url2": null, "内容": "さくらこ助産所【4:助産院】長野県伊那市西町５８５２－６" }, "geometry": { "type": "Point", "coordinates": [ 137.940847, 35.839646 ] } },
{ "type": "Feature", "properties": { "ID": 2045200000150, "正式名称": "やまびこハウス", "機関区分": 4, "都道府県コード": 20, "市区町村コード": 209, "所在地": "長野県伊那市西箕輪３４６７", "緯度": 35.879141, "経度": 137.920625, "url": "https://www.iryou.teikyouseido.mhlw.go.jp/znk-web/juminkanja/S2430/initialize?prefCd=20&kikanCd=5200000150&kikanKbn=4", "url2": null, "内容": "やまびこハウス【4:助産院】長野県伊那市西箕輪３４６７" }, "geometry": { "type": "Point", "coordinates": [ 137.920625, 35.879141 ] } },
{ "type": "Feature", "properties": { "ID": 2045200000160, "正式名称": "明生助産所", "機関区分": 4, "都道府県コード": 20, "市区町村コード": 209, "所在地": "長野県伊那市富県５０４２－１", "緯度": 35.82501, "経度": 138.00062, "url": "https://www.iryou.teikyouseido.mhlw.go.jp/znk-web/juminkanja/S2430/initialize?prefCd=20&kikanCd=5200000160&kikanKbn=4", "url2": "https://mei-mei-jo.com", "内容": "明生助産所【4:助産院】長野県伊那市富県５０４２－１" }, "geometry": { "type": "Point", "coordinates": [ 138.00062, 35.82501 ] } },
{ "type": "Feature", "properties": { "ID": 2045200000170, "正式名称": "幸助産院", "機関区分": 4, "都道府県コード": 20, "市区町村コード": 210, "所在地": "長野県駒ヶ根市赤穂１４－１６９２", "緯度": 35.710965, "経度": 137.917854, "url": "https://www.iryou.teikyouseido.mhlw.go.jp/znk-web/juminkanja/S2430/initialize?prefCd=20&kikanCd=5200000170&kikanKbn=4", "url2": "https://nagano-midwife.com/kaigyo-list/nanshin/", "内容": "幸助産院【4:助産院】長野県駒ヶ根市赤穂１４－１６９２" }, "geometry": { "type": "Point", "coordinates": [ 137.917854, 35.710965 ] } },
{ "type": "Feature", "properties": { "ID": 2045200000180, "正式名称": "野ノ花助産院", "機関区分": 4, "都道府県コード": 20, "市区町村コード": 210, "所在地": "長野県駒ヶ根市東伊那２１９５−２", "緯度": 35.747546, "経度": 137.973737, "url": "https://www.iryou.teikyouseido.mhlw.go.jp/znk-web/juminkanja/S2430/initialize?prefCd=20&kikanCd=5200000180&kikanKbn=4", "url2": "http://nonohana-josanin.info", "内容": "野ノ花助産院【4:助産院】長野県駒ヶ根市東伊那２１９５−２" }, "geometry": { "type": "Point", "coordinates": [ 137.973737, 35.747546 ] } },
{ "type": "Feature", "properties": { "ID": 2045200000210, "正式名称": "たひら母乳育児相談室", "機関区分": 4, "都道府県コード": 20, "市区町村コード": 205, "所在地": "長野県飯田市下久堅小林８１４", "緯度": 35.471519, "経度": 137.850119, "url": "https://www.iryou.teikyouseido.mhlw.go.jp/znk-web/juminkanja/S2430/initialize?prefCd=20&kikanCd=5200000210&kikanKbn=4", "url2": "http://www12.ocn.ne.jp/~st1949/", "内容": "たひら母乳育児相談室【4:助産院】長野県飯田市下久堅小林８１４" }, "geometry": { "type": "Point", "coordinates": [ 137.850119, 35.471519 ] } },
{ "type": "Feature", "properties": { "ID": 2045200000260, "正式名称": "あゆみ助産院", "機関区分": 4, "都道府県コード": 20, "市区町村コード": 202, "所在地": "長野県松本市渚３ー６−１５", "緯度": 36.228925, "経度": 137.956132, "url": "https://www.iryou.teikyouseido.mhlw.go.jp/znk-web/juminkanja/S2430/initialize?prefCd=20&kikanCd=5200000260&kikanKbn=4", "url2": "https://ayumi-jyosanin.jimdo.com/", "内容": "あゆみ助産院【4:助産院】長野県松本市渚３ー６−１５" }, "geometry": { "type": "Point", "coordinates": [ 137.956132, 36.228925 ] } },
{ "type": "Feature", "properties": { "ID": 2045200000300, "正式名称": "助産院　マザ－＆チャイルドサポ－トぱぴい", "機関区分": 4, "都道府県コード": 20, "市区町村コード": 215, "所在地": "長野県塩尻市広丘高出", "緯度": 36.12878, "経度": 137.951974, "url": "https://www.iryou.teikyouseido.mhlw.go.jp/znk-web/juminkanja/S2430/initialize?prefCd=20&kikanCd=5200000300&kikanKbn=4", "url2": null, "内容": "助産院　マザ－＆チャイルドサポ－トぱぴい【4:助産院】長野県塩尻市広丘高出" }, "geometry": { "type": "Point", "coordinates": [ 137.951974, 36.12878 ] } },
{ "type": "Feature", "properties": { "ID": 2045200000310, "正式名称": "おおくら助産院母乳育児ミルク相談室", "機関区分": 4, "都道府県コード": 20, "市区町村コード": 220, "所在地": "長野県安曇野市豊科南穂高９６６－１", "緯度": 36.316201, "経度": 137.91322, "url": "https://www.iryou.teikyouseido.mhlw.go.jp/znk-web/juminkanja/S2430/initialize?prefCd=20&kikanCd=5200000310&kikanKbn=4", "url2": "https://itp.ne.jp/into/206755446176641760/", "内容": "おおくら助産院母乳育児ミルク相談室【4:助産院】長野県安曇野市豊科南穂高９６６－１" }, "geometry": { "type": "Point", "coordinates": [ 137.91322, 36.316201 ] } },
{ "type": "Feature", "properties": { "ID": 2045200000330, "正式名称": "アルプス母乳育児相談室", "機関区分": 4, "都道府県コード": 20, "市区町村コード": 220, "所在地": "長野県安曇野市豊科高家３６４６－５０", "緯度": 36.297787, "経度": 137.929691, "url": "https://www.iryou.teikyouseido.mhlw.go.jp/znk-web/juminkanja/S2430/initialize?prefCd=20&kikanCd=5200000330&kikanKbn=4", "url2": null, "内容": "アルプス母乳育児相談室【4:助産院】長野県安曇野市豊科高家３６４６－５０" }, "geometry": { "type": "Point", "coordinates": [ 137.929691, 36.297787 ] } },
{ "type": "Feature", "properties": { "ID": 2045200000380, "正式名称": "まつば助産院", "機関区分": 4, "都道府県コード": 20, "市区町村コード": 202, "所在地": "長野県松本市波田５８３８－１７", "緯度": 36.196291, "経度": 137.864445, "url": "https://www.iryou.teikyouseido.mhlw.go.jp/znk-web/juminkanja/S2430/initialize?prefCd=20&kikanCd=5200000380&kikanKbn=4", "url2": "http://252503.com", "内容": "まつば助産院【4:助産院】長野県松本市波田５８３８－１７" }, "geometry": { "type": "Point", "coordinates": [ 137.864445, 36.196291 ] } },
{ "type": "Feature", "properties": { "ID": 2045200000430, "正式名称": "ながい助産院母乳育児相談室", "機関区分": 4, "都道府県コード": 20, "市区町村コード": 218, "所在地": "長野県千曲市稲荷山２４８－４", "緯度": 36.529293, "経度": 138.102223, "url": "https://www.iryou.teikyouseido.mhlw.go.jp/znk-web/juminkanja/S2430/initialize?prefCd=20&kikanCd=5200000430&kikanKbn=4", "url2": null, "内容": "ながい助産院母乳育児相談室【4:助産院】長野県千曲市稲荷山２４８－４" }, "geometry": { "type": "Point", "coordinates": [ 138.102223, 36.529293 ] } },
{ "type": "Feature", "properties": { "ID": 2045200000440, "正式名称": "子育て応援舎　ぽぽ", "機関区分": 4, "都道府県コード": 20, "市区町村コード": 521, "所在地": "長野県埴科郡坂城町坂城５７２４－１５", "緯度": 36.463547, "経度": 138.188547, "url": "https://www.iryou.teikyouseido.mhlw.go.jp/znk-web/juminkanja/S2430/initialize?prefCd=20&kikanCd=5200000440&kikanKbn=4", "url2": null, "内容": "子育て応援舎　ぽぽ【4:助産院】長野県埴科郡坂城町坂城５７２４－１５" }, "geometry": { "type": "Point", "coordinates": [ 138.188547, 36.463547 ] } },
{ "type": "Feature", "properties": { "ID": 2045200000470, "正式名称": "助産所　ほやほや", "機関区分": 4, "都道府県コード": 20, "市区町村コード": 201, "所在地": "長野県長野市北堀８４７－１１", "緯度": 36.668142, "経度": 138.23615, "url": "https://www.iryou.teikyouseido.mhlw.go.jp/znk-web/juminkanja/S2430/initialize?prefCd=20&kikanCd=5200000470&kikanKbn=4", "url2": "http://hoya-mw.net/", "内容": "助産所　ほやほや【4:助産院】長野県長野市北堀８４７－１１" }, "geometry": { "type": "Point", "coordinates": [ 138.23615, 36.668142 ] } },
{ "type": "Feature", "properties": { "ID": 2045200000500, "正式名称": "たかの母子相談室（出張専門）", "機関区分": 4, "都道府県コード": 20, "市区町村コード": 207, "所在地": "長野県須坂市亀倉町２０４－４５", "緯度": 36.615864, "経度": 138.34438, "url": "https://www.iryou.teikyouseido.mhlw.go.jp/znk-web/juminkanja/S2430/initialize?prefCd=20&kikanCd=5200000500&kikanKbn=4", "url2": "https://sites.google.com/view/takano-boshisoudan/", "内容": "たかの母子相談室（出張専門）【4:助産院】長野県須坂市亀倉町２０４－４５" }, "geometry": { "type": "Point", "coordinates": [ 138.34438, 36.615864 ] } },
{ "type": "Feature", "properties": { "ID": 2045203100500, "正式名称": "ひより助産院　ひより母乳育児相談室", "機関区分": 4, "都道府県コード": 20, "市区町村コード": 201, "所在地": "長野県長野市大字栗田５７８", "緯度": 36.634839, "経度": 138.196127, "url": "https://www.iryou.teikyouseido.mhlw.go.jp/znk-web/juminkanja/S2430/initialize?prefCd=20&kikanCd=5203100500&kikanKbn=4", "url2": "http://hiyori-ikujiroom.com/", "内容": "ひより助産院　ひより母乳育児相談室【4:助産院】長野県長野市大字栗田５７８" }, "geometry": { "type": "Point", "coordinates": [ 138.196127, 36.634839 ] } },
{ "type": "Feature", "properties": { "ID": 2045203100970, "正式名称": "Ｍｏｍ’ｓ　ｓｕｎ　産後ケア　ＢＡＳＥ", "機関区分": 4, "都道府県コード": 20, "市区町村コード": 201, "所在地": "長野県長野市稲里町下氷鉋", "緯度": 36.604093, "経度": 138.182024, "url": "https://www.iryou.teikyouseido.mhlw.go.jp/znk-web/juminkanja/S2430/initialize?prefCd=20&kikanCd=5203100970&kikanKbn=4", "url2": "https://moms-sun.com/base", "内容": "Ｍｏｍ’ｓ　ｓｕｎ　産後ケア　ＢＡＳＥ【4:助産院】長野県長野市稲里町下氷鉋" }, "geometry": { "type": "Point", "coordinates": [ 138.182024, 36.604093 ] } },
{ "type": "Feature", "properties": { "ID": 2045203101090, "正式名称": "ママサポ　ほかま", "機関区分": 4, "都道府県コード": 20, "市区町村コード": 201, "所在地": "長野県長野市篠ノ井会２６０−５", "緯度": 36.57419, "経度": 138.15091, "url": "https://www.iryou.teikyouseido.mhlw.go.jp/znk-web/juminkanja/S2430/initialize?prefCd=20&kikanCd=5203101090&kikanKbn=4", "url2": null, "内容": "ママサポ　ほかま【4:助産院】長野県長野市篠ノ井会２６０−５" }, "geometry": { "type": "Point", "coordinates": [ 138.15091, 36.57419 ] } },
{ "type": "Feature", "properties": { "ID": 2045203101110, "正式名称": "るなせんと助産院", "機関区分": 4, "都道府県コード": 20, "市区町村コード": 201, "所在地": "長野県長野市箱清水２丁目３８番１２−２０２号", "緯度": 36.663622, "経度": 138.185964, "url": "https://www.iryou.teikyouseido.mhlw.go.jp/znk-web/juminkanja/S2430/initialize?prefCd=20&kikanCd=5203101110&kikanKbn=4", "url2": "https://lunascentmw.com", "内容": "るなせんと助産院【4:助産院】長野県長野市箱清水２丁目３８番１２−２０２号" }, "geometry": { "type": "Point", "coordinates": [ 138.185964, 36.663622 ] } },
{ "type": "Feature", "properties": { "ID": 2045203101230, "正式名称": "つちのこ母乳育児相談室（訪問型）", "機関区分": 4, "都道府県コード": 20, "市区町村コード": 201, "所在地": "長野県長野市上松５－１０－１８", "緯度": 36.677197, "経度": 138.196625, "url": "https://www.iryou.teikyouseido.mhlw.go.jp/znk-web/juminkanja/S2430/initialize?prefCd=20&kikanCd=5203101230&kikanKbn=4", "url2": null, "内容": "つちのこ母乳育児相談室（訪問型）【4:助産院】長野県長野市上松５－１０－１８" }, "geometry": { "type": "Point", "coordinates": [ 138.196625, 36.677197 ] } },
{ "type": "Feature", "properties": { "ID": 2045203101350, "正式名称": "助産師ゆっこの育児相談", "機関区分": 4, "都道府県コード": 20, "市区町村コード": 201, "所在地": "長野県長野市若穂綿内７９８３－８", "緯度": 36.617439, "経度": 138.253703, "url": "https://www.iryou.teikyouseido.mhlw.go.jp/znk-web/juminkanja/S2430/initialize?prefCd=20&kikanCd=5203101350&kikanKbn=4", "url2": "https://jyosanshi-yukko.amebaownd.com/", "内容": "助産師ゆっこの育児相談【4:助産院】長野県長野市若穂綿内７９８３－８" }, "geometry": { "type": "Point", "coordinates": [ 138.253703, 36.617439 ] } },
{ "type": "Feature", "properties": { "ID": 2045203101470, "正式名称": "助産ケアサロンＣＯＣＯＷＡ", "機関区分": 4, "都道府県コード": 20, "市区町村コード": 201, "所在地": "長野県長野市大豆島１４０４－２", "緯度": 36.630067, "経度": 138.232553, "url": "https://www.iryou.teikyouseido.mhlw.go.jp/znk-web/juminkanja/S2430/initialize?prefCd=20&kikanCd=5203101470&kikanKbn=4", "url2": "https://cococwa-care.studio.site", "内容": "助産ケアサロンＣＯＣＯＷＡ【4:助産院】長野県長野市大豆島１４０４－２" }, "geometry": { "type": "Point", "coordinates": [ 138.232553, 36.630067 ] } },
{ "type": "Feature", "properties": { "ID": 2045203200130, "正式名称": "みすず母乳育児相談所", "機関区分": 4, "都道府県コード": 20, "市区町村コード": 202, "所在地": "長野県松本市桐３丁目７－４－２", "緯度": 36.257008, "経度": 137.972485, "url": "https://www.iryou.teikyouseido.mhlw.go.jp/znk-web/juminkanja/S2430/initialize?prefCd=20&kikanCd=5203200130&kikanKbn=4", "url2": null, "内容": "みすず母乳育児相談所【4:助産院】長野県松本市桐３丁目７－４－２" }, "geometry": { "type": "Point", "coordinates": [ 137.972485, 36.257008 ] } },
{ "type": "Feature", "properties": { "ID": 2045203200260, "正式名称": "助産院ｌａｕｇｈ（らふ）", "機関区分": 4, "都道府県コード": 20, "市区町村コード": 202, "所在地": "長野県松本市大村", "緯度": 36.254402, "経度": 137.985262, "url": "https://www.iryou.teikyouseido.mhlw.go.jp/znk-web/juminkanja/S2430/initialize?prefCd=20&kikanCd=5203200260&kikanKbn=4", "url2": "https://jyosaninlaugh.amebaownd.com/", "内容": "助産院ｌａｕｇｈ（らふ）【4:助産院】長野県松本市大村" }, "geometry": { "type": "Point", "coordinates": [ 137.985262, 36.254402 ] } },
{ "type": "Feature", "properties": { "ID": 2045203200390, "正式名称": "助産院おん相談室", "機関区分": 4, "都道府県コード": 20, "市区町村コード": 202, "所在地": "長野県松本市大手５－５－２６ー２", "緯度": 36.235542, "経度": 137.976669, "url": "https://www.iryou.teikyouseido.mhlw.go.jp/znk-web/juminkanja/S2430/initialize?prefCd=20&kikanCd=5203200390&kikanKbn=4", "url2": "https://www.mr-anko.com/", "内容": "助産院おん相談室【4:助産院】長野県松本市大手５－５－２６ー２" }, "geometry": { "type": "Point", "coordinates": [ 137.976669, 36.235542 ] } },
{ "type": "Feature", "properties": { "ID": 2045203200420, "正式名称": "めばえ助産院", "機関区分": 4, "都道府県コード": 20, "市区町村コード": 202, "所在地": "長野県松本市岡田松岡４０８ー７", "緯度": 36.258244, "経度": 137.971176, "url": "https://www.iryou.teikyouseido.mhlw.go.jp/znk-web/juminkanja/S2430/initialize?prefCd=20&kikanCd=5203200420&kikanKbn=4", "url2": "https://lin.ee/EK0byS3", "内容": "めばえ助産院【4:助産院】長野県松本市岡田松岡４０８ー７" }, "geometry": { "type": "Point", "coordinates": [ 137.971176, 36.258244 ] } },
{ "type": "Feature", "properties": { "ID": 2045203200550, "正式名称": "助産院スピカ", "機関区分": 4, "都道府県コード": 20, "市区町村コード": 202, "所在地": "長野県松本市村井町北２－１５－１４－１", "緯度": 36.183416, "経度": 137.96345, "url": "https://www.iryou.teikyouseido.mhlw.go.jp/znk-web/juminkanja/S2430/initialize?prefCd=20&kikanCd=5203200550&kikanKbn=4", "url2": "https://spica-bright-star.amebaownd.com/", "内容": "助産院スピカ【4:助産院】長野県松本市村井町北２－１５－１４－１" }, "geometry": { "type": "Point", "coordinates": [ 137.96345, 36.183416 ] } },
{ "type": "Feature", "properties": { "ID": 2045203200710, "正式名称": "助産院　日日", "機関区分": 4, "都道府県コード": 20, "市区町村コード": 202, "所在地": "長野県松本市里山辺１３０３ー２", "緯度": 36.220295, "経度": 137.99648, "url": "https://www.iryou.teikyouseido.mhlw.go.jp/znk-web/juminkanja/S2430/initialize?prefCd=20&kikanCd=5203200710&kikanKbn=4", "url2": null, "内容": "助産院　日日【4:助産院】長野県松本市里山辺１３０３ー２" }, "geometry": { "type": "Point", "coordinates": [ 137.99648, 36.220295 ] } },
{ "type": "Feature", "properties": { "ID": 2045205100960, "正式名称": "出張専門助産師うちぼり", "機関区分": 4, "都道府県コード": 20, "市区町村コード": 323, "所在地": "長野県北佐久郡御代田町塩野１３５１", "緯度": 36.334636, "経度": 138.493625, "url": "https://www.iryou.teikyouseido.mhlw.go.jp/znk-web/juminkanja/S2430/initialize?prefCd=20&kikanCd=5205100960&kikanKbn=4", "url2": null, "内容": "出張専門助産師うちぼり【4:助産院】長野県北佐久郡御代田町塩野１３５１" }, "geometry": { "type": "Point", "coordinates": [ 138.493625, 36.334636 ] } },
{ "type": "Feature", "properties": { "ID": 2045205101260, "正式名称": "大工原助産師相談所", "機関区分": 4, "都道府県コード": 20, "市区町村コード": 309, "所在地": "長野県南佐久郡佐久穂町上１２０６ー５", "緯度": 36.161037, "経度": 138.46182, "url": "https://www.iryou.teikyouseido.mhlw.go.jp/znk-web/juminkanja/S2430/initialize?prefCd=20&kikanCd=5205101260&kikanKbn=4", "url2": null, "内容": "大工原助産師相談所【4:助産院】長野県南佐久郡佐久穂町上１２０６ー５" }, "geometry": { "type": "Point", "coordinates": [ 138.46182, 36.161037 ] } },
{ "type": "Feature", "properties": { "ID": 2045205101390, "正式名称": "ながつき助産院", "機関区分": 4, "都道府県コード": 20, "市区町村コード": 217, "所在地": "長野県佐久市岩村田１０４１－１０　ＴＹＫマンション３０２号室", "緯度": 36.280442, "経度": 138.472431, "url": "https://www.iryou.teikyouseido.mhlw.go.jp/znk-web/juminkanja/S2430/initialize?prefCd=20&kikanCd=5205101390&kikanKbn=4", "url2": null, "内容": "ながつき助産院【4:助産院】長野県佐久市岩村田１０４１－１０　ＴＹＫマンション３０２号室" }, "geometry": { "type": "Point", "coordinates": [ 138.472431, 36.280442 ] } },
{ "type": "Feature", "properties": { "ID": 2045205300004, "正式名称": "東御市立助産所とうみ", "機関区分": 4, "都道府県コード": 20, "市区町村コード": 219, "所在地": "長野県東御市鞍掛１９８番地", "緯度": 36.35918, "経度": 138.351013, "url": "https://www.iryou.teikyouseido.mhlw.go.jp/znk-web/juminkanja/S2430/initialize?prefCd=20&kikanCd=5205300004&kikanKbn=4", "url2": "http://www3.city.tomi.nagano.jp/hospital/jyosan/12page.htm", "内容": "東御市立助産所とうみ【4:助産院】長野県東御市鞍掛１９８番地" }, "geometry": { "type": "Point", "coordinates": [ 138.351013, 36.35918 ] } },
{ "type": "Feature", "properties": { "ID": 2045205300180, "正式名称": "あべ母乳子育て相談室", "機関区分": 4, "都道府県コード": 20, "市区町村コード": 203, "所在地": "長野県上田市住吉７６０－８", "緯度": 36.414743, "経度": 138.287043, "url": "https://www.iryou.teikyouseido.mhlw.go.jp/znk-web/juminkanja/S2430/initialize?prefCd=20&kikanCd=5205300180&kikanKbn=4", "url2": "http://abe-soudan.perma.jp", "内容": "あべ母乳子育て相談室【4:助産院】長野県上田市住吉７６０－８" }, "geometry": { "type": "Point", "coordinates": [ 138.287043, 36.414743 ] } },
{ "type": "Feature", "properties": { "ID": 2045205300210, "正式名称": "ＳＡＭＢＡＲ３　つながり処きみえ", "機関区分": 4, "都道府県コード": 20, "市区町村コード": 203, "所在地": "長野県上田市御所３３９－１６", "緯度": 36.391493, "経度": 138.236268, "url": "https://www.iryou.teikyouseido.mhlw.go.jp/znk-web/juminkanja/S2430/initialize?prefCd=20&kikanCd=5205300210&kikanKbn=4", "url2": "https://sambar3kumi.wixsite.com/sambar3kumi", "内容": "ＳＡＭＢＡＲ３　つながり処きみえ【4:助産院】長野県上田市御所３３９－１６" }, "geometry": { "type": "Point", "coordinates": [ 138.236268, 36.391493 ] } },
{ "type": "Feature", "properties": { "ID": 2045205300340, "正式名称": "助産所　ひめぐり", "機関区分": 4, "都道府県コード": 20, "市区町村コード": 203, "所在地": "長野県上田市小泉２３７３－３", "緯度": 36.403119, "経度": 138.204633, "url": "https://www.iryou.teikyouseido.mhlw.go.jp/znk-web/juminkanja/S2430/initialize?prefCd=20&kikanCd=5205300340&kikanKbn=4", "url2": "https://josanjo-himeguri.com/", "内容": "助産所　ひめぐり【4:助産院】長野県上田市小泉２３７３－３" }, "geometry": { "type": "Point", "coordinates": [ 138.204633, 36.403119 ] } },
{ "type": "Feature", "properties": { "ID": 2045205300500, "正式名称": "わとわ助産院", "機関区分": 4, "都道府県コード": 20, "市区町村コード": 203, "所在地": "長野県上田市富士山１７６６－１", "緯度": 36.354858, "経度": 138.228569, "url": "https://www.iryou.teikyouseido.mhlw.go.jp/znk-web/juminkanja/S2430/initialize?prefCd=20&kikanCd=5205300500&kikanKbn=4", "url2": null, "内容": "わとわ助産院【4:助産院】長野県上田市富士山１７６６－１" }, "geometry": { "type": "Point", "coordinates": [ 138.228569, 36.354858 ] } },
{ "type": "Feature", "properties": { "ID": 2045205400050, "正式名称": "助産院ゆるま～む", "機関区分": 4, "都道府県コード": 20, "市区町村コード": 204, "所在地": "長野県岡谷市川岸西２－１４－５", "緯度": 36.028626, "経度": 138.015778, "url": "https://www.iryou.teikyouseido.mhlw.go.jp/znk-web/juminkanja/S2430/initialize?prefCd=20&kikanCd=5205400050&kikanKbn=4", "url2": "http://yurumarm.jimdo.com/", "内容": "助産院ゆるま～む【4:助産院】長野県岡谷市川岸西２－１４－５" }, "geometry": { "type": "Point", "coordinates": [ 138.015778, 36.028626 ] } },
{ "type": "Feature", "properties": { "ID": 2045205400060, "正式名称": "金原母乳相談室", "機関区分": 4, "都道府県コード": 20, "市区町村コード": 204, "所在地": "長野県岡谷市川岸東", "緯度": 36.033481, "経度": 138.021784, "url": "https://www.iryou.teikyouseido.mhlw.go.jp/znk-web/juminkanja/S2430/initialize?prefCd=20&kikanCd=5205400060&kikanKbn=4", "url2": null, "内容": "金原母乳相談室【4:助産院】長野県岡谷市川岸東" }, "geometry": { "type": "Point", "coordinates": [ 138.021784, 36.033481 ] } },
{ "type": "Feature", "properties": { "ID": 2045205400080, "正式名称": "助産院さんさん", "機関区分": 4, "都道府県コード": 20, "市区町村コード": 362, "所在地": "長野県諏訪郡富士見町富士見３０４８－９", "緯度": 35.912422, "経度": 138.226886, "url": "https://www.iryou.teikyouseido.mhlw.go.jp/znk-web/juminkanja/S2430/initialize?prefCd=20&kikanCd=5205400080&kikanKbn=4", "url2": null, "内容": "助産院さんさん【4:助産院】長野県諏訪郡富士見町富士見３０４８－９" }, "geometry": { "type": "Point", "coordinates": [ 138.226886, 35.912422 ] } },
{ "type": "Feature", "properties": { "ID": 2045205400090, "正式名称": "菜の花助産院", "機関区分": 4, "都道府県コード": 20, "市区町村コード": 363, "所在地": "長野県諏訪郡原村原山１７２１７−３５１", "緯度": 35.967083, "経度": 138.25555, "url": "https://www.iryou.teikyouseido.mhlw.go.jp/znk-web/juminkanja/S2430/initialize?prefCd=20&kikanCd=5205400090&kikanKbn=4", "url2": "https://nanohanajosanin.wixsite.com/nanohana", "内容": "菜の花助産院【4:助産院】長野県諏訪郡原村原山１７２１７−３５１" }, "geometry": { "type": "Point", "coordinates": [ 138.25555, 35.967083 ] } },
{ "type": "Feature", "properties": { "ID": 2045205400110, "正式名称": "深結助産院", "機関区分": 4, "都道府県コード": 20, "市区町村コード": 204, "所在地": "長野県岡谷市塚間町２－３－３", "緯度": 36.062475, "経度": 138.055258, "url": "https://www.iryou.teikyouseido.mhlw.go.jp/znk-web/juminkanja/S2430/initialize?prefCd=20&kikanCd=5205400110&kikanKbn=4", "url2": "http://www.midwifemap.com/miyujyosanin/mysite/", "内容": "深結助産院【4:助産院】長野県岡谷市塚間町２－３－３" }, "geometry": { "type": "Point", "coordinates": [ 138.055258, 36.062475 ] } },
{ "type": "Feature", "properties": { "ID": 2045205400120, "正式名称": "すわ助産院", "機関区分": 4, "都道府県コード": 20, "市区町村コード": 206, "所在地": "長野県諏訪市中洲２５０５ー４", "緯度": 35.99868, "経度": 138.11966, "url": "https://www.iryou.teikyouseido.mhlw.go.jp/znk-web/juminkanja/S2430/initialize?prefCd=20&kikanCd=5205400120&kikanKbn=4", "url2": "https://www.suwa-jyosanin.com/", "内容": "すわ助産院【4:助産院】長野県諏訪市中洲２５０５ー４" }, "geometry": { "type": "Point", "coordinates": [ 138.11966, 35.99868 ] } },
{ "type": "Feature", "properties": { "ID": 2045205400130, "正式名称": "おむすび", "機関区分": 4, "都道府県コード": 20, "市区町村コード": 214, "所在地": "長野県茅野市玉川４２３３", "緯度": 35.991958, "経度": 138.172064, "url": "https://www.iryou.teikyouseido.mhlw.go.jp/znk-web/juminkanja/S2430/initialize?prefCd=20&kikanCd=5205400130&kikanKbn=4", "url2": null, "内容": "おむすび【4:助産院】長野県茅野市玉川４２３３" }, "geometry": { "type": "Point", "coordinates": [ 138.172064, 35.991958 ] } },
{ "type": "Feature", "properties": { "ID": 2045205600010, "正式名称": "おひさま助産院", "機関区分": 4, "都道府県コード": 20, "市区町村コード": 210, "所在地": "長野県駒ヶ根市赤穂４０１３", "緯度": 35.733852, "経度": 137.919992, "url": "https://www.iryou.teikyouseido.mhlw.go.jp/znk-web/juminkanja/S2430/initialize?prefCd=20&kikanCd=5205600010&kikanKbn=4", "url2": "https://ohisama5884.jimdofree.com", "内容": "おひさま助産院【4:助産院】長野県駒ヶ根市赤穂４０１３" }, "geometry": { "type": "Point", "coordinates": [ 137.919992, 35.733852 ] } },
{ "type": "Feature", "properties": { "ID": 2045205600030, "正式名称": "母乳相談室　あいら", "機関区分": 4, "都道府県コード": 20, "市区町村コード": 385, "所在地": "長野県上伊那郡南箕輪村６８４０－５", "緯度": 35.872921, "経度": 137.97501, "url": "https://www.iryou.teikyouseido.mhlw.go.jp/znk-web/juminkanja/S2430/initialize?prefCd=20&kikanCd=5205600030&kikanKbn=4", "url2": "http://inakei6436.html.xdomain.jp/", "内容": "母乳相談室　あいら【4:助産院】長野県上伊那郡南箕輪村６８４０－５" }, "geometry": { "type": "Point", "coordinates": [ 137.97501, 35.872921 ] } },
{ "type": "Feature", "properties": { "ID": 2045205600040, "正式名称": "華助産院", "機関区分": 4, "都道府県コード": 20, "市区町村コード": 385, "所在地": "長野県上伊那郡南箕輪村南箕輪村２６７５－４", "緯度": 35.872982, "経度": 137.97557, "url": "https://www.iryou.teikyouseido.mhlw.go.jp/znk-web/juminkanja/S2430/initialize?prefCd=20&kikanCd=5205600040&kikanKbn=4", "url2": null, "内容": "華助産院【4:助産院】長野県上伊那郡南箕輪村南箕輪村２６７５－４" }, "geometry": { "type": "Point", "coordinates": [ 137.97557, 35.872982 ] } },
{ "type": "Feature", "properties": { "ID": 2045205600210, "正式名称": "あさなみ助産院", "機関区分": 4, "都道府県コード": 20, "市区町村コード": 209, "所在地": "長野県伊那市美篶６７０８－８", "緯度": 35.849333, "経度": 138.012303, "url": "https://www.iryou.teikyouseido.mhlw.go.jp/znk-web/juminkanja/S2430/initialize?prefCd=20&kikanCd=5205600210&kikanKbn=4", "url2": "https://peraichi.com/landing_pages/view/asanamijyosanin", "内容": "あさなみ助産院【4:助産院】長野県伊那市美篶６７０８－８" }, "geometry": { "type": "Point", "coordinates": [ 138.012303, 35.849333 ] } },
{ "type": "Feature", "properties": { "ID": 204520563122, "正式名称": "明生助産所みその", "機関区分": 4, "都道府県コード": 20, "市区町村コード": 209, "所在地": "長野県伊那市御園５７１－７", "緯度": 35.853174, "経度": 137.965704, "url": "https://www.iryou.teikyouseido.mhlw.go.jp/znk-web/juminkanja/S2430/initialize?prefCd=20&kikanCd=520563122&kikanKbn=4", "url2": "https://mei-mei-jo.com/", "内容": "明生助産所みその【4:助産院】長野県伊那市御園５７１－７" }, "geometry": { "type": "Point", "coordinates": [ 137.965704, 35.853174 ] } },
{ "type": "Feature", "properties": { "ID": 2045205700360, "正式名称": "バースコンダクター・楽育", "機関区分": 4, "都道府県コード": 20, "市区町村コード": 205, "所在地": "長野県飯田市三日市場１３１７－８", "緯度": 35.489237, "経度": 137.792762, "url": "https://www.iryou.teikyouseido.mhlw.go.jp/znk-web/juminkanja/S2430/initialize?prefCd=20&kikanCd=5205700360&kikanKbn=4", "url2": "http://iimachi.net/ms/54243/", "内容": "バースコンダクター・楽育【4:助産院】長野県飯田市三日市場１３１７－８" }, "geometry": { "type": "Point", "coordinates": [ 137.792762, 35.489237 ] } },
{ "type": "Feature", "properties": { "ID": 2045205700520, "正式名称": "よしみ助産院", "機関区分": 4, "都道府県コード": 20, "市区町村コード": 205, "所在地": "長野県飯田市立石７１０", "緯度": 35.432938, "経度": 137.787043, "url": "https://www.iryou.teikyouseido.mhlw.go.jp/znk-web/juminkanja/S2430/initialize?prefCd=20&kikanCd=5205700520&kikanKbn=4", "url2": "http://www.yoshimi-josanin.com/", "内容": "よしみ助産院【4:助産院】長野県飯田市立石７１０" }, "geometry": { "type": "Point", "coordinates": [ 137.787043, 35.432938 ] } },
{ "type": "Feature", "properties": { "ID": 2045205900010, "正式名称": "藤原助産院", "機関区分": 4, "都道府県コード": 20, "市区町村コード": 220, "所在地": "長野県安曇野市豊科田沢６０３８－８", "緯度": 36.300898, "経度": 137.937496, "url": "https://www.iryou.teikyouseido.mhlw.go.jp/znk-web/juminkanja/S2430/initialize?prefCd=20&kikanCd=5205900010&kikanKbn=4", "url2": null, "内容": "藤原助産院【4:助産院】長野県安曇野市豊科田沢６０３８－８" }, "geometry": { "type": "Point", "coordinates": [ 137.937496, 36.300898 ] } },
{ "type": "Feature", "properties": { "ID": 2045205900030, "正式名称": "和助産院", "機関区分": 4, "都道府県コード": 20, "市区町村コード": 220, "所在地": "長野県安曇野市穂高有明５４４８－１８", "緯度": 36.375832, "経度": 137.865694, "url": "https://www.iryou.teikyouseido.mhlw.go.jp/znk-web/juminkanja/S2430/initialize?prefCd=20&kikanCd=5205900030&kikanKbn=4", "url2": null, "内容": "和助産院【4:助産院】長野県安曇野市穂高有明５４４８－１８" }, "geometry": { "type": "Point", "coordinates": [ 137.865694, 36.375832 ] } },
{ "type": "Feature", "properties": { "ID": 2045205900040, "正式名称": "ももせ助産院", "機関区分": 4, "都道府県コード": 20, "市区町村コード": 220, "所在地": "長野県安曇野市豊科", "緯度": 36.31906, "経度": 137.90962, "url": "https://www.iryou.teikyouseido.mhlw.go.jp/znk-web/juminkanja/S2430/initialize?prefCd=20&kikanCd=5205900040&kikanKbn=4", "url2": null, "内容": "ももせ助産院【4:助産院】長野県安曇野市豊科" }, "geometry": { "type": "Point", "coordinates": [ 137.90962, 36.31906 ] } },
{ "type": "Feature", "properties": { "ID": 2045205900060, "正式名称": "栗岩助産院", "機関区分": 4, "都道府県コード": 20, "市区町村コード": 215, "所在地": "長野県塩尻市宗賀５４５－１２", "緯度": 36.107362, "経度": 137.951794, "url": "https://www.iryou.teikyouseido.mhlw.go.jp/znk-web/juminkanja/S2430/initialize?prefCd=20&kikanCd=5205900060&kikanKbn=4", "url2": null, "内容": "栗岩助産院【4:助産院】長野県塩尻市宗賀５４５－１２" }, "geometry": { "type": "Point", "coordinates": [ 137.951794, 36.107362 ] } },
{ "type": "Feature", "properties": { "ID": 2045205900070, "正式名称": "助産院　Üｂａ", "機関区分": 4, "都道府県コード": 20, "市区町村コード": 220, "所在地": "長野県安曇野市豊科高家３９６９－１７", "緯度": 36.290503, "経度": 137.926409, "url": "https://www.iryou.teikyouseido.mhlw.go.jp/znk-web/juminkanja/S2430/initialize?prefCd=20&kikanCd=5205900070&kikanKbn=4", "url2": "https://lit.link/jyosaninuba", "内容": "助産院　Üｂａ【4:助産院】長野県安曇野市豊科高家３９６９－１７" }, "geometry": { "type": "Point", "coordinates": [ 137.926409, 36.290503 ] } },
{ "type": "Feature", "properties": { "ID": 2045205900080, "正式名称": "髙橋助産院", "機関区分": 4, "都道府県コード": 20, "市区町村コード": 220, "所在地": "長野県安曇野市穂高６７１４－１０", "緯度": 36.334833, "経度": 137.888964, "url": "https://www.iryou.teikyouseido.mhlw.go.jp/znk-web/juminkanja/S2430/initialize?prefCd=20&kikanCd=5205900080&kikanKbn=4", "url2": null, "内容": "髙橋助産院【4:助産院】長野県安曇野市穂高６７１４－１０" }, "geometry": { "type": "Point", "coordinates": [ 137.888964, 36.334833 ] } },
{ "type": "Feature", "properties": { "ID": 2045205900090, "正式名称": "ジョサンインウテキアニ", "機関区分": 4, "都道府県コード": 20, "市区町村コード": 220, "所在地": "長野県安曇野市穂高有明４０８２−１", "緯度": 36.344019, "経度": 137.857227, "url": "https://www.iryou.teikyouseido.mhlw.go.jp/znk-web/juminkanja/S2430/initialize?prefCd=20&kikanCd=5205900090&kikanKbn=4", "url2": "https://www.facebook.com/profile.php?id=100064110101416", "内容": "ジョサンインウテキアニ【4:助産院】長野県安曇野市穂高有明４０８２−１" }, "geometry": { "type": "Point", "coordinates": [ 137.857227, 36.344019 ] } },
{ "type": "Feature", "properties": { "ID": 2045206600630, "正式名称": "産前産後ケアサロン助産院ＳＡＮＡ", "機関区分": 4, "都道府県コード": 20, "市区町村コード": 207, "所在地": "長野県須坂市塩川７４３－８ＹＩＬつくし野Ｂ１０３号", "緯度": 36.651506, "経度": 138.295136, "url": "https://www.iryou.teikyouseido.mhlw.go.jp/znk-web/juminkanja/S2430/initialize?prefCd=20&kikanCd=5206600630&kikanKbn=4", "url2": null, "内容": "産前産後ケアサロン助産院ＳＡＮＡ【4:助産院】長野県須坂市塩川７４３－８ＹＩＬつくし野Ｂ１０３号" }, "geometry": { "type": "Point", "coordinates": [ 138.295136, 36.651506 ] } },
{ "type": "Feature", "properties": { "ID": 2045206600760, "正式名称": "助産所　朋", "機関区分": 4, "都道府県コード": 20, "市区町村コード": 541, "所在地": "長野県上高井郡小布施町小布施１８０ー９", "緯度": 36.696294, "経度": 138.315628, "url": "https://www.iryou.teikyouseido.mhlw.go.jp/znk-web/juminkanja/S2430/initialize?prefCd=20&kikanCd=5206600760&kikanKbn=4", "url2": null, "内容": "助産所　朋【4:助産院】長野県上高井郡小布施町小布施１８０ー９" }, "geometry": { "type": "Point", "coordinates": [ 138.315628, 36.696294 ] } },
{ "type": "Feature", "properties": { "ID": 2045206800140, "正式名称": "あきさに助産院", "機関区分": 4, "都道府県コード": 20, "市区町村コード": 211, "所在地": "長野県中野市大字笠原１０４番地４", "緯度": 36.776341, "経度": 138.365302, "url": "https://www.iryou.teikyouseido.mhlw.go.jp/znk-web/juminkanja/S2430/initialize?prefCd=20&kikanCd=5206800140&kikanKbn=4", "url2": "https://ameblo.jp/mama-room-sunny/", "内容": "あきさに助産院【4:助産院】長野県中野市大字笠原１０４番地４" }, "geometry": { "type": "Point", "coordinates": [ 138.365302, 36.776341 ] } }
]
}
