{
"type": "FeatureCollection",
"name": "geo_20_短期入所生活介護",
"crs": { "type": "name", "properties": { "name": "urn:ogc:def:crs:OGC:1.3:CRS84" } },
"features": [
{ "type": "Feature", "properties": { "内容": "柴やすらぎの園【短期入所生活介護】長野市松代町柴３３０番地１", "url": "https://www.kaigokensaku.mhlw.go.jp/20/index.php?action_kouhyou_detail_004_kani=true&JigyosyoCd=2070104704-00&ServiceCd=210&Type=search", "url2": "http://yasuragi.cn" }, "geometry": { "type": "Point", "coordinates": [ 138.202123700000016, 36.5926431 ] } },
{ "type": "Feature", "properties": { "内容": "プリマベーラ【短期入所生活介護】長野県長野市大字南長野新田町1106番地1", "url": "https://www.kaigokensaku.mhlw.go.jp/20/index.php?action_kouhyou_detail_004_kani=true&JigyosyoCd=2070105867-00&ServiceCd=210&Type=search", "url2": "http://www.keiqkai.jp" }, "geometry": { "type": "Point", "coordinates": [ 138.185187700000029, 36.6504369 ] } },
{ "type": "Feature", "properties": { "内容": "ふれあい荘【短期入所生活介護】長野市松代町西寺尾１０００番地", "url": "https://www.kaigokensaku.mhlw.go.jp/20/index.php?action_kouhyou_detail_004_kani=true&JigyosyoCd=2070100090-00&ServiceCd=210&Type=search", "url2": "http://www.fureaiso.com/" }, "geometry": { "type": "Point", "coordinates": [ 138.196447300000045, 36.5753305 ] } },
{ "type": "Feature", "properties": { "内容": "短期入所生活介護事業所　栗田の里【短期入所生活介護】長野県長野市大字栗田字舎利田747番地6", "url": "https://www.kaigokensaku.mhlw.go.jp/20/index.php?action_kouhyou_detail_004_kani=true&JigyosyoCd=2070107434-00&ServiceCd=210&Type=search", "url2": "http://minamifukushi.or.jp/" }, "geometry": { "type": "Point", "coordinates": [ 138.199143721055265, 36.639031529328768 ] } },
{ "type": "Feature", "properties": { "内容": "大岡介護サービスセンターことぶき荘【短期入所生活介護】長野県長野市大岡乙3117", "url": "https://www.kaigokensaku.mhlw.go.jp/20/index.php?action_kouhyou_detail_004_kani=true&JigyosyoCd=2083000014-00&ServiceCd=210&Type=search", "url2": "kotobuki-shortstay@csw-naganocity.or.jp" }, "geometry": { "type": "Point", "coordinates": [ 137.9630534, 36.5038631 ] } },
{ "type": "Feature", "properties": { "内容": "特別養護老人ホーム若槻ホーム【短期入所生活介護】長野県長野市田中1464-1", "url": "https://www.kaigokensaku.mhlw.go.jp/20/index.php?action_kouhyou_detail_004_kani=true&JigyosyoCd=2070101395-00&ServiceCd=210&Type=search", "url2": "care//-net.biz/20/wakatsuki/" }, "geometry": { "type": "Point", "coordinates": [ 138.227291499999978, 36.6923586 ] } },
{ "type": "Feature", "properties": { "内容": "地域密着型介護老人福祉施設コスモス苑こうほく【短期入所生活介護】長野県長野市小島田町３３０番地１", "url": "https://www.kaigokensaku.mhlw.go.jp/20/index.php?action_kouhyou_detail_004_kani=true&JigyosyoCd=2070107616-00&ServiceCd=210&Type=search", "url2": "cosmosnet.or.jp" }, "geometry": { "type": "Point", "coordinates": [ 138.1870567, 36.5976171 ] } },
{ "type": "Feature", "properties": { "内容": "地域密着型特別養護ホーム光和【短期入所生活介護】長野県長野市若里四丁目10番19号", "url": "https://www.kaigokensaku.mhlw.go.jp/20/index.php?action_kouhyou_detail_004_kani=true&JigyosyoCd=2070107871-00&ServiceCd=210&Type=search", "url2": "http://kowa-fukushi.or.jp" }, "geometry": { "type": "Point", "coordinates": [ 138.1844886, 36.6303654 ] } },
{ "type": "Feature", "properties": { "内容": "ユニット型特別養護老人ホーム栗田の里【短期入所生活介護】大字栗田669番地", "url": "https://www.kaigokensaku.mhlw.go.jp/20/index.php?action_kouhyou_detail_004_kani=true&JigyosyoCd=2070108010-00&ServiceCd=210&Type=search", "url2": "https://www.minamifukushi.or.jp/" }, "geometry": { "type": "Point", "coordinates": [ 138.1986875, 36.6376948 ] } },
{ "type": "Feature", "properties": { "内容": "博愛の園【短期入所生活介護】長野県長野市浅川東条２９５番地５", "url": "https://www.kaigokensaku.mhlw.go.jp/20/index.php?action_kouhyou_detail_004_kani=true&JigyosyoCd=2070101023-00&ServiceCd=210&Type=search", "url2": "https://www.hakuaikai2000.com" }, "geometry": { "type": "Point", "coordinates": [ 138.202658700000029, 36.6804952 ] } },
{ "type": "Feature", "properties": { "内容": "柳原ふれあい荘【短期入所生活介護】長野県長野市大字柳原1379番地1", "url": "https://www.kaigokensaku.mhlw.go.jp/20/index.php?action_kouhyou_detail_004_kani=true&JigyosyoCd=2070105164-00&ServiceCd=210&Type=search", "url2": "https://shinshi-fukushi.com/" }, "geometry": { "type": "Point", "coordinates": [ 138.2570862, 36.6623801 ] } },
{ "type": "Feature", "properties": { "内容": "短期入所生活介護事業所コスモス苑こうほく【短期入所生活介護】長野県長野市小島田町３３０番地１", "url": "https://www.kaigokensaku.mhlw.go.jp/20/index.php?action_kouhyou_detail_004_kani=true&JigyosyoCd=2070107525-00&ServiceCd=210&Type=search", "url2": "http://cosmosnet.or.jp/index.php" }, "geometry": { "type": "Point", "coordinates": [ 138.181644807039021, 36.598906789477681 ] } },
{ "type": "Feature", "properties": { "内容": "特別養護老人ホームこうほくショートステイ【短期入所生活介護】長野県長野市稲里町下氷鉋682番地", "url": "https://www.kaigokensaku.mhlw.go.jp/20/index.php?action_kouhyou_detail_004_kani=true&JigyosyoCd=2070100553-00&ServiceCd=210&Type=search", "url2": "http://www.asahi-kouhoku.com/" }, "geometry": { "type": "Point", "coordinates": [ 138.175798699999973, 36.6076708 ] } },
{ "type": "Feature", "properties": { "内容": "若槻ホーム別館短期入所生活介護【短期入所生活介護】長野県長野市上野1丁目1462-1", "url": "https://www.kaigokensaku.mhlw.go.jp/20/index.php?action_kouhyou_detail_004_kani=true&JigyosyoCd=2070106436-00&ServiceCd=210&Type=search", "url2": "http://care-net.biz/20/wakatsuki/" }, "geometry": { "type": "Point", "coordinates": [ 138.226097200000027, 36.6921752 ] } },
{ "type": "Feature", "properties": { "内容": "ショートステイにしつるが【短期入所生活介護】長野県長野市大字鶴賀西鶴賀町1940番地", "url": "https://www.kaigokensaku.mhlw.go.jp/20/index.php?action_kouhyou_detail_004_kani=true&JigyosyoCd=2070104928-00&ServiceCd=210&Type=search", "url2": "https://kmhg.jp/" }, "geometry": { "type": "Point", "coordinates": [ 138.196570699999938, 36.6536711 ] } },
{ "type": "Feature", "properties": { "内容": "短期入所生活介護事業所　山布施の里【短期入所生活介護】長野県長野市篠ノ井山布施字西河原8485番１", "url": "https://www.kaigokensaku.mhlw.go.jp/20/index.php?action_kouhyou_detail_004_kani=true&JigyosyoCd=2070106139-00&ServiceCd=210&Type=search", "url2": null }, "geometry": { "type": "Point", "coordinates": [ 138.0951566, 36.6161504 ] } },
{ "type": "Feature", "properties": { "内容": "グリーンヒル【短期入所生活介護】長野県長野市篠ノ井布施五明1973番地", "url": "https://www.kaigokensaku.mhlw.go.jp/20/index.php?action_kouhyou_detail_004_kani=true&JigyosyoCd=2070100280-00&ServiceCd=210&Type=search", "url2": null }, "geometry": { "type": "Point", "coordinates": [ 138.11700129999997, 36.574075 ] } },
{ "type": "Feature", "properties": { "内容": "豊野清風園【短期入所生活介護】長野県長野市豊野町豊野６５９－１", "url": "https://www.kaigokensaku.mhlw.go.jp/20/index.php?action_kouhyou_detail_004_kani=true&JigyosyoCd=2073400216-00&ServiceCd=210&Type=search", "url2": "https://www.san-ikukai.or.jp" }, "geometry": { "type": "Point", "coordinates": [ 138.28300749999994, 36.7111144 ] } },
{ "type": "Feature", "properties": { "内容": "富竹の里ショートステイホーム【短期入所生活介護】長野県長野市大字富竹１６２１番地", "url": "https://www.kaigokensaku.mhlw.go.jp/20/index.php?action_kouhyou_detail_004_kani=true&JigyosyoCd=2070100736-00&ServiceCd=210&Type=search", "url2": "http://tomitake-carenet.com/" }, "geometry": { "type": "Point", "coordinates": [ 138.256582075393709, 36.672387426055593 ] } },
{ "type": "Feature", "properties": { "内容": "久米路荘【短期入所生活介護】長野県長野市信州新町日原東2186番地1", "url": "https://www.kaigokensaku.mhlw.go.jp/20/index.php?action_kouhyou_detail_004_kani=true&JigyosyoCd=2070107681-00&ServiceCd=210&Type=search", "url2": null }, "geometry": { "type": "Point", "coordinates": [ 137.9899513, 36.5588013 ] } },
{ "type": "Feature", "properties": { "内容": "第２ふれあい荘【短期入所生活介護】長野県長野市松代町西寺尾１０００番地", "url": "https://www.kaigokensaku.mhlw.go.jp/20/index.php?action_kouhyou_detail_004_kani=true&JigyosyoCd=2070105800-00&ServiceCd=210&Type=search", "url2": "https://fureaiso.shinshi-fukushi.com/" }, "geometry": { "type": "Point", "coordinates": [ 138.196447300000045, 36.5753305 ] } },
{ "type": "Feature", "properties": { "内容": "ショートステイ光和【短期入所生活介護】長野県長野市三輪1317-10", "url": "https://www.kaigokensaku.mhlw.go.jp/20/index.php?action_kouhyou_detail_004_kani=true&JigyosyoCd=2070105818-00&ServiceCd=210&Type=search", "url2": "http://kowa-fukushi.or.jp/" }, "geometry": { "type": "Point", "coordinates": [ 138.192529966131588, 36.655381638555433 ] } },
{ "type": "Feature", "properties": { "内容": "やすらぎの園【短期入所生活介護】長野市市篠ノ井杵淵字新田前213番地4", "url": "https://www.kaigokensaku.mhlw.go.jp/20/index.php?action_kouhyou_detail_004_kani=true&JigyosyoCd=2070100504-00&ServiceCd=210&Type=search", "url2": "http://m-yasuragi.com" }, "geometry": { "type": "Point", "coordinates": [ 138.1858868, 36.5779822 ] } },
{ "type": "Feature", "properties": { "内容": "尚和寮【短期入所生活介護】長野県長野市松代町東条９４－１", "url": "https://www.kaigokensaku.mhlw.go.jp/20/index.php?action_kouhyou_detail_004_kani=true&JigyosyoCd=2070101551-00&ServiceCd=210&Type=search", "url2": "http://nagano-shajikyo.or.jp/nsjk/syouwa/" }, "geometry": { "type": "Point", "coordinates": [ 138.212553500000013, 36.565994 ] } },
{ "type": "Feature", "properties": { "内容": "特別養護老人ホーム栗田の里【短期入所生活介護】長野県長野市栗田669番地", "url": "https://www.kaigokensaku.mhlw.go.jp/20/index.php?action_kouhyou_detail_004_kani=true&JigyosyoCd=2070104357-00&ServiceCd=210&Type=search", "url2": null }, "geometry": { "type": "Point", "coordinates": [ 138.198069283535716, 36.637932938285765 ] } },
{ "type": "Feature", "properties": { "内容": "グリーンヒル篠ノ井中央館【短期入所生活介護】長野県長野市篠ノ井布施高田692-1", "url": "https://www.kaigokensaku.mhlw.go.jp/20/index.php?action_kouhyou_detail_004_kani=true&JigyosyoCd=2070105651-00&ServiceCd=210&Type=search", "url2": "http://shitoku.ne.jp/" }, "geometry": { "type": "Point", "coordinates": [ 138.143349955155941, 36.578963453068958 ] } },
{ "type": "Feature", "properties": { "内容": "ショートステイサービスセンターサンビラかわなかじま【短期入所生活介護】長野県長野市川中島町今里　６１０", "url": "https://www.kaigokensaku.mhlw.go.jp/20/index.php?action_kouhyou_detail_004_kani=true&JigyosyoCd=2070101270-00&ServiceCd=210&Type=search", "url2": "http://sunvilla.or.jp/" }, "geometry": { "type": "Point", "coordinates": [ 138.147709599999985, 36.6104752 ] } },
{ "type": "Feature", "properties": { "内容": "松寿荘【短期入所生活介護】長野県長野市上野２丁目１２０番地４", "url": "https://www.kaigokensaku.mhlw.go.jp/20/index.php?action_kouhyou_detail_004_kani=true&JigyosyoCd=2070100512-00&ServiceCd=210&Type=search", "url2": null }, "geometry": { "type": "Point", "coordinates": [ 138.235016, 36.6863763 ] } },
{ "type": "Feature", "properties": { "内容": "フランセーズ悠【短期入所生活介護】長野県長野市大字大豆島３６０－３", "url": "https://www.kaigokensaku.mhlw.go.jp/20/index.php?action_kouhyou_detail_004_kani=true&JigyosyoCd=2070100579-00&ServiceCd=210&Type=search", "url2": "http://www.hakuyukai.com" }, "geometry": { "type": "Point", "coordinates": [ 138.220398400000022, 36.6313647 ] } },
{ "type": "Feature", "properties": { "内容": "やすらぎの園デイ・ショートセンター【短期入所生活介護】長野県長野市篠ノ井杵淵字新田前２１３番地４", "url": "https://www.kaigokensaku.mhlw.go.jp/20/index.php?action_kouhyou_detail_004_kani=true&JigyosyoCd=2070105057-00&ServiceCd=210&Type=search", "url2": "https://m-yasuragi.com" }, "geometry": { "type": "Point", "coordinates": [ 138.186522109153742, 36.580279498551661 ] } },
{ "type": "Feature", "properties": { "内容": "特別養護老人ホーム　大本願ユートピアわかほ【短期入所生活介護】長野県長野市若穂綿内４４２９", "url": "https://www.kaigokensaku.mhlw.go.jp/20/index.php?action_kouhyou_detail_004_kani=true&JigyosyoCd=2070100199-00&ServiceCd=210&Type=search", "url2": "https://zenkouji-dw.com" }, "geometry": { "type": "Point", "coordinates": [ 138.27729469999997, 36.6086774 ] } },
{ "type": "Feature", "properties": { "内容": "真島の里【短期入所生活介護】長野県長野市真島町真島字中真島前沖５６３番地の2", "url": "https://www.kaigokensaku.mhlw.go.jp/20/index.php?action_kouhyou_detail_004_kani=true&JigyosyoCd=2070100546-00&ServiceCd=210&Type=search", "url2": "http://www.minamifukushi.or.jp/" }, "geometry": { "type": "Point", "coordinates": [ 138.20680264191131, 36.600620636898363 ] } },
{ "type": "Feature", "properties": { "内容": "泉平ハイツ短期生活介護センター【短期入所生活介護】長野県長野市豊野町豊野２２９８－２", "url": "https://www.kaigokensaku.mhlw.go.jp/20/index.php?action_kouhyou_detail_004_kani=true&JigyosyoCd=2070107384-00&ServiceCd=210&Type=search", "url2": "https://nagano-swc.com/izumidaira/" }, "geometry": { "type": "Point", "coordinates": [ 138.285425354631059, 36.723193194348319 ] } },
{ "type": "Feature", "properties": { "内容": "フランセーズ悠とみたけ　短期入所生活介護【短期入所生活介護】長野県長野市大字富竹118-1", "url": "https://www.kaigokensaku.mhlw.go.jp/20/index.php?action_kouhyou_detail_004_kani=true&JigyosyoCd=2070105008-00&ServiceCd=210&Type=search", "url2": "http://www.hakuyukai.com" }, "geometry": { "type": "Point", "coordinates": [ 138.235436386438749, 36.671753500515358 ] } },
{ "type": "Feature", "properties": { "内容": "ながでんハートネット柳原あやめの里【短期入所生活介護】長野県長野市大字柳原2123-1", "url": "https://www.kaigokensaku.mhlw.go.jp/20/index.php?action_kouhyou_detail_004_kani=true&JigyosyoCd=2070104894-00&ServiceCd=210&Type=search", "url2": "nagaden-wellness.co.jp" }, "geometry": { "type": "Point", "coordinates": [ 138.25833339999997, 36.6633661 ] } },
{ "type": "Feature", "properties": { "内容": "地域密着型介護老人福祉施設博仁会篠ノ井桜荘【短期入所生活介護】長野県長野市篠ノ井二ツ柳字大当1535-1", "url": "https://www.kaigokensaku.mhlw.go.jp/20/index.php?action_kouhyou_detail_004_kani=true&JigyosyoCd=2070105826-00&ServiceCd=210&Type=search", "url2": "https://hakujinkai-nagano.or.jp/" }, "geometry": { "type": "Point", "coordinates": [ 138.129033599999957, 36.5693341 ] } },
{ "type": "Feature", "properties": { "内容": "朝日ホーム【短期入所生活介護】長野県長野市大字南堀３－１", "url": "https://www.kaigokensaku.mhlw.go.jp/20/index.php?action_kouhyou_detail_004_kani=true&JigyosyoCd=2070100561-00&ServiceCd=210&Type=search", "url2": "http://highness-life.com/" }, "geometry": { "type": "Point", "coordinates": [ 138.241665600000033, 36.6627156 ] } },
{ "type": "Feature", "properties": { "内容": "博仁会桜荘社会福祉総合施設【短期入所生活介護】長野県長野市篠ノ井二ツ柳字大当1535-1", "url": "https://www.kaigokensaku.mhlw.go.jp/20/index.php?action_kouhyou_detail_004_kani=true&JigyosyoCd=2070100272-00&ServiceCd=210&Type=search", "url2": "https://hakujinkai-nagano.or.jp/" }, "geometry": { "type": "Point", "coordinates": [ 138.129033599999957, 36.5693341 ] } },
{ "type": "Feature", "properties": { "内容": "短期入所生活介護事業所インターコート藤【短期入所生活介護】長野県長野市青木島町綱島字小中島782番地6", "url": "https://www.kaigokensaku.mhlw.go.jp/20/index.php?action_kouhyou_detail_004_kani=true&JigyosyoCd=2070101890-00&ServiceCd=210&Type=search", "url2": "https://intercourt-fuji.com/" }, "geometry": { "type": "Point", "coordinates": [ 138.206654138484168, 36.61176044855052 ] } },
{ "type": "Feature", "properties": { "内容": "医療法人宮沢医院グリーンバード【短期入所生活介護】長野県長野市徳間５５４-１", "url": "https://www.kaigokensaku.mhlw.go.jp/20/index.php?action_kouhyou_detail_004_kani=true&JigyosyoCd=2070102880-00&ServiceCd=210&Type=search", "url2": "www.miyazawaiin.com/" }, "geometry": { "type": "Point", "coordinates": [ 138.225528199999985, 36.6771019 ] } },
{ "type": "Feature", "properties": { "内容": "地域密着型介護老人福祉施設　小規模特別養護老人ホーム　大本願ユートピアわかほ【短期入所生活介護】長野県長野市若穂綿内4429番地", "url": "https://www.kaigokensaku.mhlw.go.jp/20/index.php?action_kouhyou_detail_004_kani=true&JigyosyoCd=2070105446-00&ServiceCd=210&Type=search", "url2": "https://zenkouji-dw.com/" }, "geometry": { "type": "Point", "coordinates": [ 138.27764160066377, 36.608628508944001 ] } },
{ "type": "Feature", "properties": { "内容": "豊岡荘【短期入所生活介護】長野県長野市戸隠豊岡1384番地", "url": "https://www.kaigokensaku.mhlw.go.jp/20/index.php?action_kouhyou_detail_004_kani=true&JigyosyoCd=2070107863-00&ServiceCd=210&Type=search", "url2": "http://tokuyou.kowa-fukushi.or.jp/" }, "geometry": { "type": "Point", "coordinates": [ 138.089426984655802, 36.706810760381273 ] } },
{ "type": "Feature", "properties": { "内容": "あいの里【短期入所生活介護】長野県長野市篠ノ井会４４７番地３", "url": "https://www.kaigokensaku.mhlw.go.jp/20/index.php?action_kouhyou_detail_004_kani=true&JigyosyoCd=2070106162-00&ServiceCd=210&Type=search", "url2": "https://ainosato-nagano.com/company/" }, "geometry": { "type": "Point", "coordinates": [ 138.14908374662707, 36.567366010124523 ] } },
{ "type": "Feature", "properties": { "内容": "特別養護老人ホームりんごの郷【短期入所生活介護】長野県長野市大字穂保字町裏２０７番地１", "url": "https://www.kaigokensaku.mhlw.go.jp/20/index.php?action_kouhyou_detail_004_kani=true&JigyosyoCd=2070101536-00&ServiceCd=210&Type=search", "url2": "https://www.ja-naganokai.or.jp/" }, "geometry": { "type": "Point", "coordinates": [ 138.269420154269369, 36.681622553003642 ] } },
{ "type": "Feature", "properties": { "内容": "稲里ふれあい荘【短期入所生活介護】長野県長野市稲里町田牧659番地1", "url": "https://www.kaigokensaku.mhlw.go.jp/20/index.php?action_kouhyou_detail_004_kani=true&JigyosyoCd=2070104951-00&ServiceCd=210&Type=search", "url2": "http://www.fureaiso.com" }, "geometry": { "type": "Point", "coordinates": [ 138.168277699999976, 36.5946108 ] } },
{ "type": "Feature", "properties": { "内容": "シルバーハウスレインボー【短期入所生活介護】長野県長野市豊野町石749-3", "url": "https://www.kaigokensaku.mhlw.go.jp/20/index.php?action_kouhyou_detail_004_kani=true&JigyosyoCd=2070106949-00&ServiceCd=210&Type=search", "url2": "harmony-rainbow.main.jp/" }, "geometry": { "type": "Point", "coordinates": [ 138.266574103921499, 36.709919764689033 ] } },
{ "type": "Feature", "properties": { "内容": "ショートステイこじま【短期入所生活介護】長野県長野市若里五丁目8番6号小島病院内4階", "url": "https://www.kaigokensaku.mhlw.go.jp/20/index.php?action_kouhyou_detail_004_kani=true&JigyosyoCd=2070107038-00&ServiceCd=210&Type=search", "url2": "https://kojima-hosp.or.jp/" }, "geometry": { "type": "Point", "coordinates": [ 138.18564794484405, 36.628314090906322 ] } },
{ "type": "Feature", "properties": { "内容": "地域密着型介護老人福祉施設博仁会川中島桜荘【短期入所生活介護】長野県長野市川中島町今里字石原1034-1", "url": "https://www.kaigokensaku.mhlw.go.jp/20/index.php?action_kouhyou_detail_004_kani=true&JigyosyoCd=2070104720-00&ServiceCd=210&Type=search", "url2": "https://hakujinkai-nagano.or.jp/" }, "geometry": { "type": "Point", "coordinates": [ 138.142708, 36.602148 ] } },
{ "type": "Feature", "properties": { "内容": "地域密着型介護老人福祉施設ハーモニー沢村【短期入所生活介護】長野県松本市沢村3丁目6番16号", "url": "https://www.kaigokensaku.mhlw.go.jp/20/index.php?action_kouhyou_detail_004_kani=true&JigyosyoCd=2070203316-00&ServiceCd=210&Type=search", "url2": "http://www.harmony-matsumoto.or.jp" }, "geometry": { "type": "Point", "coordinates": [ 137.970194600000013, 36.2557079 ] } },
{ "type": "Feature", "properties": { "内容": "特別養護老人ホームうつくしの里【短期入所生活介護】長野県松本市大字里山辺藤井９１０－１", "url": "https://www.kaigokensaku.mhlw.go.jp/20/index.php?action_kouhyou_detail_004_kani=true&JigyosyoCd=2070200221-00&ServiceCd=210&Type=search", "url2": "http://www.ja-naganokai.or.jp" }, "geometry": { "type": "Point", "coordinates": [ 138.0042043, 36.2435122 ] } },
{ "type": "Feature", "properties": { "内容": "ゆめの里和田【短期入所生活介護】長野県松本市大字和田２２４０-３３", "url": "https://www.kaigokensaku.mhlw.go.jp/20/index.php?action_kouhyou_detail_004_kani=true&JigyosyoCd=2070200759-00&ServiceCd=210&Type=search", "url2": "https://www.yumenosato.info" }, "geometry": { "type": "Point", "coordinates": [ 137.9158036, 36.2038908 ] } },
{ "type": "Feature", "properties": { "内容": "介護老人福祉施設サルビア【短期入所生活介護】長野県松本市梓川倭3234番地15", "url": "https://www.kaigokensaku.mhlw.go.jp/20/index.php?action_kouhyou_detail_004_kani=true&JigyosyoCd=2072800531-00&ServiceCd=210&Type=search", "url2": "azusanosato-salvia.jp" }, "geometry": { "type": "Point", "coordinates": [ 137.912066699999968, 36.2428353 ] } },
{ "type": "Feature", "properties": { "内容": "うつくしがはら温泉敬老園　ショートステイ【短期入所生活介護】長野県松本市里山辺67-1", "url": "https://www.kaigokensaku.mhlw.go.jp/20/index.php?action_kouhyou_detail_004_kani=true&JigyosyoCd=2070202425-00&ServiceCd=210&Type=search", "url2": "http://ｗｗｗ．ｋｅｉｒｏｅｎ．ｏｒ．ｊｐ" }, "geometry": { "type": "Point", "coordinates": [ 137.997328, 36.2473519 ] } },
{ "type": "Feature", "properties": { "内容": "特別養護老人ホーム　ぬくもりの里島立【短期入所生活介護】長野県松本市島立２８２番地", "url": "https://www.kaigokensaku.mhlw.go.jp/20/index.php?action_kouhyou_detail_004_kani=true&JigyosyoCd=2070201856-00&ServiceCd=210&Type=search", "url2": "http://www.serita-fukushi.or.jp/nukumori/" }, "geometry": { "type": "Point", "coordinates": [ 137.947806500000013, 36.2310746 ] } },
{ "type": "Feature", "properties": { "内容": "ちくまの【短期入所生活介護】長野県松本市波田６９１４番地１", "url": "https://www.kaigokensaku.mhlw.go.jp/20/index.php?action_kouhyou_detail_004_kani=true&JigyosyoCd=2072700517-00&ServiceCd=210&Type=search", "url2": "http://aoihato.com" }, "geometry": { "type": "Point", "coordinates": [ 137.8673609, 36.2005974 ] } },
{ "type": "Feature", "properties": { "内容": "真寿園【短期入所生活介護】長野県松本市寿中２－２０－１", "url": "https://www.kaigokensaku.mhlw.go.jp/20/index.php?action_kouhyou_detail_004_kani=true&JigyosyoCd=2070200213-00&ServiceCd=210&Type=search", "url2": "http://www.shinjyuen.net/sinjyuen.html" }, "geometry": { "type": "Point", "coordinates": [ 137.968675599999983, 36.1788929 ] } },
{ "type": "Feature", "properties": { "内容": "特別養護老人ホーム　ローズガーデン【短期入所生活介護】長野県松本市中山6788番地38", "url": "https://www.kaigokensaku.mhlw.go.jp/20/index.php?action_kouhyou_detail_004_kani=true&JigyosyoCd=2070204314-00&ServiceCd=210&Type=search", "url2": "http://www.rosegarden-s.com/" }, "geometry": { "type": "Point", "coordinates": [ 138.006472231877154, 36.170584305862633 ] } },
{ "type": "Feature", "properties": { "内容": "やまびこの里【短期入所生活介護】長野県松本市大字今井4820番地1", "url": "https://www.kaigokensaku.mhlw.go.jp/20/index.php?action_kouhyou_detail_004_kani=true&JigyosyoCd=2070200239-00&ServiceCd=210&Type=search", "url2": "http://aoihato.com/" }, "geometry": { "type": "Point", "coordinates": [ 137.911404800000014, 36.1789466 ] } },
{ "type": "Feature", "properties": { "内容": "ゆめの里今井【短期入所生活介護】長野県松本市今井1670", "url": "https://www.kaigokensaku.mhlw.go.jp/20/index.php?action_kouhyou_detail_004_kani=true&JigyosyoCd=2070203936-00&ServiceCd=210&Type=search", "url2": "http://yumenosato.info" }, "geometry": { "type": "Point", "coordinates": [ 137.907045005290342, 36.151789062911753 ] } },
{ "type": "Feature", "properties": { "内容": "四賀福寿荘【短期入所生活介護】長野県松本市刈谷原町６１３番地", "url": "https://www.kaigokensaku.mhlw.go.jp/20/index.php?action_kouhyou_detail_004_kani=true&JigyosyoCd=2072700244-00&ServiceCd=210&Type=search", "url2": "https://aoihato.com/" }, "geometry": { "type": "Point", "coordinates": [ 137.995895499999961, 36.3179738 ] } },
{ "type": "Feature", "properties": { "内容": "梓苑【短期入所生活介護】長野県松本市島内３３２番地", "url": "https://www.kaigokensaku.mhlw.go.jp/20/index.php?action_kouhyou_detail_004_kani=true&JigyosyoCd=2070202128-00&ServiceCd=210&Type=search", "url2": "https://welllife-shiho.jp" }, "geometry": { "type": "Point", "coordinates": [ 137.918916299999978, 36.2346448 ] } },
{ "type": "Feature", "properties": { "内容": "特別養護老人ホーム岡田の里【短期入所生活介護】長野県松本市大字岡田下岡田６７７番地1", "url": "https://www.kaigokensaku.mhlw.go.jp/20/index.php?action_kouhyou_detail_004_kani=true&JigyosyoCd=2070200205-00&ServiceCd=210&Type=search", "url2": "https://aoihato.com" }, "geometry": { "type": "Point", "coordinates": [ 137.959664699999962, 36.2631621 ] } },
{ "type": "Feature", "properties": { "内容": "オーチャード開智【短期入所生活介護】長野県松本市開智2-3-50", "url": "https://www.kaigokensaku.mhlw.go.jp/20/index.php?action_kouhyou_detail_004_kani=true&JigyosyoCd=2070203407-00&ServiceCd=210&Type=search", "url2": "https://kaichi.orchard-care.co.jp/" }, "geometry": { "type": "Point", "coordinates": [ 137.970431400000052, 36.2418236 ] } },
{ "type": "Feature", "properties": { "内容": "松本ケアセンターそよ風【短期入所生活介護】長野県松本市大字笹賀8134‐1", "url": "https://www.kaigokensaku.mhlw.go.jp/20/index.php?action_kouhyou_detail_004_kani=true&JigyosyoCd=2070204322-00&ServiceCd=210&Type=search", "url2": "https://www.sykz.co.jp/shisetsu-zaitaku/204413" }, "geometry": { "type": "Point", "coordinates": [ 137.939024388190262, 36.177573961865114 ] } },
{ "type": "Feature", "properties": { "内容": "ローマンうえだ地域密着型サテライト特養上野の里【短期入所生活介護】上田市上野字柳田２８６－１", "url": "https://www.kaigokensaku.mhlw.go.jp/20/index.php?action_kouhyou_detail_004_kani=true&JigyosyoCd=2070301565-00&ServiceCd=210&Type=search", "url2": "http://www.ja-naganokai.or.jp/facilities/ueda/" }, "geometry": { "type": "Point", "coordinates": [ 138.294487, 36.4127438 ] } },
{ "type": "Feature", "properties": { "内容": "しものごう敬老園【短期入所生活介護】上田市下之郷463-1", "url": "https://www.kaigokensaku.mhlw.go.jp/20/index.php?action_kouhyou_detail_004_kani=true&JigyosyoCd=2070301581-00&ServiceCd=210&Type=search", "url2": null }, "geometry": { "type": "Point", "coordinates": [ 138.216677200000049, 36.364029 ] } },
{ "type": "Feature", "properties": { "内容": "地域密着型特別養護老人ホーム上田大手門【短期入所生活介護】上田市中央2-3-8複合型老人福祉施設上田大手門", "url": "https://www.kaigokensaku.mhlw.go.jp/20/index.php?action_kouhyou_detail_004_kani=true&JigyosyoCd=2070301607-00&ServiceCd=210&Type=search", "url2": null }, "geometry": { "type": "Point", "coordinates": [ 138.252099700000031, 36.4015755 ] } },
{ "type": "Feature", "properties": { "内容": "すわべ敬老園【短期入所生活介護】長野県上田市常磐城2243-1", "url": "https://www.kaigokensaku.mhlw.go.jp/20/index.php?action_kouhyou_detail_004_kani=true&JigyosyoCd=2070302035-00&ServiceCd=210&Type=search", "url2": "http://www.keiroen.or.jp" }, "geometry": { "type": "Point", "coordinates": [ 138.242541699999947, 36.4073359 ] } },
{ "type": "Feature", "properties": { "内容": "室賀の里短期生活介護センター【短期入所生活介護】長野県上田市上室賀19番地", "url": "https://www.kaigokensaku.mhlw.go.jp/20/index.php?action_kouhyou_detail_004_kani=true&JigyosyoCd=2070300211-00&ServiceCd=210&Type=search", "url2": "https://shiinomikai.com/" }, "geometry": { "type": "Point", "coordinates": [ 138.159373685844457, 36.403220786415567 ] } },
{ "type": "Feature", "properties": { "内容": "ベルポートまるこ東【短期入所生活介護】長野県上田市中丸子１８９７番地１", "url": "https://www.kaigokensaku.mhlw.go.jp/20/index.php?action_kouhyou_detail_004_kani=true&JigyosyoCd=2070301177-00&ServiceCd=210&Type=search", "url2": "http://daijukai.or.jp/" }, "geometry": { "type": "Point", "coordinates": [ 138.269184499999938, 36.3368559 ] } },
{ "type": "Feature", "properties": { "内容": "ユニットケア型しものごう敬老園【短期入所生活介護】長野県上田市下之郷463-1", "url": "https://www.kaigokensaku.mhlw.go.jp/20/index.php?action_kouhyou_detail_004_kani=true&JigyosyoCd=2070301573-00&ServiceCd=210&Type=search", "url2": "http://www.keiroen.or.jp" }, "geometry": { "type": "Point", "coordinates": [ 138.216690199999988, 36.36393 ] } },
{ "type": "Feature", "properties": { "内容": "依田窪特別養護老人ホーム短期入所生活介護事業【短期入所生活介護】長野県上田市下武石776-1番地", "url": "https://www.kaigokensaku.mhlw.go.jp/20/index.php?action_kouhyou_detail_004_kani=true&JigyosyoCd=2072200237-00&ServiceCd=210&Type=search", "url2": "http://www.janis.or.jp/users/tomosibi/" }, "geometry": { "type": "Point", "coordinates": [ 138.229001299999936, 36.2860691 ] } },
{ "type": "Feature", "properties": { "内容": "地域密着型特別養護老人ホーム大樹【短期入所生活介護】長野県上田市長瀬2885番地7", "url": "https://www.kaigokensaku.mhlw.go.jp/20/index.php?action_kouhyou_detail_004_kani=true&JigyosyoCd=2070302134-00&ServiceCd=210&Type=search", "url2": null }, "geometry": { "type": "Point", "coordinates": [ 138.293571499999985, 36.3614848 ] } },
{ "type": "Feature", "properties": { "内容": "アザレアンさなだ【短期入所生活介護】長野県上田市真田町長７１４１－１", "url": "https://www.kaigokensaku.mhlw.go.jp/20/index.php?action_kouhyou_detail_004_kani=true&JigyosyoCd=2072200195-00&ServiceCd=210&Type=search", "url2": "http://www.azarean.jp" }, "geometry": { "type": "Point", "coordinates": [ 138.305767699999933, 36.4433461 ] } },
{ "type": "Feature", "properties": { "内容": "短期入所生活介護ほのぼの【短期入所生活介護】長野県上田市住吉322", "url": "https://www.kaigokensaku.mhlw.go.jp/20/index.php?action_kouhyou_detail_004_kani=true&JigyosyoCd=2070300856-00&ServiceCd=210&Type=search", "url2": "http://honobono-ueda.jp" }, "geometry": { "type": "Point", "coordinates": [ 138.279236, 36.4058444 ] } },
{ "type": "Feature", "properties": { "内容": "別所温泉長寿園【短期入所生活介護】長野県上田市別所温泉１８２８番地２", "url": "https://www.kaigokensaku.mhlw.go.jp/20/index.php?action_kouhyou_detail_004_kani=true&JigyosyoCd=2070300229-00&ServiceCd=210&Type=search", "url2": "care-net.biz/20/choujuen/" }, "geometry": { "type": "Point", "coordinates": [ 138.158899, 36.3529822 ] } },
{ "type": "Feature", "properties": { "内容": "特別養護老人ホーム　うえだ敬老園【短期入所生活介護】長野県上田市中央3-14-5", "url": "https://www.kaigokensaku.mhlw.go.jp/20/index.php?action_kouhyou_detail_004_kani=true&JigyosyoCd=2070300526-00&ServiceCd=210&Type=search", "url2": "http://www.keiroen.or.jp/" }, "geometry": { "type": "Point", "coordinates": [ 138.254980100000012, 36.4019782 ] } },
{ "type": "Feature", "properties": { "内容": "特別養護老人ホーム　ローマンうえだ【短期入所生活介護】長野県上田市殿城２５０－１", "url": "https://www.kaigokensaku.mhlw.go.jp/20/index.php?action_kouhyou_detail_004_kani=true&JigyosyoCd=2070300484-00&ServiceCd=210&Type=search", "url2": "https://www.ja-naganokai.or.jp/" }, "geometry": { "type": "Point", "coordinates": [ 138.305597700000021, 36.4138366 ] } },
{ "type": "Feature", "properties": { "内容": "特別養護老人ホーム神川苑【短期入所生活介護】長野県上田市蒼久保1181-6", "url": "https://www.kaigokensaku.mhlw.go.jp/20/index.php?action_kouhyou_detail_004_kani=true&JigyosyoCd=2070302191-00&ServiceCd=210&Type=search", "url2": "http://nodoka-hidamari.com/" }, "geometry": { "type": "Point", "coordinates": [ 138.280948666991748, 36.377283866665934 ] } },
{ "type": "Feature", "properties": { "内容": "しおがわ敬老園【短期入所生活介護】長野県上田市塩川１００１番地", "url": "https://www.kaigokensaku.mhlw.go.jp/20/index.php?action_kouhyou_detail_004_kani=true&JigyosyoCd=2072200039-00&ServiceCd=210&Type=search", "url2": "http://www.keiroen.or.jp/" }, "geometry": { "type": "Point", "coordinates": [ 138.309841900000038, 36.352960700000011 ] } },
{ "type": "Feature", "properties": { "内容": "ショートステイホーム第２グレイスフル岡谷【短期入所生活介護】岡谷市加茂町３－８－７", "url": "https://www.kaigokensaku.mhlw.go.jp/20/index.php?action_kouhyou_detail_004_kani=true&JigyosyoCd=2070400425-00&ServiceCd=210&Type=search", "url2": "http://www.e-sunlife.or.jp/" }, "geometry": { "type": "Point", "coordinates": [ 138.05325270000003, 36.0752634 ] } },
{ "type": "Feature", "properties": { "内容": "指定介護老人福祉施設さわらび【短期入所生活介護】長野県岡谷市西山１７２３-１０１", "url": "https://www.kaigokensaku.mhlw.go.jp/20/index.php?action_kouhyou_detail_004_kani=true&JigyosyoCd=2070400219-00&ServiceCd=210&Type=search", "url2": "http://www.heisei-kai.jp/sisetu/sawarabi/" }, "geometry": { "type": "Point", "coordinates": [ 138.037538700000027, 36.0779865 ] } },
{ "type": "Feature", "properties": { "内容": "あんきの森【短期入所生活介護】長野県飯田市毛賀1139-1", "url": "https://www.kaigokensaku.mhlw.go.jp/20/index.php?action_kouhyou_detail_004_kani=true&JigyosyoCd=2070501149-00&ServiceCd=210&Type=search", "url2": "http://www.heartcareiida.com" }, "geometry": { "type": "Point", "coordinates": [ 137.834076828836032, 35.491318232272505 ] } },
{ "type": "Feature", "properties": { "内容": "ショートステイ特養たまゆら【短期入所生活介護】長野県飯田市北方３３５４－１", "url": "https://www.kaigokensaku.mhlw.go.jp/20/index.php?action_kouhyou_detail_004_kani=true&JigyosyoCd=2070502097-00&ServiceCd=210&Type=search", "url2": "https://www.nagano-tamayura.com/" }, "geometry": { "type": "Point", "coordinates": [ 137.786434500000041, 35.5069286 ] } },
{ "type": "Feature", "properties": { "内容": "シルバーハウスゆめの郷【短期入所生活介護】長野県飯田市松尾代田９１０－１", "url": "https://www.kaigokensaku.mhlw.go.jp/20/index.php?action_kouhyou_detail_004_kani=true&JigyosyoCd=2070501313-00&ServiceCd=210&Type=search", "url2": "http://kayagakikai-iida.jp/publics/index/1/" }, "geometry": { "type": "Point", "coordinates": [ 137.828258399999982, 35.4913196 ] } },
{ "type": "Feature", "properties": { "内容": "特別養護老人ホームやまりきの郷【短期入所生活介護】長野県飯田市鼎下山1206番地", "url": "https://www.kaigokensaku.mhlw.go.jp/20/index.php?action_kouhyou_detail_004_kani=true&JigyosyoCd=2070502105-00&ServiceCd=210&Type=search", "url2": "http://yamarikishoujyukai.jp/" }, "geometry": { "type": "Point", "coordinates": [ 137.8340863, 35.5057236 ] } },
{ "type": "Feature", "properties": { "内容": "第２やまりきの郷サテライト　下茶屋の庵【短期入所生活介護】長野県飯田市鼎下茶屋2178番地2", "url": "https://www.kaigokensaku.mhlw.go.jp/20/index.php?action_kouhyou_detail_004_kani=true&JigyosyoCd=2070502386-00&ServiceCd=210&Type=search", "url2": "https://yamarikishoujyukai.jp/" }, "geometry": { "type": "Point", "coordinates": [ 137.827212117057286, 35.510136130204003 ] } },
{ "type": "Feature", "properties": { "内容": "特別養護老人ホーム遠山荘【短期入所生活介護】長野県飯田市南信濃和田１５５０", "url": "https://www.kaigokensaku.mhlw.go.jp/20/index.php?action_kouhyou_detail_004_kani=true&JigyosyoCd=2072500958-00&ServiceCd=210&Type=search", "url2": "http://www.iidashakyo.or.jp/" }, "geometry": { "type": "Point", "coordinates": [ 137.928936099999987, 35.3185355 ] } },
{ "type": "Feature", "properties": { "内容": "特別養護老人ホームかざこしの里【短期入所生活介護】長野県飯田市三日市場２１００", "url": "https://www.kaigokensaku.mhlw.go.jp/20/index.php?action_kouhyou_detail_004_kani=true&JigyosyoCd=2070501099-00&ServiceCd=210&Type=search", "url2": "http://www.wn-sekizenkai.or.jp" }, "geometry": { "type": "Point", "coordinates": [ 137.796090199999981, 35.4866283 ] } },
{ "type": "Feature", "properties": { "内容": "ショートステイたまゆら【短期入所生活介護】長野県飯田市北方２６８８－２", "url": "https://www.kaigokensaku.mhlw.go.jp/20/index.php?action_kouhyou_detail_004_kani=true&JigyosyoCd=2070501073-00&ServiceCd=210&Type=search", "url2": "https://www.tamayura.ne.jp" }, "geometry": { "type": "Point", "coordinates": [ 137.793050499999907, 35.5066065 ] } },
{ "type": "Feature", "properties": { "内容": "特別養護老人ホーム笑みの里【短期入所生活介護】長野県飯田市上郷別府2230－8", "url": "https://www.kaigokensaku.mhlw.go.jp/20/index.php?action_kouhyou_detail_004_kani=true&JigyosyoCd=2070501941-00&ServiceCd=210&Type=search", "url2": "www.wn-sekizenkai.or.jp" }, "geometry": { "type": "Point", "coordinates": [ 137.838965914680443, 35.515303037616221 ] } },
{ "type": "Feature", "properties": { "内容": "短期入所生活介護陽だまりの丘【短期入所生活介護】長野県飯田市北方3369番地1", "url": "https://www.kaigokensaku.mhlw.go.jp/20/index.php?action_kouhyou_detail_004_kani=true&JigyosyoCd=2070501735-00&ServiceCd=210&Type=search", "url2": "http://ichiyokai-iida.jp/" }, "geometry": { "type": "Point", "coordinates": [ 137.7880649, 35.5069647 ] } },
{ "type": "Feature", "properties": { "内容": "特別養護老人ホーム　ゆい【短期入所生活介護】長野県飯田市龍江７１５９番地1", "url": "https://www.kaigokensaku.mhlw.go.jp/20/index.php?action_kouhyou_detail_004_kani=true&JigyosyoCd=2070500398-00&ServiceCd=210&Type=search", "url2": "http://yuinosato-nagano.or.jp" }, "geometry": { "type": "Point", "coordinates": [ 137.821269600000051, 35.4420892 ] } },
{ "type": "Feature", "properties": { "内容": "かりんの里複合福祉施設【短期入所生活介護】諏訪市高島１－１－１１", "url": "https://www.kaigokensaku.mhlw.go.jp/20/index.php?action_kouhyou_detail_004_kani=true&JigyosyoCd=2070600420-00&ServiceCd=210&Type=search", "url2": "http://suwafukushi.com/022_fukugou/022_index.html" }, "geometry": { "type": "Point", "coordinates": [ 138.110829, 36.0417329 ] } },
{ "type": "Feature", "properties": { "内容": "地域密着型特別養護老人ホームうぐいすの森【短期入所生活介護】長野県諏訪市沖田町四丁目２番１号", "url": "https://www.kaigokensaku.mhlw.go.jp/20/index.php?action_kouhyou_detail_004_kani=true&JigyosyoCd=2070600941-00&ServiceCd=210&Type=search", "url2": "https://www.komakusa.or.jp/" }, "geometry": { "type": "Point", "coordinates": [ 138.131625399999962, 36.0070989 ] } },
{ "type": "Feature", "properties": { "内容": "すばらしき仲間たち【短期入所生活介護】長野県諏訪市湖南４８９４－１", "url": "https://www.kaigokensaku.mhlw.go.jp/20/index.php?action_kouhyou_detail_004_kani=true&JigyosyoCd=2070600099-00&ServiceCd=210&Type=search", "url2": "http://www.seibonokai.com" }, "geometry": { "type": "Point", "coordinates": [ 138.099198399999977, 36.0061036 ] } },
{ "type": "Feature", "properties": { "内容": "特別養護老人ホームふくろうの森【短期入所生活介護】長野県諏訪市四賀2398-1", "url": "https://www.kaigokensaku.mhlw.go.jp/20/index.php?action_kouhyou_detail_004_kani=true&JigyosyoCd=2070600594-00&ServiceCd=210&Type=search", "url2": "http://www.lcv.ne.jp/~komakusa/fukurou.html" }, "geometry": { "type": "Point", "coordinates": [ 138.129911099999987, 36.0109904 ] } },
{ "type": "Feature", "properties": { "内容": "特別養護老人ホームうぐいすの森【短期入所生活介護】長野県諏訪市沖田町四丁目2番1号", "url": "https://www.kaigokensaku.mhlw.go.jp/20/index.php?action_kouhyou_detail_004_kani=true&JigyosyoCd=2071400994-00&ServiceCd=210&Type=search", "url2": "https://www.komakusa.or.jp/" }, "geometry": { "type": "Point", "coordinates": [ 138.131542200000013, 36.0073783 ] } },
{ "type": "Feature", "properties": { "内容": "ケアネットショートステイ長野【短期入所生活介護】長野県須坂市小山蒔田2518-1", "url": "https://www.kaigokensaku.mhlw.go.jp/20/index.php?action_kouhyou_detail_004_kani=true&JigyosyoCd=2070700352-00&ServiceCd=210&Type=search", "url2": "http://www.carenet.fujitsu.com/" }, "geometry": { "type": "Point", "coordinates": [ 138.288393322748561, 36.656319516386851 ] } },
{ "type": "Feature", "properties": { "内容": "養護老人ホーム　寿楽園【短期入所生活介護】長野県須坂市大字日滝字寺窪　2878-1", "url": "https://www.kaigokensaku.mhlw.go.jp/20/index.php?action_kouhyou_detail_004_kani=true&JigyosyoCd=2070700386-00&ServiceCd=210&Type=search", "url2": "http://www.valley.ne.jp/~yasuragi/" }, "geometry": { "type": "Point", "coordinates": [ 138.32827520396151, 36.670207003280566 ] } },
{ "type": "Feature", "properties": { "内容": "特別養護老人ホーム須坂荘（介護予防）短期入所生活介護【短期入所生活介護】長野県須坂市塩野町951番地", "url": "https://www.kaigokensaku.mhlw.go.jp/20/index.php?action_kouhyou_detail_004_kani=true&JigyosyoCd=2070700717-00&ServiceCd=210&Type=search", "url2": "http://www.greenarum.jp/" }, "geometry": { "type": "Point", "coordinates": [ 138.3344079, 36.6258482 ] } },
{ "type": "Feature", "properties": { "内容": "グリーンパルベル【短期入所生活介護】長野県須坂市仁礼町７番地１０", "url": "https://www.kaigokensaku.mhlw.go.jp/20/index.php?action_kouhyou_detail_004_kani=true&JigyosyoCd=2070700204-00&ServiceCd=210&Type=search", "url2": "http://www.greenarum.jp" }, "geometry": { "type": "Point", "coordinates": [ 138.338664699999981, 36.6137439 ] } },
{ "type": "Feature", "properties": { "内容": "地域密着型特別養護老人ホームぬくもり園【短期入所生活介護】長野県須坂市大字野辺1335番地1", "url": "https://www.kaigokensaku.mhlw.go.jp/20/index.php?action_kouhyou_detail_004_kani=true&JigyosyoCd=2070700584-00&ServiceCd=210&Type=search", "url2": "http://www.suzaka-shakyo.jp/" }, "geometry": { "type": "Point", "coordinates": [ 138.319826400000011, 36.6354857 ] } },
{ "type": "Feature", "properties": { "内容": "高齢者総合福祉施設須坂やすらぎの園【短期入所生活介護】長野県須坂市大字日滝字寺窪２８８７-１", "url": "https://www.kaigokensaku.mhlw.go.jp/20/index.php?action_kouhyou_detail_004_kani=true&JigyosyoCd=2070700055-00&ServiceCd=210&Type=search", "url2": "http://www.valley.ne.jp/~yasuragi/wellcome.html" }, "geometry": { "type": "Point", "coordinates": [ 138.328461617488045, 36.671227818304224 ] } },
{ "type": "Feature", "properties": { "内容": "高齢者総合福祉施設須坂やすらぎの園【短期入所生活介護】長野県須坂市大字日滝字寺窪2887-1", "url": "https://www.kaigokensaku.mhlw.go.jp/20/index.php?action_kouhyou_detail_004_kani=true&JigyosyoCd=2070700592-00&ServiceCd=210&Type=search", "url2": "http://www.valley.ne.jp/~yasuragi/" }, "geometry": { "type": "Point", "coordinates": [ 138.307191699999947, 36.6510973 ] } },
{ "type": "Feature", "properties": { "内容": "地域密着型特別養護老人ホームそのさと【短期入所生活介護】長野県須坂市大字豊丘2754番地１地域密着型特別養護老人ホームそのさと", "url": "https://www.kaigokensaku.mhlw.go.jp/20/index.php?action_kouhyou_detail_004_kani=true&JigyosyoCd=2070700758-00&ServiceCd=210&Type=search", "url2": "https://sonosato-suzaka.com/" }, "geometry": { "type": "Point", "coordinates": [ 138.383849, 36.6344725 ] } },
{ "type": "Feature", "properties": { "内容": "特別養護老人ホームこうみの里【短期入所生活介護】南佐久郡小海町小海3130番地4", "url": "https://www.kaigokensaku.mhlw.go.jp/20/index.php?action_kouhyou_detail_004_kani=true&JigyosyoCd=2072000728-00&ServiceCd=210&Type=search", "url2": "http://www.ja-naganokai.or.jp/" }, "geometry": { "type": "Point", "coordinates": [ 138.482724118524146, 36.07308288899312 ] } },
{ "type": "Feature", "properties": { "内容": "短期入所生活介護所　愛灯園【短期入所生活介護】長野県小諸市己字高峯143-1", "url": "https://www.kaigokensaku.mhlw.go.jp/20/index.php?action_kouhyou_detail_004_kani=true&JigyosyoCd=2070800129-00&ServiceCd=210&Type=search", "url2": "http://www.aitouen.org" }, "geometry": { "type": "Point", "coordinates": [ 138.448391500000071, 36.3533472 ] } },
{ "type": "Feature", "properties": { "内容": "あすか小諸【短期入所生活介護】長野県小諸市相生町１－３－３", "url": "https://www.kaigokensaku.mhlw.go.jp/20/index.php?action_kouhyou_detail_004_kani=true&JigyosyoCd=2070800558-00&ServiceCd=210&Type=search", "url2": "http://tbcss.co.jp" }, "geometry": { "type": "Point", "coordinates": [ 138.42277480000007, 36.3270079 ] } },
{ "type": "Feature", "properties": { "内容": "ショートステイ佐久だいら【短期入所生活介護】長野県小諸市市３３８-３", "url": "https://www.kaigokensaku.mhlw.go.jp/20/index.php?action_kouhyou_detail_004_kani=true&JigyosyoCd=2070800582-00&ServiceCd=210&Type=search", "url2": "http://www.carehouse-sakudaira.com/shortstaysaku.php" }, "geometry": { "type": "Point", "coordinates": [ 138.443329841400129, 36.281487356847663 ] } },
{ "type": "Feature", "properties": { "内容": "菊の園【短期入所生活介護】長野県小諸市大字滝原２５７－６", "url": "https://www.kaigokensaku.mhlw.go.jp/20/index.php?action_kouhyou_detail_004_kani=true&JigyosyoCd=2070800038-00&ServiceCd=210&Type=search", "url2": "http://www.kikunosono.or.jp/" }, "geometry": { "type": "Point", "coordinates": [ 138.411794500000042, 36.3505355 ] } },
{ "type": "Feature", "properties": { "内容": "複合福祉施設みぶの里【短期入所生活介護】長野県伊那市美篶5324-1複合福祉施設みぶの里", "url": "https://www.kaigokensaku.mhlw.go.jp/20/index.php?action_kouhyou_detail_004_kani=true&JigyosyoCd=2070900754-00&ServiceCd=210&Type=search", "url2": "http://s-sawayaka.or.jp/index.php?id=204" }, "geometry": { "type": "Point", "coordinates": [ 138.0067398939957, 35.832376718429245 ] } },
{ "type": "Feature", "properties": { "内容": "特別養護老人ホーム　オアシス高遠【短期入所生活介護】長野県伊那市高遠町西高遠698番２", "url": "https://www.kaigokensaku.mhlw.go.jp/20/index.php?action_kouhyou_detail_004_kani=true&JigyosyoCd=2070900911-00&ServiceCd=210&Type=search", "url2": "https://yasuraginosato2011,or.jp" }, "geometry": { "type": "Point", "coordinates": [ 138.0564363, 35.8319137 ] } },
{ "type": "Feature", "properties": { "内容": "特別養護老人ホームさくらの里【短期入所生活介護】長野県伊那市高遠町勝間220番地", "url": "https://www.kaigokensaku.mhlw.go.jp/20/index.php?action_kouhyou_detail_004_kani=true&JigyosyoCd=2072400639-00&ServiceCd=210&Type=search", "url2": "https://sakura-v.or.jp/" }, "geometry": { "type": "Point", "coordinates": [ 138.066345653334139, 35.825533651653117 ] } },
{ "type": "Feature", "properties": { "内容": "地域密着型特別養護老人ホームみのりの杜【短期入所生活介護】長野県伊那市東春近8897番地", "url": "https://www.kaigokensaku.mhlw.go.jp/20/index.php?action_kouhyou_detail_004_kani=true&JigyosyoCd=2070900713-00&ServiceCd=210&Type=search", "url2": "http://sakura-v.or.jp/index.php?id=71" }, "geometry": { "type": "Point", "coordinates": [ 137.977446590721115, 35.817708285386622 ] } },
{ "type": "Feature", "properties": { "内容": "特別養護老人ホームサンハート美和【短期入所生活介護】長野県伊那市長谷非持484番地1", "url": "https://www.kaigokensaku.mhlw.go.jp/20/index.php?action_kouhyou_detail_004_kani=true&JigyosyoCd=2072400746-00&ServiceCd=210&Type=search", "url2": "http://kamifuku.jp/" }, "geometry": { "type": "Point", "coordinates": [ 138.082367636401358, 35.810907611681955 ] } },
{ "type": "Feature", "properties": { "内容": "特別養護老人ホームみさやま【短期入所生活介護】伊那市西箕輪3900-251", "url": "https://www.kaigokensaku.mhlw.go.jp/20/index.php?action_kouhyou_detail_004_kani=true&JigyosyoCd=2070900598-00&ServiceCd=210&Type=search", "url2": "http://www.kamifuku.jp/" }, "geometry": { "type": "Point", "coordinates": [ 137.931297409756439, 35.877247526801774 ] } },
{ "type": "Feature", "properties": { "内容": "特別養護老人ホームみすず四恩の家【短期入所生活介護】長野県伊那市美篶7164番地2", "url": "https://www.kaigokensaku.mhlw.go.jp/20/index.php?action_kouhyou_detail_004_kani=true&JigyosyoCd=2070900655-00&ServiceCd=210&Type=search", "url2": "http://misuzusionnoie.com/" }, "geometry": { "type": "Point", "coordinates": [ 138.010538499999939, 35.8428216 ] } },
{ "type": "Feature", "properties": { "内容": "ユニット型特別養護老人ホームみさやま【短期入所生活介護】長野県伊那市西箕輪3900番地251", "url": "https://www.kaigokensaku.mhlw.go.jp/20/index.php?action_kouhyou_detail_004_kani=true&JigyosyoCd=2070900606-00&ServiceCd=210&Type=search", "url2": "http://www.kamifuku/jp" }, "geometry": { "type": "Point", "coordinates": [ 137.931292045338409, 35.877251873452273 ] } },
{ "type": "Feature", "properties": { "内容": "特別養護老人ホームエーデルこまがね【短期入所生活介護】駒ヶ根市赤穂14421番地", "url": "https://www.kaigokensaku.mhlw.go.jp/20/index.php?action_kouhyou_detail_004_kani=true&JigyosyoCd=2071000208-00&ServiceCd=210&Type=search", "url2": null }, "geometry": { "type": "Point", "coordinates": [ 137.95070039999996, 35.7181107 ] } },
{ "type": "Feature", "properties": { "内容": "特別養護老人ホーム観成園【短期入所生活介護】長野県駒ヶ根市赤穂３２１４－１", "url": "https://www.kaigokensaku.mhlw.go.jp/20/index.php?action_kouhyou_detail_004_kani=true&JigyosyoCd=2071000083-00&ServiceCd=210&Type=search", "url2": "http://inanfukushi.or.jp/index.php?id=35" }, "geometry": { "type": "Point", "coordinates": [ 137.919530500000064, 35.7356207 ] } },
{ "type": "Feature", "properties": { "内容": "特別養護老人ホーム千寿園【短期入所生活介護】長野県駒ヶ根市赤穂８１８０番地１２", "url": "https://www.kaigokensaku.mhlw.go.jp/20/index.php?action_kouhyou_detail_004_kani=true&JigyosyoCd=2071000067-00&ServiceCd=210&Type=search", "url2": "http://www.kamifuku.jp/publics/index/41/" }, "geometry": { "type": "Point", "coordinates": [ 137.917300899999987, 35.7130323 ] } },
{ "type": "Feature", "properties": { "内容": "地域密着型特別養護老人ホーム　かがやき【短期入所生活介護】長野県駒ヶ根市赤穂14番地892", "url": "https://www.kaigokensaku.mhlw.go.jp/20/index.php?action_kouhyou_detail_004_kani=true&JigyosyoCd=2071000422-00&ServiceCd=210&Type=search", "url2": "https://yokuyoukagayaki.wixsite.com/my-site" }, "geometry": { "type": "Point", "coordinates": [ 137.9220616, 35.7073555 ] } },
{ "type": "Feature", "properties": { "内容": "特別養護老人ホーム　高社の家【短期入所生活介護】長野県中野市大字新井353番地", "url": "https://www.kaigokensaku.mhlw.go.jp/20/index.php?action_kouhyou_detail_004_kani=true&JigyosyoCd=2071100776-00&ServiceCd=210&Type=search", "url2": "https://miyuki-f.or.jp" }, "geometry": { "type": "Point", "coordinates": [ 138.365685180130896, 36.761266727445957 ] } },
{ "type": "Feature", "properties": { "内容": "ながでんハートネット中野江部うさぎの里【短期入所生活介護】長野県中野市大字江部450-1", "url": "https://www.kaigokensaku.mhlw.go.jp/20/index.php?action_kouhyou_detail_004_kani=true&JigyosyoCd=2071100628-00&ServiceCd=210&Type=search", "url2": "nagden-wellness.co.jp" }, "geometry": { "type": "Point", "coordinates": [ 138.33928149999997, 36.7280891 ] } },
{ "type": "Feature", "properties": { "内容": "特別養護老人ホームふるさと苑【短期入所生活介護】長野県中野市大字穴田2322番地１", "url": "https://www.kaigokensaku.mhlw.go.jp/20/index.php?action_kouhyou_detail_004_kani=true&JigyosyoCd=2073500072-00&ServiceCd=210&Type=search", "url2": "http://www.hokusin.or.jp/02work/sisetu/furusato/index.htm" }, "geometry": { "type": "Point", "coordinates": [ 138.324662699999976, 36.8005162 ] } },
{ "type": "Feature", "properties": { "内容": "従来型特別養護老人ホーム　フランセーズ悠なかの短期入所生活介護【短期入所生活介護】長野県中野市片塩58-23", "url": "https://www.kaigokensaku.mhlw.go.jp/20/index.php?action_kouhyou_detail_004_kani=true&JigyosyoCd=2071100594-00&ServiceCd=210&Type=search", "url2": "http://www.hakuyukai.com/" }, "geometry": { "type": "Point", "coordinates": [ 138.348374599999943, 36.7452153 ] } },
{ "type": "Feature", "properties": { "内容": "ユニット型特別養護老人ホーム　フランセーズ悠なかの【短期入所生活介護】長野県中野市片塩58-23", "url": "https://www.kaigokensaku.mhlw.go.jp/20/index.php?action_kouhyou_detail_004_kani=true&JigyosyoCd=2071100602-00&ServiceCd=210&Type=search", "url2": "http://www.hakuyukai.com/" }, "geometry": { "type": "Point", "coordinates": [ 138.348374599999943, 36.7452153 ] } },
{ "type": "Feature", "properties": { "内容": "特別養護老人ホームリーベおおまち【短期入所生活介護】長野県大町市大町3504番地13", "url": "https://www.kaigokensaku.mhlw.go.jp/20/index.php?action_kouhyou_detail_004_kani=true&JigyosyoCd=2071200592-00&ServiceCd=210&Type=search", "url2": "http://www.kita-alps.org" }, "geometry": { "type": "Point", "coordinates": [ 137.853246600000034, 36.4988905 ] } },
{ "type": "Feature", "properties": { "内容": "カトレヤ【短期入所生活介護】長野県大町市平1955番地971", "url": "https://www.kaigokensaku.mhlw.go.jp/20/index.php?action_kouhyou_detail_004_kani=true&JigyosyoCd=2071200048-00&ServiceCd=210&Type=search", "url2": "http://www.syuukoukai.jp" }, "geometry": { "type": "Point", "coordinates": [ 137.803920100000028, 36.5206969 ] } },
{ "type": "Feature", "properties": { "内容": "特別養護老人ホーム銀松苑【短期入所生活介護】長野県大町市常盤6850-24", "url": "https://www.kaigokensaku.mhlw.go.jp/20/index.php?action_kouhyou_detail_004_kani=true&JigyosyoCd=2071200394-00&ServiceCd=210&Type=search", "url2": "http://www.ginshoen.or.jp/tokuyo/what/" }, "geometry": { "type": "Point", "coordinates": [ 137.857405500000027, 36.476624 ] } },
{ "type": "Feature", "properties": { "内容": "飯山市社協ショートステイ外様【短期入所生活介護】長野県飯山市大字緑１０５１－５", "url": "https://www.kaigokensaku.mhlw.go.jp/20/index.php?action_kouhyou_detail_004_kani=true&JigyosyoCd=2081300036-00&ServiceCd=210&Type=search", "url2": "https://iiyama-shakyo.or.jp/" }, "geometry": { "type": "Point", "coordinates": [ 138.358936, 36.895949 ] } },
{ "type": "Feature", "properties": { "内容": "飯山市社協ショートステイ【短期入所生活介護】長野県飯山市大字飯山７３５５番地４", "url": "https://www.kaigokensaku.mhlw.go.jp/20/index.php?action_kouhyou_detail_004_kani=true&JigyosyoCd=2081300010-00&ServiceCd=210&Type=search", "url2": "https://iiyama-shakyo.or.jp/" }, "geometry": { "type": "Point", "coordinates": [ 138.3594712, 36.8670102 ] } },
{ "type": "Feature", "properties": { "内容": "ショートステイみゆき【短期入所生活介護】長野県飯山市大字下木島９番地", "url": "https://www.kaigokensaku.mhlw.go.jp/20/index.php?action_kouhyou_detail_004_kani=true&JigyosyoCd=2071300343-00&ServiceCd=210&Type=search", "url2": "http://www.miyuki-g.or.jp/" }, "geometry": { "type": "Point", "coordinates": [ 138.387810890213018, 36.855283295167403 ] } },
{ "type": "Feature", "properties": { "内容": "老人ホームてるさと【短期入所生活介護】長野県飯山市大字照里2000番地", "url": "https://www.kaigokensaku.mhlw.go.jp/20/index.php?action_kouhyou_detail_004_kani=true&JigyosyoCd=2071300517-00&ServiceCd=210&Type=search", "url2": "https:///www.hokusin.or.jp/shisetsu/terusato/" }, "geometry": { "type": "Point", "coordinates": [ 138.3851598, 36.9077307 ] } },
{ "type": "Feature", "properties": { "内容": "桜ハウス宮川短期入所生活介護事業所【短期入所生活介護】長野県茅野市宮川４９００番地４", "url": "https://www.kaigokensaku.mhlw.go.jp/20/index.php?action_kouhyou_detail_004_kani=true&JigyosyoCd=2071400671-00&ServiceCd=210&Type=search", "url2": "http://www.takaneh-support.co.jp" }, "geometry": { "type": "Point", "coordinates": [ 138.161434800000052, 35.9897075 ] } },
{ "type": "Feature", "properties": { "内容": "特別養護老人ホーム白駒の森【短期入所生活介護】長野県茅野市ちの3000-1", "url": "https://www.kaigokensaku.mhlw.go.jp/20/index.php?action_kouhyou_detail_004_kani=true&JigyosyoCd=2071400473-00&ServiceCd=210&Type=search", "url2": "http://www.lcv.ne.jp/~komakusa/shirakoma01.html" }, "geometry": { "type": "Point", "coordinates": [ 138.151455, 35.9921235 ] } },
{ "type": "Feature", "properties": { "内容": "諏訪中央病院組合介護老人福祉施設ふれあいの里【短期入所生活介護】長野県茅野市玉川４３００番地9", "url": "https://www.kaigokensaku.mhlw.go.jp/20/index.php?action_kouhyou_detail_004_kani=true&JigyosyoCd=2071400747-00&ServiceCd=210&Type=search", "url2": null }, "geometry": { "type": "Point", "coordinates": [ 138.177652699999953, 35.9904606 ] } },
{ "type": "Feature", "properties": { "内容": "地域密着型特別養護老人ホームこまくさ野村渋池【短期入所生活介護】広丘野村2223", "url": "https://www.kaigokensaku.mhlw.go.jp/20/index.php?action_kouhyou_detail_004_kani=true&JigyosyoCd=2071501015-00&ServiceCd=210&Type=search", "url2": "http://www.komakusa-nomura.jp" }, "geometry": { "type": "Point", "coordinates": [ 137.955835, 36.148114 ] } },
{ "type": "Feature", "properties": { "内容": "ショートステイホーム　グレイスフル塩尻【短期入所生活介護】長野県塩尻市大門八番町9-10", "url": "https://www.kaigokensaku.mhlw.go.jp/20/index.php?action_kouhyou_detail_004_kani=true&JigyosyoCd=2071500876-00&ServiceCd=210&Type=search", "url2": "https://sun-vision.or.jp" }, "geometry": { "type": "Point", "coordinates": [ 137.948321800000031, 36.1134447 ] } },
{ "type": "Feature", "properties": { "内容": "ユニット型ショートステイホーム　グレイスフル塩尻【短期入所生活介護】長野県塩尻市大門八番町9-10", "url": "https://www.kaigokensaku.mhlw.go.jp/20/index.php?action_kouhyou_detail_004_kani=true&JigyosyoCd=2071500868-00&ServiceCd=210&Type=search", "url2": "https://sun-vision.or.jp/" }, "geometry": { "type": "Point", "coordinates": [ 137.948487861376975, 36.113290016236782 ] } },
{ "type": "Feature", "properties": { "内容": "特別養護老人ホームさじきの里【短期入所生活介護】長野県塩尻市桟敷525", "url": "https://www.kaigokensaku.mhlw.go.jp/20/index.php?action_kouhyou_detail_004_kani=true&JigyosyoCd=2071500991-00&ServiceCd=210&Type=search", "url2": "http://www.kyouritsu-fukushikai.com/facility/shiojiri/index5.php" }, "geometry": { "type": "Point", "coordinates": [ 137.9675981, 36.1145943 ] } },
{ "type": "Feature", "properties": { "内容": "特別養護老人ホームえんれい【短期入所生活介護】長野県塩尻市大字片丘６７７８番地１", "url": "https://www.kaigokensaku.mhlw.go.jp/20/index.php?action_kouhyou_detail_004_kani=true&JigyosyoCd=2071500611-00&ServiceCd=210&Type=search", "url2": "http://www.enrei.or.jp/" }, "geometry": { "type": "Point", "coordinates": [ 137.998207099999973, 36.152510500000034 ] } },
{ "type": "Feature", "properties": { "内容": "桔梗荘【短期入所生活介護】長野県塩尻市広丘郷原１６８３番地１", "url": "https://www.kaigokensaku.mhlw.go.jp/20/index.php?action_kouhyou_detail_004_kani=true&JigyosyoCd=2071500132-00&ServiceCd=210&Type=search", "url2": "https://www.aoihato.jp" }, "geometry": { "type": "Point", "coordinates": [ 137.944368599999962, 36.1265152 ] } },
{ "type": "Feature", "properties": { "内容": "ショートステイこまくさ野村【短期入所生活介護】長野県塩尻市広丘野村2146", "url": "https://www.kaigokensaku.mhlw.go.jp/20/index.php?action_kouhyou_detail_004_kani=true&JigyosyoCd=2071500520-00&ServiceCd=210&Type=search", "url2": "http://www.komakusa-nomura.jp/" }, "geometry": { "type": "Point", "coordinates": [ 137.955408300000045, 36.1485155 ] } },
{ "type": "Feature", "properties": { "内容": "佐久広域老人ホーム塩名田苑【短期入所生活介護】長野県佐久市塩名田５４２番地１", "url": "https://www.kaigokensaku.mhlw.go.jp/20/index.php?action_kouhyou_detail_004_kani=true&JigyosyoCd=2072100106-00&ServiceCd=210&Type=search", "url2": "http://www.areasaku.or.jp/fukushi/index.html" }, "geometry": { "type": "Point", "coordinates": [ 138.420796099999961, 36.2700564 ] } },
{ "type": "Feature", "properties": { "内容": "特別養護老人ホームうすだコスモ苑【短期入所生活介護】長野県佐久市臼田86番地", "url": "https://www.kaigokensaku.mhlw.go.jp/20/index.php?action_kouhyou_detail_004_kani=true&JigyosyoCd=2071701714-00&ServiceCd=210&Type=search", "url2": "http://www.ja-naganokai.or.jp" }, "geometry": { "type": "Point", "coordinates": [ 138.479056500000013, 36.1947654 ] } },
{ "type": "Feature", "properties": { "内容": "佐久市特別養護老人ホームシルバーランドきしの【短期入所生活介護】長野県佐久市根岸１１３番地１", "url": "https://www.kaigokensaku.mhlw.go.jp/20/index.php?action_kouhyou_detail_004_kani=true&JigyosyoCd=2071700872-00&ServiceCd=210&Type=search", "url2": "https://naganosaiseikai.jp//" }, "geometry": { "type": "Point", "coordinates": [ 138.428013, 36.2394212 ] } },
{ "type": "Feature", "properties": { "内容": "ショートステイ佐久平愛の郷【短期入所生活介護】長野県佐久市平賀741", "url": "https://www.kaigokensaku.mhlw.go.jp/20/index.php?action_kouhyou_detail_004_kani=true&JigyosyoCd=2071701151-00&ServiceCd=210&Type=search", "url2": "http://www.skdf.jp/" }, "geometry": { "type": "Point", "coordinates": [ 138.492399299999988, 36.2259624 ] } },
{ "type": "Feature", "properties": { "内容": "佐久福寿園【短期入所生活介護】長野県佐久市岩村田４２１３番地", "url": "https://www.kaigokensaku.mhlw.go.jp/20/index.php?action_kouhyou_detail_004_kani=true&JigyosyoCd=2071701540-00&ServiceCd=210&Type=search", "url2": "http://www.janis.or.jp/users/fukujuen/index.htm" }, "geometry": { "type": "Point", "coordinates": [ 138.48670130000005, 36.2738968 ] } },
{ "type": "Feature", "properties": { "内容": "ショートステイ佐久だいら南【短期入所生活介護】長野県佐久市根々井816-1ショートステイ佐久だいら南", "url": "https://www.kaigokensaku.mhlw.go.jp/20/index.php?action_kouhyou_detail_004_kani=true&JigyosyoCd=2071701789-00&ServiceCd=210&Type=search", "url2": "http://www.carehouse-sakudaira.com" }, "geometry": { "type": "Point", "coordinates": [ 138.457267300000012, 36.2622046 ] } },
{ "type": "Feature", "properties": { "内容": "ショートステイ布施屋【短期入所生活介護】長野県佐久市布施769-1あたり前の暮らしサポートセンター内", "url": "https://www.kaigokensaku.mhlw.go.jp/20/index.php?action_kouhyou_detail_004_kani=true&JigyosyoCd=2071701516-00&ServiceCd=210&Type=search", "url2": "http://www.yuugen-fukushikai.com" }, "geometry": { "type": "Point", "coordinates": [ 138.373709963754209, 36.258652069784397 ] } },
{ "type": "Feature", "properties": { "内容": "短期入所生活介護施設結いの家【短期入所生活介護】長野県佐久市望月３２６番地4", "url": "https://www.kaigokensaku.mhlw.go.jp/20/index.php?action_kouhyou_detail_004_kani=true&JigyosyoCd=2072100445-00&ServiceCd=210&Type=search", "url2": "http://www.yuugen-fukushikai.com" }, "geometry": { "type": "Point", "coordinates": [ 138.35720850000007, 36.2653439 ] } },
{ "type": "Feature", "properties": { "内容": "佐久市特別養護老人ホームシルバーランドみつい【短期入所生活介護】長野県佐久市新子田８６６番地", "url": "https://www.kaigokensaku.mhlw.go.jp/20/index.php?action_kouhyou_detail_004_kani=true&JigyosyoCd=2071700088-00&ServiceCd=210&Type=search", "url2": "https://www.naganosaiseikai.jp" }, "geometry": { "type": "Point", "coordinates": [ 138.505286100000035, 36.2579289 ] } },
{ "type": "Feature", "properties": { "内容": "特別養護老人ホーム　うすだコスモ苑【短期入所生活介護】長野県佐久市臼田86番地", "url": "https://www.kaigokensaku.mhlw.go.jp/20/index.php?action_kouhyou_detail_004_kani=true&JigyosyoCd=2071701615-00&ServiceCd=210&Type=search", "url2": "sakuh004＠saku.ja-naganokai.or.jp" }, "geometry": { "type": "Point", "coordinates": [ 138.478863380950969, 36.195735126257176 ] } },
{ "type": "Feature", "properties": { "内容": "小規模特別養護老人ホーム湯の里ちくま【短期入所生活介護】千曲市上山田温泉１－７０－８", "url": "https://www.kaigokensaku.mhlw.go.jp/20/index.php?action_kouhyou_detail_004_kani=true&JigyosyoCd=2071800342-00&ServiceCd=210&Type=search", "url2": null }, "geometry": { "type": "Point", "coordinates": [ 138.143151699999976, 36.4812167 ] } },
{ "type": "Feature", "properties": { "内容": "特別養護老人ホーム吉野の里【短期入所生活介護】長野県千曲市大字羽尾３６６番地１", "url": "https://www.kaigokensaku.mhlw.go.jp/20/index.php?action_kouhyou_detail_004_kani=true&JigyosyoCd=2073100071-00&ServiceCd=210&Type=search", "url2": null }, "geometry": { "type": "Point", "coordinates": [ 138.110122499999989, 36.4994915 ] } },
{ "type": "Feature", "properties": { "内容": "特別養護老人ホームフランセーズ悠こうしょく【短期入所生活介護】長野県千曲市大字粟佐１１７７", "url": "https://www.kaigokensaku.mhlw.go.jp/20/index.php?action_kouhyou_detail_004_kani=true&JigyosyoCd=2071800698-00&ServiceCd=210&Type=search", "url2": "http://ｗｗｗ.hakuyukai.com" }, "geometry": { "type": "Point", "coordinates": [ 138.1195272, 36.5393958 ] } },
{ "type": "Feature", "properties": { "内容": "メディケア千曲中央【短期入所生活介護】長野県千曲市大字桜堂367番地3", "url": "https://www.kaigokensaku.mhlw.go.jp/20/index.php?action_kouhyou_detail_004_kani=true&JigyosyoCd=2071801001-00&ServiceCd=210&Type=search", "url2": "https://care-net.biz/20/medicare/" }, "geometry": { "type": "Point", "coordinates": [ 138.123009106468203, 36.529719878627489 ] } },
{ "type": "Feature", "properties": { "内容": "特別養護老人ホーム森の里【短期入所生活介護】長野県千曲市大字森字青田1024番地3", "url": "https://www.kaigokensaku.mhlw.go.jp/20/index.php?action_kouhyou_detail_004_kani=true&JigyosyoCd=2071600098-00&ServiceCd=210&Type=search", "url2": "http://www.taishikai.or.jp/kaigo/sub01.html" }, "geometry": { "type": "Point", "coordinates": [ 138.148689419262723, 36.526447881173503 ] } },
{ "type": "Feature", "properties": { "内容": "地域密着型特別養護老人ホーム科野の里【短期入所生活介護】長野県千曲市大字屋代128番地6", "url": "https://www.kaigokensaku.mhlw.go.jp/20/index.php?action_kouhyou_detail_004_kani=true&JigyosyoCd=2071800359-00&ServiceCd=210&Type=search", "url2": "http://taishikai.or.jp/kaigo/sub01-2.html" }, "geometry": { "type": "Point", "coordinates": [ 138.132939599999986, 36.5373631 ] } },
{ "type": "Feature", "properties": { "内容": "特別養護老人ホーム　杏寿荘【短期入所生活介護】長野県千曲市大字倉科79番地", "url": "https://www.kaigokensaku.mhlw.go.jp/20/index.php?action_kouhyou_detail_004_kani=true&JigyosyoCd=2071800839-00&ServiceCd=210&Type=search", "url2": "https://www.kyojuso.com/" }, "geometry": { "type": "Point", "coordinates": [ 138.156098, 36.532456 ] } },
{ "type": "Feature", "properties": { "内容": "ながでんハートネット千曲かむりきの里【短期入所生活介護】長野県千曲市大字杭瀬下3丁目144", "url": "https://www.kaigokensaku.mhlw.go.jp/20/index.php?action_kouhyou_detail_004_kani=true&JigyosyoCd=2071800870-00&ServiceCd=210&Type=search", "url2": "https;//nagaden-wellness.co.jp" }, "geometry": { "type": "Point", "coordinates": [ 138.116794199999958, 36.5318022 ] } },
{ "type": "Feature", "properties": { "内容": "香風園短期入所生活介護【短期入所生活介護】長野県千曲市大字上山田２４５４", "url": "https://www.kaigokensaku.mhlw.go.jp/20/index.php?action_kouhyou_detail_004_kani=true&JigyosyoCd=2071800268-00&ServiceCd=210&Type=search", "url2": "https://www.sensyokai.jp" }, "geometry": { "type": "Point", "coordinates": [ 138.1391714, 36.4737562 ] } },
{ "type": "Feature", "properties": { "内容": "ショートステイ千曲【短期入所生活介護】長野県千曲市桑原80", "url": "https://www.kaigokensaku.mhlw.go.jp/20/index.php?action_kouhyou_detail_004_kani=true&JigyosyoCd=2071800607-00&ServiceCd=210&Type=search", "url2": "http://www.carehouse-sakudaira.com/" }, "geometry": { "type": "Point", "coordinates": [ 138.086151082803326, 36.525743415850386 ] } },
{ "type": "Feature", "properties": { "内容": "ショートステイケアポートみまき【短期入所生活介護】長野県東御市布下37", "url": "https://www.kaigokensaku.mhlw.go.jp/20/index.php?action_kouhyou_detail_004_kani=true&JigyosyoCd=2072100171-00&ServiceCd=210&Type=search", "url2": "http://www.short@cpmimaki.or.jp/" }, "geometry": { "type": "Point", "coordinates": [ 138.360077635968082, 36.335620569999811 ] } },
{ "type": "Feature", "properties": { "内容": "ユニット型介護老人福祉施設こころ【短期入所生活介護】長野県東御市祢津1098-1", "url": "https://www.kaigokensaku.mhlw.go.jp/20/index.php?action_kouhyou_detail_004_kani=true&JigyosyoCd=2071900308-00&ServiceCd=210&Type=search", "url2": "http://www.chiisagata.jp" }, "geometry": { "type": "Point", "coordinates": [ 138.348881799999958, 36.367799 ] } },
{ "type": "Feature", "properties": { "内容": "介護老人福祉施設　フォーレスト【短期入所生活介護】長野県東御市常田2-1", "url": "https://www.kaigokensaku.mhlw.go.jp/20/index.php?action_kouhyou_detail_004_kani=true&JigyosyoCd=2072200450-00&ServiceCd=210&Type=search", "url2": "http://www.chiisagata.jp/forest/index.html" }, "geometry": { "type": "Point", "coordinates": [ 138.348382099999981, 36.3592001 ] } },
{ "type": "Feature", "properties": { "内容": "特別養護老人ホーム豊岳荘【短期入所生活介護】長野県安曇野市豊科南穂高817番地1", "url": "https://www.kaigokensaku.mhlw.go.jp/20/index.php?action_kouhyou_detail_004_kani=true&JigyosyoCd=2072800226-00&ServiceCd=210&Type=search", "url2": "http://azuminofukushi.jp/publics/index/152/" }, "geometry": { "type": "Point", "coordinates": [ 137.911706200000026, 36.3059926 ] } },
{ "type": "Feature", "properties": { "内容": "ショートステイ穂高苑【短期入所生活介護】長野県安曇野市穂高有明3074-4", "url": "https://www.kaigokensaku.mhlw.go.jp/20/index.php?action_kouhyou_detail_004_kani=true&JigyosyoCd=2074000460-00&ServiceCd=210&Type=search", "url2": null }, "geometry": { "type": "Point", "coordinates": [ 137.836247500000013, 36.3596226 ] } },
{ "type": "Feature", "properties": { "内容": "短期入所生活介護孝明舘【短期入所生活介護】長野県安曇野市明科七貴３６８１番地", "url": "https://www.kaigokensaku.mhlw.go.jp/20/index.php?action_kouhyou_detail_004_kani=true&JigyosyoCd=2072700558-00&ServiceCd=210&Type=search", "url2": "http://www.koumei.or.jp" }, "geometry": { "type": "Point", "coordinates": [ 137.903697100000045, 36.3642992 ] } },
{ "type": "Feature", "properties": { "内容": "小倉メナー【短期入所生活介護】長野県安曇野市三郷小倉6079番1", "url": "https://www.kaigokensaku.mhlw.go.jp/20/index.php?action_kouhyou_detail_004_kani=true&JigyosyoCd=2072800234-00&ServiceCd=210&Type=search", "url2": "http://nanatsunokane.or.jp" }, "geometry": { "type": "Point", "coordinates": [ 137.858012, 36.2533634 ] } },
{ "type": "Feature", "properties": { "内容": "ショートステイ燦々ひまわり【短期入所生活介護】長野県安曇野市穂高北穂高１７１６－１", "url": "https://www.kaigokensaku.mhlw.go.jp/20/index.php?action_kouhyou_detail_004_kani=true&JigyosyoCd=2074000163-00&ServiceCd=210&Type=search", "url2": "http://www.hima-sun.com/" }, "geometry": { "type": "Point", "coordinates": [ 137.875624499999958, 36.3704282 ] } },
{ "type": "Feature", "properties": { "内容": "短期入所生活介護　孝明豊科舘【短期入所生活介護】長野県安曇野市豊科南穂高5771番地", "url": "https://www.kaigokensaku.mhlw.go.jp/20/index.php?action_kouhyou_detail_004_kani=true&JigyosyoCd=2074000585-00&ServiceCd=210&Type=search", "url2": "http://www.koumei.or.jp/index.html" }, "geometry": { "type": "Point", "coordinates": [ 137.909025299999939, 36.3340947 ] } },
{ "type": "Feature", "properties": { "内容": "特別養護老人ホーム　ライフ穂高【短期入所生活介護】長野県安曇野市穂高6571番地", "url": "https://www.kaigokensaku.mhlw.go.jp/20/index.php?action_kouhyou_detail_004_kani=true&JigyosyoCd=2074001195-00&ServiceCd=210&Type=search", "url2": "https://koushu-nagano.jp/" }, "geometry": { "type": "Point", "coordinates": [ 137.8773175, 36.3368308 ] } },
{ "type": "Feature", "properties": { "内容": "介護老人福祉施設　たきべ野【短期入所生活介護】長野県安曇野市豊科高家5090番地1", "url": "https://www.kaigokensaku.mhlw.go.jp/20/index.php?action_kouhyou_detail_004_kani=true&JigyosyoCd=2072800747-00&ServiceCd=210&Type=search", "url2": "http://takibeno.or.jp/" }, "geometry": { "type": "Point", "coordinates": [ 137.9189351, 36.2575448 ] } },
{ "type": "Feature", "properties": { "内容": "特別養護老人ホーム　常念荘【短期入所生活介護】長野県安曇野市堀金烏川２０４８－２", "url": "https://www.kaigokensaku.mhlw.go.jp/20/index.php?action_kouhyou_detail_004_kani=true&JigyosyoCd=2072800242-00&ServiceCd=210&Type=search", "url2": "http://www.azuminofukushi.com/040institution/040jounenso" }, "geometry": { "type": "Point", "coordinates": [ 137.87520029999996, 36.2998338 ] } },
{ "type": "Feature", "properties": { "内容": "特別養護老人ホームあずみの里【短期入所生活介護】長野県安曇野市豊科高家5285-11", "url": "https://www.kaigokensaku.mhlw.go.jp/20/index.php?action_kouhyou_detail_004_kani=true&JigyosyoCd=2072800598-00&ServiceCd=210&Type=search", "url2": "http://www18.ocn.ne.jp/~azumino1/kyouritsufukushikai/index.html" }, "geometry": { "type": "Point", "coordinates": [ 137.916107799999963, 36.2474265 ] } },
{ "type": "Feature", "properties": { "内容": "特別養護老人ホームこうみの里【短期入所生活介護】長野県南佐久郡小海町小海3130番地4", "url": "https://www.kaigokensaku.mhlw.go.jp/20/index.php?action_kouhyou_detail_004_kani=true&JigyosyoCd=2072000736-00&ServiceCd=210&Type=search", "url2": "http://www.ja-naganokai.or.jp/" }, "geometry": { "type": "Point", "coordinates": [ 138.482659745507817, 36.073143591288201 ] } },
{ "type": "Feature", "properties": { "内容": "特別養護老人ホームのべやま【短期入所生活介護】長野県南佐久郡南牧村大字野辺山65-3", "url": "https://www.kaigokensaku.mhlw.go.jp/20/index.php?action_kouhyou_detail_004_kani=true&JigyosyoCd=2072000173-00&ServiceCd=210&Type=search", "url2": "http://www.ja-naganokai.or.jp/facilities/nobeyama/index.php" }, "geometry": { "type": "Point", "coordinates": [ 138.46489, 35.9602408 ] } },
{ "type": "Feature", "properties": { "内容": "ショートステイ佐久穂愛の郷【短期入所生活介護】長野県南佐久郡佐久穂町高野町303－1", "url": "https://www.kaigokensaku.mhlw.go.jp/20/index.php?action_kouhyou_detail_004_kani=true&JigyosyoCd=2072000702-00&ServiceCd=210&Type=search", "url2": "http://skdf.jp/" }, "geometry": { "type": "Point", "coordinates": [ 138.478654291865496, 36.161080870133922 ] } },
{ "type": "Feature", "properties": { "内容": "みなみかるいざわ敬老園【短期入所生活介護】北佐久郡軽井沢町大字発地字二子塚190-3", "url": "https://www.kaigokensaku.mhlw.go.jp/20/index.php?action_kouhyou_detail_004_kani=true&JigyosyoCd=2072100809-00&ServiceCd=210&Type=search", "url2": "minamikaruizawa@keiroen.or.jp" }, "geometry": { "type": "Point", "coordinates": [ 138.624190150337199, 36.306113482828607 ] } },
{ "type": "Feature", "properties": { "内容": "静山荘【短期入所生活介護】長野県北佐久郡軽井沢町大字追分1710番地1", "url": "https://www.kaigokensaku.mhlw.go.jp/20/index.php?action_kouhyou_detail_004_kani=true&JigyosyoCd=2072100825-00&ServiceCd=210&Type=search", "url2": "http://www.karuizawa-seizannso.com" }, "geometry": { "type": "Point", "coordinates": [ 138.5254873, 36.341280500000018 ] } },
{ "type": "Feature", "properties": { "内容": "かるいざわ敬老園【短期入所生活介護】長野県北佐久郡軽井沢町追分１４３６番地", "url": "https://www.kaigokensaku.mhlw.go.jp/20/index.php?action_kouhyou_detail_004_kani=true&JigyosyoCd=2072100395-00&ServiceCd=210&Type=search", "url2": "http://www.keiroen.or.jp/" }, "geometry": { "type": "Point", "coordinates": [ 138.550457, 36.3432949 ] } },
{ "type": "Feature", "properties": { "内容": "きらく苑【短期入所生活介護】長野県北佐久郡御代田町御代田４１０８－１３７４", "url": "https://www.kaigokensaku.mhlw.go.jp/20/index.php?action_kouhyou_detail_004_kani=true&JigyosyoCd=2072100080-00&ServiceCd=210&Type=search", "url2": null }, "geometry": { "type": "Point", "coordinates": [ 138.52638479999996, 36.3286934 ] } },
{ "type": "Feature", "properties": { "内容": "佐久広域老人ホーム豊昇園【短期入所生活介護】長野県北佐久郡御代田町大字豊昇１８００番地８", "url": "https://www.kaigokensaku.mhlw.go.jp/20/index.php?action_kouhyou_detail_004_kani=true&JigyosyoCd=2072100072-00&ServiceCd=210&Type=search", "url2": "ｈｏｓｙｏｅｎ＠ａｒｅａｓａｋｕ．ｏｒ．ｊｐ" }, "geometry": { "type": "Point", "coordinates": [ 138.533387700000048, 36.3023614 ] } },
{ "type": "Feature", "properties": { "内容": "介護老人福祉施設すずらん【短期入所生活介護】長野県北佐久郡立科町芦田720-1", "url": "https://www.kaigokensaku.mhlw.go.jp/20/index.php?action_kouhyou_detail_004_kani=true&JigyosyoCd=2072100841-00&ServiceCd=210&Type=search", "url2": "http://www.hc-tateshina.jp" }, "geometry": { "type": "Point", "coordinates": [ 138.3150137, 36.2731751 ] } },
{ "type": "Feature", "properties": { "内容": "ラポートあおき【短期入所生活介護】長野県小県郡青木村大字田沢３４０２－１", "url": "https://www.kaigokensaku.mhlw.go.jp/20/index.php?action_kouhyou_detail_004_kani=true&JigyosyoCd=2072200088-00&ServiceCd=210&Type=search", "url2": "https://www.daijukai.or.jp/" }, "geometry": { "type": "Point", "coordinates": [ 138.121176399999968, 36.3691903 ] } },
{ "type": "Feature", "properties": { "内容": "ショートステイホームグレイスフル下諏訪【短期入所生活介護】長野県諏訪郡下諏訪町９３７５－１", "url": "https://www.kaigokensaku.mhlw.go.jp/20/index.php?action_kouhyou_detail_004_kani=true&JigyosyoCd=2072300219-00&ServiceCd=210&Type=search", "url2": "http://www.e-sunlife.or.jp/service/index.html" }, "geometry": { "type": "Point", "coordinates": [ 138.106794700000023, 36.0672207 ] } },
{ "type": "Feature", "properties": { "内容": "ハイム天白【短期入所生活介護】長野県諏訪郡下諏訪町５５７番地２（東町中１）", "url": "https://www.kaigokensaku.mhlw.go.jp/20/index.php?action_kouhyou_detail_004_kani=true&JigyosyoCd=2072300151-00&ServiceCd=210&Type=search", "url2": null }, "geometry": { "type": "Point", "coordinates": [ 138.085451268400561, 36.081275690654962 ] } },
{ "type": "Feature", "properties": { "内容": "特別養護老人ホーム紅林荘【短期入所生活介護】長野県諏訪郡富士見町富士見3107番地2", "url": "https://www.kaigokensaku.mhlw.go.jp/20/index.php?action_kouhyou_detail_004_kani=true&JigyosyoCd=2072300326-00&ServiceCd=210&Type=search", "url2": "http://www.ja-naganokai.or.jp/" }, "geometry": { "type": "Point", "coordinates": [ 138.228419, 35.9096107 ] } },
{ "type": "Feature", "properties": { "内容": "富士見高原医療福祉センター　特別養護老人ホーム　恋月荘【短期入所生活介護】長野県諏訪郡富士見町境8830番地", "url": "https://www.kaigokensaku.mhlw.go.jp/20/index.php?action_kouhyou_detail_004_kani=true&JigyosyoCd=2072300839-00&ServiceCd=210&Type=search", "url2": "http://www.fujimihp.com/" }, "geometry": { "type": "Point", "coordinates": [ 138.285604346371429, 35.890834959162419 ] } },
{ "type": "Feature", "properties": { "内容": "アイリス【短期入所生活介護】長野県諏訪郡原村10377-2", "url": "https://www.kaigokensaku.mhlw.go.jp/20/index.php?action_kouhyou_detail_004_kani=true&JigyosyoCd=2072300177-00&ServiceCd=210&Type=search", "url2": "http://www.iriss.or.jp" }, "geometry": { "type": "Point", "coordinates": [ 138.188643961599752, 35.958688753980844 ] } },
{ "type": "Feature", "properties": { "内容": "地域密着型特別養護老人ホームきりとう【短期入所生活介護】長野県上伊那郡辰野町小野1290番地5", "url": "https://www.kaigokensaku.mhlw.go.jp/20/index.php?action_kouhyou_detail_004_kani=true&JigyosyoCd=2072401496-00&ServiceCd=210&Type=search", "url2": "http://fujimihp.com/?page_id=3129" }, "geometry": { "type": "Point", "coordinates": [ 137.969123341000397, 36.04614572747893 ] } },
{ "type": "Feature", "properties": { "内容": "介護老人福祉施設福寿苑【短期入所生活介護】長野県上伊那郡辰野町伊那富9501-1", "url": "https://www.kaigokensaku.mhlw.go.jp/20/index.php?action_kouhyou_detail_004_kani=true&JigyosyoCd=2072401355-00&ServiceCd=210&Type=search", "url2": "http://www.heisei-kai.jp" }, "geometry": { "type": "Point", "coordinates": [ 137.9735995, 35.9440293 ] } },
{ "type": "Feature", "properties": { "内容": "ふらっと辰野短期入所【短期入所生活介護】長野県上伊那郡辰野町伊那富6333-2", "url": "https://www.kaigokensaku.mhlw.go.jp/20/index.php?action_kouhyou_detail_004_kani=true&JigyosyoCd=2072401181-00&ServiceCd=210&Type=search", "url2": "https://flat-tatsuno.wixsite.com/otohakai/blank-4" }, "geometry": { "type": "Point", "coordinates": [ 137.985301199999981, 35.9552296 ] } },
{ "type": "Feature", "properties": { "内容": "特別養護老人ホームかたくりの里【短期入所生活介護】長野県上伊那郡辰野町大字上島1766番地", "url": "https://www.kaigokensaku.mhlw.go.jp/20/index.php?action_kouhyou_detail_004_kani=true&JigyosyoCd=2072400589-00&ServiceCd=210&Type=search", "url2": "http://www.kamifuku.jp" }, "geometry": { "type": "Point", "coordinates": [ 137.9716032, 36.0092671 ] } },
{ "type": "Feature", "properties": { "内容": "特別養護老人ホーム　グレイスフル箕輪【短期入所生活介護】長野県上伊那郡箕輪町大字中箕輪6062", "url": "https://www.kaigokensaku.mhlw.go.jp/20/index.php?action_kouhyou_detail_004_kani=true&JigyosyoCd=2072401207-00&ServiceCd=210&Type=search", "url2": "https://sun-vision.or.jp/" }, "geometry": { "type": "Point", "coordinates": [ 137.949856243347199, 35.920234723678639 ] } },
{ "type": "Feature", "properties": { "内容": "特別養護老人ホームみのわ園【短期入所生活介護】長野県上伊那郡箕輪町大字三日町１６６０番地３", "url": "https://www.kaigokensaku.mhlw.go.jp/20/index.php?action_kouhyou_detail_004_kani=true&JigyosyoCd=2072400225-00&ServiceCd=210&Type=search", "url2": "http://kamifuku.jp/publics/index/34/" }, "geometry": { "type": "Point", "coordinates": [ 137.998128401258072, 35.898584054387946 ] } },
{ "type": "Feature", "properties": { "内容": "ケアセンターふれあいの里【短期入所生活介護】長野県上伊那郡箕輪町大字中箕輪14432-1", "url": "https://www.kaigokensaku.mhlw.go.jp/20/index.php?action_kouhyou_detail_004_kani=true&JigyosyoCd=2072401017-00&ServiceCd=210&Type=search", "url2": "hureaigumi@snow.plala.or.jp" }, "geometry": { "type": "Point", "coordinates": [ 137.9537858, 35.9101534 ] } },
{ "type": "Feature", "properties": { "内容": "越百園【短期入所生活介護】長野県上伊那郡飯島町七久保1338番地1", "url": "https://www.kaigokensaku.mhlw.go.jp/20/index.php?action_kouhyou_detail_004_kani=true&JigyosyoCd=2072400233-00&ServiceCd=210&Type=search", "url2": "http://kamifuku.jp/" }, "geometry": { "type": "Point", "coordinates": [ 137.923336400000039, 35.6522761 ] } },
{ "type": "Feature", "properties": { "内容": "特別養護老人ホームコンソール大芝【短期入所生活介護】長野県上伊那郡南箕輪村2380-1079", "url": "https://www.kaigokensaku.mhlw.go.jp/20/index.php?action_kouhyou_detail_004_kani=true&JigyosyoCd=2072400514-00&ServiceCd=210&Type=search", "url2": null }, "geometry": { "type": "Point", "coordinates": [ 137.953211, 35.8761702 ] } },
{ "type": "Feature", "properties": { "内容": "特別養護老人ホームプラムの里【短期入所生活介護】長野県上伊那郡宮田村4804-1", "url": "https://www.kaigokensaku.mhlw.go.jp/20/index.php?action_kouhyou_detail_004_kani=true&JigyosyoCd=2072401132-00&ServiceCd=210&Type=search", "url2": "http://s-sawayaka.or.jp/" }, "geometry": { "type": "Point", "coordinates": [ 137.9428292, 35.7510211 ] } },
{ "type": "Feature", "properties": { "内容": "特別養護老人ホーム松川荘【短期入所生活介護】長野県下伊那郡松川町元大島2965-1", "url": "https://www.kaigokensaku.mhlw.go.jp/20/index.php?action_kouhyou_detail_004_kani=true&JigyosyoCd=2072501105-00&ServiceCd=210&Type=search", "url2": "https://mshakyo.jp" }, "geometry": { "type": "Point", "coordinates": [ 137.913674799999967, 35.6020218 ] } },
{ "type": "Feature", "properties": { "内容": "特別養護老人ホーム　グランスマイル【短期入所生活介護】長野県下伊那郡高森町牛牧1968番地15", "url": "https://www.kaigokensaku.mhlw.go.jp/20/index.php?action_kouhyou_detail_004_kani=true&JigyosyoCd=2072501592-00&ServiceCd=210&Type=search", "url2": "https://grandsmile.madokakai.jp/" }, "geometry": { "type": "Point", "coordinates": [ 137.850316900000053, 35.56098690000001 ] } },
{ "type": "Feature", "properties": { "内容": "特別養護老人ホームあさぎりの郷【短期入所生活介護】長野県下伊那郡高森町吉田481-1", "url": "https://www.kaigokensaku.mhlw.go.jp/20/index.php?action_kouhyou_detail_004_kani=true&JigyosyoCd=2072500792-00&ServiceCd=210&Type=search", "url2": "http://www.ja-naganokai.or.jp/facilities/asagiri/" }, "geometry": { "type": "Point", "coordinates": [ 137.887697600000024, 35.5517637 ] } },
{ "type": "Feature", "properties": { "内容": "小規模特別養護老人ホーム　太陽の家【短期入所生活介護】長野県下伊那郡阿南町富草4022", "url": "https://www.kaigokensaku.mhlw.go.jp/20/index.php?action_kouhyou_detail_004_kani=true&JigyosyoCd=2072501535-00&ServiceCd=210&Type=search", "url2": null }, "geometry": { "type": "Point", "coordinates": [ 137.803022599999963, 35.3560083 ] } },
{ "type": "Feature", "properties": { "内容": "特別養護老人ホーム赤石寮【短期入所生活介護】長野県下伊那郡阿南町新野28-4", "url": "https://www.kaigokensaku.mhlw.go.jp/20/index.php?action_kouhyou_detail_004_kani=true&JigyosyoCd=2072500198-00&ServiceCd=210&Type=search", "url2": "http://kayagakikai-anan.jp/" }, "geometry": { "type": "Point", "coordinates": [ 137.761218099999951, 35.2722532 ] } },
{ "type": "Feature", "properties": { "内容": "特別養護老人ホーム阿南荘【短期入所生活介護】長野県下伊那郡阿南町北條４１３", "url": "https://www.kaigokensaku.mhlw.go.jp/20/index.php?action_kouhyou_detail_004_kani=true&JigyosyoCd=2072501428-00&ServiceCd=210&Type=search", "url2": "http://business3.plala.or.jp/anansou1/index.html" }, "geometry": { "type": "Point", "coordinates": [ 137.837630399999966, 35.3439385 ] } },
{ "type": "Feature", "properties": { "内容": "特別養護老人ホーム阿智荘【短期入所生活介護】長野県下伊那郡阿智村智里４９１番地４１", "url": "https://www.kaigokensaku.mhlw.go.jp/20/index.php?action_kouhyou_detail_004_kani=true&JigyosyoCd=2072501063-00&ServiceCd=210&Type=search", "url2": "http://www.achi-syakyo.or.jp/" }, "geometry": { "type": "Point", "coordinates": [ 137.713756699999976, 35.459588 ] } },
{ "type": "Feature", "properties": { "内容": "「なごみ」短期入所生活介護事業所【短期入所生活介護】長野県下伊那郡根羽村3015番地362", "url": "https://www.kaigokensaku.mhlw.go.jp/20/index.php?action_kouhyou_detail_004_kani=true&JigyosyoCd=2072501584-00&ServiceCd=210&Type=search", "url2": "https://iful-jikeikai.com/" }, "geometry": { "type": "Point", "coordinates": [ 137.622738180206312, 35.30251798834739 ] } },
{ "type": "Feature", "properties": { "内容": "特別養護老人ホーム第二光の園【短期入所生活介護】長野県下伊那郡下條村睦沢7098番地8", "url": "https://www.kaigokensaku.mhlw.go.jp/20/index.php?action_kouhyou_detail_004_kani=true&JigyosyoCd=2072500164-00&ServiceCd=210&Type=search", "url2": "https://kayagakikai.or.jp/pages/129/" }, "geometry": { "type": "Point", "coordinates": [ 137.753254344875018, 35.393875748511604 ] } },
{ "type": "Feature", "properties": { "内容": "特別養護老人ホーム天龍荘【短期入所生活介護】長野県下伊那郡天龍村平岡７７３番地１", "url": "https://www.kaigokensaku.mhlw.go.jp/20/index.php?action_kouhyou_detail_004_kani=true&JigyosyoCd=2072500909-00&ServiceCd=210&Type=search", "url2": "http://tenryushakyo.info/" }, "geometry": { "type": "Point", "coordinates": [ 137.859936299999958, 35.2826793 ] } },
{ "type": "Feature", "properties": { "内容": "特別養護老人ホームやすおか荘【短期入所生活介護】長野県下伊那郡泰阜村7565番地3", "url": "https://www.kaigokensaku.mhlw.go.jp/20/index.php?action_kouhyou_detail_004_kani=true&JigyosyoCd=2072501550-00&ServiceCd=210&Type=search", "url2": "http://yasuoka.or.jp" }, "geometry": { "type": "Point", "coordinates": [ 137.848015871632526, 35.344366611279433 ] } },
{ "type": "Feature", "properties": { "内容": "特別養護老人ホーム喬木荘【短期入所生活介護】長野県下伊那郡喬木村３２８６番地１", "url": "https://www.kaigokensaku.mhlw.go.jp/20/index.php?action_kouhyou_detail_004_kani=true&JigyosyoCd=2072501212-00&ServiceCd=210&Type=search", "url2": null }, "geometry": { "type": "Point", "coordinates": [ 137.87369990000002, 35.5136822 ] } },
{ "type": "Feature", "properties": { "内容": "地域密着型特別養護老人ホームはやしの杜【短期入所生活介護】長野県下伊那郡豊丘村大字神稲4175番地", "url": "https://www.kaigokensaku.mhlw.go.jp/20/index.php?action_kouhyou_detail_004_kani=true&JigyosyoCd=2072501543-00&ServiceCd=210&Type=search", "url2": "https://hayashinomori.notion.site/" }, "geometry": { "type": "Point", "coordinates": [ 137.897229975671422, 35.543301898892437 ] } },
{ "type": "Feature", "properties": { "内容": "ショートステイホーム　グレイスフル上松【短期入所生活介護】長野県木曽郡上松町大字上松１８８－１", "url": "https://www.kaigokensaku.mhlw.go.jp/20/index.php?action_kouhyou_detail_004_kani=true&JigyosyoCd=2072600808-00&ServiceCd=210&Type=search", "url2": "http://www.sun-vision.or.jp" }, "geometry": { "type": "Point", "coordinates": [ 137.693055373016392, 35.78529872928587 ] } },
{ "type": "Feature", "properties": { "内容": "あい愛ケアセンター【短期入所生活介護】長野県木曽郡上松町大字小川２０５０－５", "url": "https://www.kaigokensaku.mhlw.go.jp/20/index.php?action_kouhyou_detail_004_kani=true&JigyosyoCd=2072600485-00&ServiceCd=210&Type=search", "url2": "aiaicare.jp" }, "geometry": { "type": "Point", "coordinates": [ 137.697902, 35.7756522 ] } },
{ "type": "Feature", "properties": { "内容": "木曽あすなろ荘【短期入所生活介護】長野県木曽郡南木曽町田立１５０番地１", "url": "https://www.kaigokensaku.mhlw.go.jp/20/index.php?action_kouhyou_detail_004_kani=true&JigyosyoCd=2072600220-00&ServiceCd=210&Type=search", "url2": "https://aoihato.com" }, "geometry": { "type": "Point", "coordinates": [ 137.5595379, 35.5888203 ] } },
{ "type": "Feature", "properties": { "内容": "特別養護老人ホームサニーヒルきそ【短期入所生活介護】長野県木曽郡木祖村大字藪原８４２番地２", "url": "https://www.kaigokensaku.mhlw.go.jp/20/index.php?action_kouhyou_detail_004_kani=true&JigyosyoCd=2072600238-00&ServiceCd=210&Type=search", "url2": "http://www.aoihato.com" }, "geometry": { "type": "Point", "coordinates": [ 137.784609300000056, 35.944175 ] } },
{ "type": "Feature", "properties": { "内容": "サンシャインあてら【短期入所生活介護】長野県木曽郡大桑村野尻931-1", "url": "https://www.kaigokensaku.mhlw.go.jp/20/index.php?action_kouhyou_detail_004_kani=true&JigyosyoCd=2072600691-00&ServiceCd=210&Type=search", "url2": "http://www.sunshinelife.co.jp" }, "geometry": { "type": "Point", "coordinates": [ 137.621679099999938, 35.6630152 ] } },
{ "type": "Feature", "properties": { "内容": "なんてんの里【短期入所生活介護】長野県木曽郡木曽町三岳１００３９番地", "url": "https://www.kaigokensaku.mhlw.go.jp/20/index.php?action_kouhyou_detail_004_kani=true&JigyosyoCd=2072600246-00&ServiceCd=210&Type=search", "url2": "http://www.aoihato.jp" }, "geometry": { "type": "Point", "coordinates": [ 137.657475400000067, 35.8256869 ] } },
{ "type": "Feature", "properties": { "内容": "総合福祉施設開田の里【短期入所生活介護】長野県木曽郡木曽町開田高原西野５２２７－１００", "url": "https://www.kaigokensaku.mhlw.go.jp/20/index.php?action_kouhyou_detail_004_kani=true&JigyosyoCd=2072600568-00&ServiceCd=210&Type=search", "url2": "http://kaidanosato.kisoji.kiso.nagano.jp/" }, "geometry": { "type": "Point", "coordinates": [ 137.570332900000039, 35.9430188 ] } },
{ "type": "Feature", "properties": { "内容": "ショートステイホームグレイスフル木曽【短期入所生活介護】長野県木曽郡木曽町福島２７８１", "url": "https://www.kaigokensaku.mhlw.go.jp/20/index.php?action_kouhyou_detail_004_kani=true&JigyosyoCd=2072600766-00&ServiceCd=210&Type=search", "url2": "http://www.sun-vision.or.jp" }, "geometry": { "type": "Point", "coordinates": [ 137.689269299999978, 35.8392143 ] } },
{ "type": "Feature", "properties": { "内容": "サンライフおみ【短期入所生活介護】長野県東筑摩郡麻績村麻２１１７番地１", "url": "https://www.kaigokensaku.mhlw.go.jp/20/index.php?action_kouhyou_detail_004_kani=true&JigyosyoCd=2072700251-00&ServiceCd=210&Type=search", "url2": "https://www.aoihato.jp" }, "geometry": { "type": "Point", "coordinates": [ 138.030587800000035, 36.4480253 ] } },
{ "type": "Feature", "properties": { "内容": "ピアやまがた【短期入所生活介護】長野県東筑摩郡山形村4699番地１", "url": "https://www.kaigokensaku.mhlw.go.jp/20/index.php?action_kouhyou_detail_004_kani=true&JigyosyoCd=2072700269-00&ServiceCd=210&Type=search", "url2": "https://aoihato.com" }, "geometry": { "type": "Point", "coordinates": [ 137.891742099999988, 36.1573772 ] } },
{ "type": "Feature", "properties": { "内容": "特別養護老人ホームライフ【短期入所生活介護】長野県北安曇郡池田町会染１４９８－１", "url": "https://www.kaigokensaku.mhlw.go.jp/20/index.php?action_kouhyou_detail_004_kani=true&JigyosyoCd=2072900125-00&ServiceCd=210&Type=search", "url2": "http://koushu-nagano.jp/" }, "geometry": { "type": "Point", "coordinates": [ 137.894497699999988, 36.4175416 ] } },
{ "type": "Feature", "properties": { "内容": "特別養護老人ホーム高瀬荘【短期入所生活介護】長野県北安曇郡池田町大字池田1942-1", "url": "https://www.kaigokensaku.mhlw.go.jp/20/index.php?action_kouhyou_detail_004_kani=true&JigyosyoCd=2072900067-00&ServiceCd=210&Type=search", "url2": "https://takasesou.jp" }, "geometry": { "type": "Point", "coordinates": [ 137.876454599999988, 36.428523 ] } },
{ "type": "Feature", "properties": { "内容": "ショートステイ花りん【短期入所生活介護】長野県北安曇郡池田町大字池田１６２０－１", "url": "https://www.kaigokensaku.mhlw.go.jp/20/index.php?action_kouhyou_detail_004_kani=true&JigyosyoCd=2072900471-00&ServiceCd=210&Type=search", "url2": "http://short-karin.com/" }, "geometry": { "type": "Point", "coordinates": [ 137.883673600000066, 36.43665 ] } },
{ "type": "Feature", "properties": { "内容": "特別養護老人ホーム　ライフ松川【短期入所生活介護】長野県北安曇郡松川村５６２２－３３", "url": "https://www.kaigokensaku.mhlw.go.jp/20/index.php?action_kouhyou_detail_004_kani=true&JigyosyoCd=2072900786-00&ServiceCd=210&Type=search", "url2": "http://koushu-nagano.jp/" }, "geometry": { "type": "Point", "coordinates": [ 137.865917530641127, 36.404490818962088 ] } },
{ "type": "Feature", "properties": { "内容": "特別養護老人ホーム白嶺【短期入所生活介護】長野県北安曇郡白馬村大字神城22847-2", "url": "https://www.kaigokensaku.mhlw.go.jp/20/index.php?action_kouhyou_detail_004_kani=true&JigyosyoCd=2072900133-00&ServiceCd=210&Type=search", "url2": "http://www.hakurei-nagano.com/" }, "geometry": { "type": "Point", "coordinates": [ 137.844824600000038, 36.6640416 ] } },
{ "type": "Feature", "properties": { "内容": "特別養護老人ホームさかき美山園【短期入所生活介護】長野県埴科郡坂城町大字南条2725番地2", "url": "https://www.kaigokensaku.mhlw.go.jp/20/index.php?action_kouhyou_detail_004_kani=true&JigyosyoCd=2073100014-00&ServiceCd=210&Type=search", "url2": "www.sakakifukushikai.or.jp" }, "geometry": { "type": "Point", "coordinates": [ 138.203716500000041, 36.4372679 ] } },
{ "type": "Feature", "properties": { "内容": "特別養護老人ホームさかき美里園【短期入所生活介護】長野県埴科郡坂城町坂城9086番地1", "url": "https://www.kaigokensaku.mhlw.go.jp/20/index.php?action_kouhyou_detail_004_kani=true&JigyosyoCd=2073100162-00&ServiceCd=210&Type=search", "url2": "http://www.sakakifukushikai.or.jp" }, "geometry": { "type": "Point", "coordinates": [ 138.191119800000024, 36.4531351 ] } },
{ "type": "Feature", "properties": { "内容": "小布施荘【短期入所生活介護】長野県上高井郡小布施町大字小布施８５７－５", "url": "https://www.kaigokensaku.mhlw.go.jp/20/index.php?action_kouhyou_detail_004_kani=true&JigyosyoCd=2073200053-00&ServiceCd=210&Type=search", "url2": "http://www.area-nagano.jp" }, "geometry": { "type": "Point", "coordinates": [ 138.317353799999978, 36.6894403 ] } },
{ "type": "Feature", "properties": { "内容": "特別養護老人ホーム高山おんせん朝日ホーム【短期入所生活介護】長野県上高井郡高山村大字牧１０５番地", "url": "https://www.kaigokensaku.mhlw.go.jp/20/index.php?action_kouhyou_detail_004_kani=true&JigyosyoCd=2073200152-00&ServiceCd=210&Type=search", "url2": "http://www.dia.janis.or.jp/~asahi-t/" }, "geometry": { "type": "Point", "coordinates": [ 138.375429299999951, 36.6800038 ] } },
{ "type": "Feature", "properties": { "内容": "小規模特別養護老人ホーム朝日高井ホーム【短期入所生活介護】長野県上高井郡高山村大字高井458朝日高井ホーム", "url": "https://www.kaigokensaku.mhlw.go.jp/20/index.php?action_kouhyou_detail_004_kani=true&JigyosyoCd=2073200319-00&ServiceCd=210&Type=search", "url2": "http://highness-life.com/asahitakai/" }, "geometry": { "type": "Point", "coordinates": [ 138.361158499999988, 36.6766707 ] } },
{ "type": "Feature", "properties": { "内容": "特別養護老人ホームいで湯の里【短期入所生活介護】長野県下高井郡山ノ内町大字佐野７９９－２", "url": "https://www.kaigokensaku.mhlw.go.jp/20/index.php?action_kouhyou_detail_004_kani=true&JigyosyoCd=2073300069-00&ServiceCd=210&Type=search", "url2": "https://www.hokusin.or.jp/sisetsu/ideyunosato/" }, "geometry": { "type": "Point", "coordinates": [ 138.405125099999964, 36.7303796 ] } },
{ "type": "Feature", "properties": { "内容": "特別養護老人ホーム　里山の家木島平【短期入所生活介護】長野県下高井郡木島平村大字穂高3115番地1", "url": "https://www.kaigokensaku.mhlw.go.jp/20/index.php?action_kouhyou_detail_004_kani=true&JigyosyoCd=2073300416-00&ServiceCd=210&Type=search", "url2": "http://miyuki-f.or.jp" }, "geometry": { "type": "Point", "coordinates": [ 138.405155135443124, 36.86338643974787 ] } },
{ "type": "Feature", "properties": { "内容": "特別養護老人ホーム望岳荘【短期入所生活介護】長野県下高井郡木島平村大字穂高721番地3", "url": "https://www.kaigokensaku.mhlw.go.jp/20/index.php?action_kouhyou_detail_004_kani=true&JigyosyoCd=2073300077-00&ServiceCd=210&Type=search", "url2": "https://www.hokusin.or.jp/shisetsu/bogakusou/" }, "geometry": { "type": "Point", "coordinates": [ 138.410785789660054, 36.861714138591047 ] } },
{ "type": "Feature", "properties": { "内容": "特別養護老人ホーム菜の花苑【短期入所生活介護】長野県下高井郡野沢温泉村大字豊郷９８６３番地１", "url": "https://www.kaigokensaku.mhlw.go.jp/20/index.php?action_kouhyou_detail_004_kani=true&JigyosyoCd=2073300085-00&ServiceCd=210&Type=search", "url2": "http://www.hokusin.or.jp/02work/sisetu/nanohana/" }, "geometry": { "type": "Point", "coordinates": [ 138.439044100000046, 36.9227965 ] } },
{ "type": "Feature", "properties": { "内容": "おらが庵【短期入所生活介護】長野県上水内郡信濃町柏原３５０番地", "url": "https://www.kaigokensaku.mhlw.go.jp/20/index.php?action_kouhyou_detail_004_kani=true&JigyosyoCd=2073400232-00&ServiceCd=210&Type=search", "url2": "https://oragakai.jp/" }, "geometry": { "type": "Point", "coordinates": [ 138.204863299999943, 36.8092783 ] } },
{ "type": "Feature", "properties": { "内容": "矢筒荘【短期入所生活介護】長野県上水内郡飯綱町大字牟礼2227番地", "url": "https://www.kaigokensaku.mhlw.go.jp/20/index.php?action_kouhyou_detail_004_kani=true&JigyosyoCd=2073400240-00&ServiceCd=210&Type=search", "url2": "http://www.area.-nagano.jp" }, "geometry": { "type": "Point", "coordinates": [ 138.234716899999967, 36.7484585 ] } },
{ "type": "Feature", "properties": { "内容": "短期入所生活介護フランセーズ悠さかえ【短期入所生活介護】長野県下水内郡栄村大字豊栄２１４０番地", "url": "https://www.kaigokensaku.mhlw.go.jp/20/index.php?action_kouhyou_detail_004_kani=true&JigyosyoCd=2073500114-00&ServiceCd=210&Type=search", "url2": "http://hakuyukai.com/sakae/index.html" }, "geometry": { "type": "Point", "coordinates": [ 138.528667899999959, 36.9841221 ] } },
{ "type": "Feature", "properties": { "内容": "短期入所生活介護フランセーズ悠さかえひがし【短期入所生活介護】長野県下水内郡栄村豊栄2140", "url": "https://www.kaigokensaku.mhlw.go.jp/20/index.php?action_kouhyou_detail_004_kani=true&JigyosyoCd=2073500122-00&ServiceCd=210&Type=search", "url2": "http://hakuyukai.com/sakae/index.html" }, "geometry": { "type": "Point", "coordinates": [ 138.528667899999959, 36.9841221 ] } }
]
}
