{
"type": "FeatureCollection",
"name": "geo_20_介護老人保健施設",
"crs": { "type": "name", "properties": { "name": "urn:ogc:def:crs:OGC:1.3:CRS84" } },
"features": [
{ "type": "Feature", "properties": { "内容": "介護老人保健施設朝日リハビリテーションセンター【介護老人保健施設】長野県長野市大字南堀137-1", "url": "https://www.kaigokensaku.mhlw.go.jp/20/index.php?action_kouhyou_detail_004_kani=true&JigyosyoCd=2050180146-00&ServiceCd=520&Type=search", "url2": "http://highness-life.com/" }, "geometry": { "type": "Point", "coordinates": [ 138.241476299999988, 36.6633732 ] } },
{ "type": "Feature", "properties": { "内容": "介護老人保健施設城山【介護老人保健施設】長野県長野市箱清水１丁目１２－１４", "url": "https://www.kaigokensaku.mhlw.go.jp/20/index.php?action_kouhyou_detail_004_kani=true&JigyosyoCd=2050180047-00&ServiceCd=520&Type=search", "url2": "http://medi-oasis.com" }, "geometry": { "type": "Point", "coordinates": [ 138.1904353, 36.6652607 ] } },
{ "type": "Feature", "properties": { "内容": "老人保健施設星のさと【介護老人保健施設】長野県長野市篠ノ井小松原2360", "url": "https://www.kaigokensaku.mhlw.go.jp/20/index.php?action_kouhyou_detail_004_kani=true&JigyosyoCd=2050180070-00&ServiceCd=520&Type=search", "url2": "https://www.mi-suzukai-groups.com" }, "geometry": { "type": "Point", "coordinates": [ 138.131047800000033, 36.6062752 ] } },
{ "type": "Feature", "properties": { "内容": "ゆたかの【介護老人保健施設】長野県長野市豊野町豊野６３４", "url": "https://www.kaigokensaku.mhlw.go.jp/20/index.php?action_kouhyou_detail_004_kani=true&JigyosyoCd=2053480014-00&ServiceCd=520&Type=search", "url2": "https://www.san-ikukai.or.jp" }, "geometry": { "type": "Point", "coordinates": [ 138.282821399999989, 36.7109033 ] } },
{ "type": "Feature", "properties": { "内容": "介護老人保健施設すめらぎ【介護老人保健施設】長野県長野市中条住良木８２９１番地１", "url": "https://www.kaigokensaku.mhlw.go.jp/20/index.php?action_kouhyou_detail_004_kani=true&JigyosyoCd=2053480022-00&ServiceCd=520&Type=search", "url2": "https://www.sumeragi.jp" }, "geometry": { "type": "Point", "coordinates": [ 138.013400700000062, 36.6053826 ] } },
{ "type": "Feature", "properties": { "内容": "ふるさと【介護老人保健施設】長野県長野市大字三才６８３", "url": "https://www.kaigokensaku.mhlw.go.jp/20/index.php?action_kouhyou_detail_004_kani=true&JigyosyoCd=2050180088-00&ServiceCd=520&Type=search", "url2": "http://www.healthcoop-nagano.or.jp/" }, "geometry": { "type": "Point", "coordinates": [ 138.251826121692119, 36.686363476880523 ] } },
{ "type": "Feature", "properties": { "内容": "介護老人保健施設コスモス長野【介護老人保健施設】長野県長野市小島田町３８０番地", "url": "https://www.kaigokensaku.mhlw.go.jp/20/index.php?action_kouhyou_detail_004_kani=true&JigyosyoCd=2050180039-00&ServiceCd=520&Type=search", "url2": "http://www.cosmosnet.or.jp" }, "geometry": { "type": "Point", "coordinates": [ 138.181251299999985, 36.597411 ] } },
{ "type": "Feature", "properties": { "内容": "介護老人保健施設コスモスさいなみ【介護老人保健施設】長野県長野市小島田町４４９番地", "url": "https://www.kaigokensaku.mhlw.go.jp/20/index.php?action_kouhyou_detail_004_kani=true&JigyosyoCd=2050180096-00&ServiceCd=520&Type=search", "url2": "http://www.cosmosnet.or.jp/" }, "geometry": { "type": "Point", "coordinates": [ 138.1810597, 36.5954945 ] } },
{ "type": "Feature", "properties": { "内容": "コンフォート岡田【介護老人保健施設】長野県長野市大字北長池９１４番地", "url": "https://www.kaigokensaku.mhlw.go.jp/20/index.php?action_kouhyou_detail_004_kani=true&JigyosyoCd=2050180021-00&ServiceCd=520&Type=search", "url2": "https://www.keiseikai-group.org" }, "geometry": { "type": "Point", "coordinates": [ 138.247595, 36.6501153 ] } },
{ "type": "Feature", "properties": { "内容": "介護老人保健施設インターコート藤【介護老人保健施設】長野県長野市青木島町綱島字小中島７８２番地６", "url": "https://www.kaigokensaku.mhlw.go.jp/20/index.php?action_kouhyou_detail_004_kani=true&JigyosyoCd=2050180054-00&ServiceCd=520&Type=search", "url2": "https://www.intercourt-fuji.com" }, "geometry": { "type": "Point", "coordinates": [ 138.208504327105743, 36.612160201146366 ] } },
{ "type": "Feature", "properties": { "内容": "老人保健施設ケアポート三輪【介護老人保健施設】長野市三輪５-４３-２０", "url": "https://www.kaigokensaku.mhlw.go.jp/20/index.php?action_kouhyou_detail_004_kani=true&JigyosyoCd=2050180062-00&ServiceCd=520&Type=search", "url2": "http://www7.ocn.ne.jp/~keapoto/index.html" }, "geometry": { "type": "Point", "coordinates": [ 138.202006100000062, 36.6584928 ] } },
{ "type": "Feature", "properties": { "内容": "介護老人保健施設コスモスあがたまち【介護老人保健施設】長野県長野市南長野南県町６５８", "url": "https://www.kaigokensaku.mhlw.go.jp/20/index.php?action_kouhyou_detail_004_kani=true&JigyosyoCd=2050180013-00&ServiceCd=520&Type=search", "url2": "https://www.cosmoslife.or.jp" }, "geometry": { "type": "Point", "coordinates": [ 138.183827599999972, 36.6510876 ] } },
{ "type": "Feature", "properties": { "内容": "介護老人保健施設桜ホーム【介護老人保健施設】長野県長野市篠ノ井二ツ柳字大当1432-3", "url": "https://www.kaigokensaku.mhlw.go.jp/20/index.php?action_kouhyou_detail_004_kani=true&JigyosyoCd=2050180104-00&ServiceCd=520&Type=search", "url2": "https://hakujinkai-sakurahome.jp/" }, "geometry": { "type": "Point", "coordinates": [ 138.132922803071523, 36.566481913170094 ] } },
{ "type": "Feature", "properties": { "内容": "介護老人保健施設つかまの里【介護老人保健施設】長野県松本市筑摩３－１５－３１", "url": "https://www.kaigokensaku.mhlw.go.jp/20/index.php?action_kouhyou_detail_004_kani=true&JigyosyoCd=2050280060-00&ServiceCd=520&Type=search", "url2": "http://www.mhl.janis.or.jp/~kokusai/" }, "geometry": { "type": "Point", "coordinates": [ 137.983156, 36.2198244 ] } },
{ "type": "Feature", "properties": { "内容": "寿の里【介護老人保健施設】長野県松本市寿北８丁目２１番２号", "url": "https://www.kaigokensaku.mhlw.go.jp/20/index.php?action_kouhyou_detail_004_kani=true&JigyosyoCd=2050280011-00&ServiceCd=520&Type=search", "url2": "http://www.seiunkai.or.jp" }, "geometry": { "type": "Point", "coordinates": [ 137.976363499999934, 36.1907667 ] } },
{ "type": "Feature", "properties": { "内容": "介護療養型老人保健施設びおら【介護老人保健施設】長野県松本市島内3533", "url": "https://www.kaigokensaku.mhlw.go.jp/20/index.php?action_kouhyou_detail_004_kani=true&JigyosyoCd=2070202524-00&ServiceCd=520&Type=search", "url2": "https://okubo-mc.jp/" }, "geometry": { "type": "Point", "coordinates": [ 137.94667, 36.2381901 ] } },
{ "type": "Feature", "properties": { "内容": "介護老人保健施設びおら【介護老人保健施設】長野県松本市島内３５３３", "url": "https://www.kaigokensaku.mhlw.go.jp/20/index.php?action_kouhyou_detail_004_kani=true&JigyosyoCd=2070202532-00&ServiceCd=520&Type=search", "url2": "https://okubo-mc.jp/" }, "geometry": { "type": "Point", "coordinates": [ 137.946703299999967, 36.2381646 ] } },
{ "type": "Feature", "properties": { "内容": "介護老人保健施設のむぎ【介護老人保健施設】長野県松本市波田9802番地1", "url": "https://www.kaigokensaku.mhlw.go.jp/20/index.php?action_kouhyou_detail_004_kani=true&JigyosyoCd=2052780018-00&ServiceCd=520&Type=search", "url2": "https://nomugi.jp/" }, "geometry": { "type": "Point", "coordinates": [ 137.854937, 36.198239 ] } },
{ "type": "Feature", "properties": { "内容": "介護老人保健施設ハーモニー【介護老人保健施設】長野県松本市島内広田4064番地２", "url": "https://www.kaigokensaku.mhlw.go.jp/20/index.php?action_kouhyou_detail_004_kani=true&JigyosyoCd=2050280045-00&ServiceCd=520&Type=search", "url2": "http://www.harmony-matsumoto.or.jp/service/index.html" }, "geometry": { "type": "Point", "coordinates": [ 137.944989, 36.247019 ] } },
{ "type": "Feature", "properties": { "内容": "ローズガーデン【介護老人保健施設】長野県松本市中山７４９４－８", "url": "https://www.kaigokensaku.mhlw.go.jp/20/index.php?action_kouhyou_detail_004_kani=true&JigyosyoCd=2050280029-00&ServiceCd=520&Type=search", "url2": "http://www.rosegarden-s.com/" }, "geometry": { "type": "Point", "coordinates": [ 138.006675200000018, 36.1712388 ] } },
{ "type": "Feature", "properties": { "内容": "介護老人保健施設山望苑【介護老人保健施設】長野県松本市新村１９５６-１", "url": "https://www.kaigokensaku.mhlw.go.jp/20/index.php?action_kouhyou_detail_004_kani=true&JigyosyoCd=2050280052-00&ServiceCd=520&Type=search", "url2": "http://www.washinkai.jp/policy.html" }, "geometry": { "type": "Point", "coordinates": [ 137.906773499999986, 36.2178606 ] } },
{ "type": "Feature", "properties": { "内容": "松本市城山介護老人保健施設【介護老人保健施設】長野県松本市蟻ケ崎２１３２", "url": "https://www.kaigokensaku.mhlw.go.jp/20/index.php?action_kouhyou_detail_004_kani=true&JigyosyoCd=2050280037-00&ServiceCd=520&Type=search", "url2": "http://www.matsu-med.or.jp" }, "geometry": { "type": "Point", "coordinates": [ 137.956345347546403, 36.252465461729891 ] } },
{ "type": "Feature", "properties": { "内容": "介護老人保健施設ほのぼの【介護老人保健施設】長野県上田市住吉322", "url": "https://www.kaigokensaku.mhlw.go.jp/20/index.php?action_kouhyou_detail_004_kani=true&JigyosyoCd=2050380035-00&ServiceCd=520&Type=search", "url2": "http://www.jishyukai.or.jp/honobono/" }, "geometry": { "type": "Point", "coordinates": [ 138.279236, 36.4058444 ] } },
{ "type": "Feature", "properties": { "内容": "長野県厚生農業協同組合連合会鹿教湯三才山リハビリテーションセンター介護療養型老人保健施設いずみの【介護老人保健施設】長野県上田市小泉７２番地１", "url": "https://www.kaigokensaku.mhlw.go.jp/20/index.php?action_kouhyou_detail_004_kani=true&JigyosyoCd=2050380050-00&ServiceCd=520&Type=search", "url2": "http://www.janis.or.jp/users/kakeyuh2/izumino/index.html" }, "geometry": { "type": "Point", "coordinates": [ 138.194938699999966, 36.3863681 ] } },
{ "type": "Feature", "properties": { "内容": "老人保健施設なないろ【介護老人保健施設】長野県上田市上塩尻393-1", "url": "https://www.kaigokensaku.mhlw.go.jp/20/index.php?action_kouhyou_detail_004_kani=true&JigyosyoCd=2050380068-00&ServiceCd=520&Type=search", "url2": null }, "geometry": { "type": "Point", "coordinates": [ 138.221359500000062, 36.4148017 ] } },
{ "type": "Feature", "properties": { "内容": "御所苑【介護老人保健施設】長野県上田市御所666", "url": "https://www.kaigokensaku.mhlw.go.jp/20/index.php?action_kouhyou_detail_004_kani=true&JigyosyoCd=2050380027-00&ServiceCd=520&Type=search", "url2": "https://gosyoen.maruyamakai.jp/" }, "geometry": { "type": "Point", "coordinates": [ 138.234151, 36.3986841 ] } },
{ "type": "Feature", "properties": { "内容": "ケアホーム上田【介護老人保健施設】長野県上田市中野29番地2", "url": "https://www.kaigokensaku.mhlw.go.jp/20/index.php?action_kouhyou_detail_004_kani=true&JigyosyoCd=2050380019-00&ServiceCd=520&Type=search", "url2": "http://shioda-hp.jp/" }, "geometry": { "type": "Point", "coordinates": [ 138.1981218, 36.3603141 ] } },
{ "type": "Feature", "properties": { "内容": "介護老人保健施設チェリーガーデン【介護老人保健施設】長野県上田市保野７１０番地", "url": "https://www.kaigokensaku.mhlw.go.jp/20/index.php?action_kouhyou_detail_004_kani=true&JigyosyoCd=2050380043-00&ServiceCd=520&Type=search", "url2": "http://www.koujin-kai.or.jp" }, "geometry": { "type": "Point", "coordinates": [ 138.1924838, 36.3743389 ] } },
{ "type": "Feature", "properties": { "内容": "介護老人保健施設第２グレイスフル岡谷【介護老人保健施設】長野県岡谷市加茂町３丁目８番７号", "url": "https://www.kaigokensaku.mhlw.go.jp/20/index.php?action_kouhyou_detail_004_kani=true&JigyosyoCd=2050480025-00&ServiceCd=520&Type=search", "url2": "http://www.sun-vision.or.jp" }, "geometry": { "type": "Point", "coordinates": [ 138.05325270000003, 36.0752634 ] } },
{ "type": "Feature", "properties": { "内容": "介護老人保健施設白寿荘【介護老人保健施設】長野県岡谷市長地小萩１－１１－３０", "url": "https://www.kaigokensaku.mhlw.go.jp/20/index.php?action_kouhyou_detail_004_kani=true&JigyosyoCd=2050480017-00&ServiceCd=520&Type=search", "url2": "http://www.kensei-kai.jp/senior/index.html" }, "geometry": { "type": "Point", "coordinates": [ 138.055519, 36.0808878 ] } },
{ "type": "Feature", "properties": { "内容": "介護老人保健施設　千年の緑【介護老人保健施設】飯田市鼎中平２２５８", "url": "https://www.kaigokensaku.mhlw.go.jp/20/index.php?action_kouhyou_detail_004_kani=true&JigyosyoCd=2070501610-00&ServiceCd=520&Type=search", "url2": null }, "geometry": { "type": "Point", "coordinates": [ 137.826266, 35.5080064 ] } },
{ "type": "Feature", "properties": { "内容": "介護老人保健施設アップルハイツ飯田【介護老人保健施設】長野県飯田市羽場権現１６１８番地", "url": "https://www.kaigokensaku.mhlw.go.jp/20/index.php?action_kouhyou_detail_004_kani=true&JigyosyoCd=2050580014-00&ServiceCd=520&Type=search", "url2": "http://www.iida.or.jp/related-facility/apple/" }, "geometry": { "type": "Point", "coordinates": [ 137.799015599999962, 35.5206159 ] } },
{ "type": "Feature", "properties": { "内容": "飯田市立病院介護老人保健施設【介護老人保健施設】長野県飯田市上郷黒田341番地", "url": "https://www.kaigokensaku.mhlw.go.jp/20/index.php?action_kouhyou_detail_004_kani=true&JigyosyoCd=2050580022-00&ServiceCd=520&Type=search", "url2": "https://www.imh.jp/section/yuuyuu" }, "geometry": { "type": "Point", "coordinates": [ 137.840175199999976, 35.5179668 ] } },
{ "type": "Feature", "properties": { "内容": "介護老人保健施設万年青苑【介護老人保健施設】長野県飯田市毛賀１７０７番地", "url": "https://www.kaigokensaku.mhlw.go.jp/20/index.php?action_kouhyou_detail_004_kani=true&JigyosyoCd=2050580030-00&ServiceCd=520&Type=search", "url2": "http://www.kizankai.or.jp/omoto/index.html" }, "geometry": { "type": "Point", "coordinates": [ 137.841097301061382, 35.477899038473282 ] } },
{ "type": "Feature", "properties": { "内容": "介護老人保健施設掬水【介護老人保健施設】長野県諏訪市豊田８３７－１", "url": "https://www.kaigokensaku.mhlw.go.jp/20/index.php?action_kouhyou_detail_004_kani=true&JigyosyoCd=2050680038-00&ServiceCd=520&Type=search", "url2": "http://www.heisei-kai.jp" }, "geometry": { "type": "Point", "coordinates": [ 138.0953836, 36.0324476 ] } },
{ "type": "Feature", "properties": { "内容": "サテライト老健　こまくさの森【介護老人保健施設】長野県諏訪市中洲豆田5924", "url": "https://www.kaigokensaku.mhlw.go.jp/20/index.php?action_kouhyou_detail_004_kani=true&JigyosyoCd=2070600545-00&ServiceCd=520&Type=search", "url2": "http://www.lcv.ne.jp/~komakusa" }, "geometry": { "type": "Point", "coordinates": [ 138.12894510000001, 36.0089431 ] } },
{ "type": "Feature", "properties": { "内容": "介護老人保健施設かりんの里【介護老人保健施設】長野県諏訪市湖岸通り5-11-5", "url": "https://www.kaigokensaku.mhlw.go.jp/20/index.php?action_kouhyou_detail_004_kani=true&JigyosyoCd=2050680012-00&ServiceCd=520&Type=search", "url2": "http://suwafukushi.com/" }, "geometry": { "type": "Point", "coordinates": [ 138.109298599999988, 36.0421328 ] } },
{ "type": "Feature", "properties": { "内容": "老人保健施設みづうみ【介護老人保健施設】長野県諏訪市豊田2400-9", "url": "https://www.kaigokensaku.mhlw.go.jp/20/index.php?action_kouhyou_detail_004_kani=true&JigyosyoCd=2050680046-00&ServiceCd=520&Type=search", "url2": "https://fujimihp.com/facility/老人保健施設みづうみ" }, "geometry": { "type": "Point", "coordinates": [ 138.081551699999949, 36.029108700000016 ] } },
{ "type": "Feature", "properties": { "内容": "老人保健施設須坂やすらぎの園【介護老人保健施設】長野県須坂市大字日滝字寺窪２８８７-2", "url": "https://www.kaigokensaku.mhlw.go.jp/20/index.php?action_kouhyou_detail_004_kani=true&JigyosyoCd=2050780010-00&ServiceCd=520&Type=search", "url2": "http://suzaka-yasuraginosono.com/index" }, "geometry": { "type": "Point", "coordinates": [ 138.307191699999947, 36.6510973 ] } },
{ "type": "Feature", "properties": { "内容": "ウィングラス【介護老人保健施設】長野県須坂市大字仁礼７番地１０", "url": "https://www.kaigokensaku.mhlw.go.jp/20/index.php?action_kouhyou_detail_004_kani=true&JigyosyoCd=2050780028-00&ServiceCd=520&Type=search", "url2": "http://www.greenarum.jp" }, "geometry": { "type": "Point", "coordinates": [ 138.338664699999981, 36.6137439 ] } },
{ "type": "Feature", "properties": { "内容": "介護老人保健施設メディトピア小諸【介護老人保健施設】長野県小諸市大字諸３５１", "url": "https://www.kaigokensaku.mhlw.go.jp/20/index.php?action_kouhyou_detail_004_kani=true&JigyosyoCd=2050880026-00&ServiceCd=520&Type=search", "url2": "http://www.yanagibashi.or.jp" }, "geometry": { "type": "Point", "coordinates": [ 138.411961499999961, 36.3390064 ] } },
{ "type": "Feature", "properties": { "内容": "老人保健施設こまくさ【介護老人保健施設】長野県小諸市南町二丁目２番２７号", "url": "https://www.kaigokensaku.mhlw.go.jp/20/index.php?action_kouhyou_detail_004_kani=true&JigyosyoCd=2050880018-00&ServiceCd=520&Type=search", "url2": "http://komoro-mc.com" }, "geometry": { "type": "Point", "coordinates": [ 138.427657899999986, 36.323378 ] } },
{ "type": "Feature", "properties": { "内容": "介護老人保健施設しののめの里【介護老人保健施設】長野県小諸市東雲5-8-1", "url": "https://www.kaigokensaku.mhlw.go.jp/20/index.php?action_kouhyou_detail_004_kani=true&JigyosyoCd=2050880034-00&ServiceCd=520&Type=search", "url2": "http://www.sinonomenosato.com" }, "geometry": { "type": "Point", "coordinates": [ 138.440851299999963, 36.3334938 ] } },
{ "type": "Feature", "properties": { "内容": "介護老人保健施設みぶの里【介護老人保健施設】長野県伊那市美篶5324-1複合福祉施設みぶの里", "url": "https://www.kaigokensaku.mhlw.go.jp/20/index.php?action_kouhyou_detail_004_kani=true&JigyosyoCd=2050980040-00&ServiceCd=520&Type=search", "url2": "http://s-sawayaka.or.jp" }, "geometry": { "type": "Point", "coordinates": [ 138.00659743439337, 35.832559469587601 ] } },
{ "type": "Feature", "properties": { "内容": "老人保健施設すずたけ【介護老人保健施設】長野県伊那市美篶７７９２番地3", "url": "https://www.kaigokensaku.mhlw.go.jp/20/index.php?action_kouhyou_detail_004_kani=true&JigyosyoCd=2050980032-00&ServiceCd=520&Type=search", "url2": null }, "geometry": { "type": "Point", "coordinates": [ 138.001780899999972, 35.8427713 ] } },
{ "type": "Feature", "properties": { "内容": "介護老人保健施設辛夷園【介護老人保健施設】長野県伊那市荒井３８３１", "url": "https://www.kaigokensaku.mhlw.go.jp/20/index.php?action_kouhyou_detail_004_kani=true&JigyosyoCd=2050980016-00&ServiceCd=520&Type=search", "url2": "http://wwwe-seizankai.or.jp" }, "geometry": { "type": "Point", "coordinates": [ 137.943966741803024, 35.849464233582047 ] } },
{ "type": "Feature", "properties": { "内容": "老人保健施設はびろの里【介護老人保健施設】長野県伊那市西箕輪2758-1", "url": "https://www.kaigokensaku.mhlw.go.jp/20/index.php?action_kouhyou_detail_004_kani=true&JigyosyoCd=2050980024-00&ServiceCd=520&Type=search", "url2": "https://www.kamiina-mcoop.com/habiro-page/habiro-home" }, "geometry": { "type": "Point", "coordinates": [ 137.924805, 35.888089 ] } },
{ "type": "Feature", "properties": { "内容": "介護老人保健施設花の道【介護老人保健施設】長野県駒ヶ根市赤穂16621番地5", "url": "https://www.kaigokensaku.mhlw.go.jp/20/index.php?action_kouhyou_detail_004_kani=true&JigyosyoCd=2051080030-00&ServiceCd=520&Type=search", "url2": "https://www.hanamichi-clinic.com/" }, "geometry": { "type": "Point", "coordinates": [ 137.915620699999977, 35.7063749 ] } },
{ "type": "Feature", "properties": { "内容": "老人保健施設フラワーハイツ【介護老人保健施設】長野県駒ヶ根市赤穂３２４９番地４", "url": "https://www.kaigokensaku.mhlw.go.jp/20/index.php?action_kouhyou_detail_004_kani=true&JigyosyoCd=2051080014-00&ServiceCd=520&Type=search", "url2": "http://inanfukushi.or.jp/" }, "geometry": { "type": "Point", "coordinates": [ 137.919810900000016, 35.7369844 ] } },
{ "type": "Feature", "properties": { "内容": "介護老人保健施設エーデルこまがね【介護老人保健施設】長野県駒ヶ根市赤穂14421番地1", "url": "https://www.kaigokensaku.mhlw.go.jp/20/index.php?action_kouhyou_detail_004_kani=true&JigyosyoCd=2051080022-00&ServiceCd=520&Type=search", "url2": "https://care-net.biz/20/edel-komagane/" }, "geometry": { "type": "Point", "coordinates": [ 137.95070039999996, 35.7181107 ] } },
{ "type": "Feature", "properties": { "内容": "北信総合病院老人保健施設もえぎ【介護老人保健施設】長野県中野市吉田１２３-１", "url": "https://www.kaigokensaku.mhlw.go.jp/20/index.php?action_kouhyou_detail_004_kani=true&JigyosyoCd=2051180012-00&ServiceCd=520&Type=search", "url2": "http://www.hokushin-hosp.jp/" }, "geometry": { "type": "Point", "coordinates": [ 138.351921400000037, 36.7525731 ] } },
{ "type": "Feature", "properties": { "内容": "介護老人保健施設虹の家【介護老人保健施設】長野県大町市大町３１３０", "url": "https://www.kaigokensaku.mhlw.go.jp/20/index.php?action_kouhyou_detail_004_kani=true&JigyosyoCd=2051280010-00&ServiceCd=520&Type=search", "url2": "http://www.kita-alps.omachi.nagano.jp/" }, "geometry": { "type": "Point", "coordinates": [ 137.85717429748388, 36.501429233162007 ] } },
{ "type": "Feature", "properties": { "内容": "医療法人みゆき会飯山介護老人保健施設みゆき【介護老人保健施設】長野県飯山市大字下木島9番地", "url": "https://www.kaigokensaku.mhlw.go.jp/20/index.php?action_kouhyou_detail_004_kani=true&JigyosyoCd=2051380018-00&ServiceCd=520&Type=search", "url2": "http://www.miyuki-g.or.jp/" }, "geometry": { "type": "Point", "coordinates": [ 138.387735788360601, 36.855399188671569 ] } },
{ "type": "Feature", "properties": { "内容": "介護老人保健施設　虹の森　(既存棟）【介護老人保健施設】長野県茅野市ちの3094‐6", "url": "https://www.kaigokensaku.mhlw.go.jp/20/index.php?action_kouhyou_detail_004_kani=true&JigyosyoCd=2051480024-00&ServiceCd=520&Type=search", "url2": "http://www.lcv.ne.jp/~komakusa/niji01.html" }, "geometry": { "type": "Point", "coordinates": [ 138.15018, 35.9934956 ] } },
{ "type": "Feature", "properties": { "内容": "虹の森ユニット棟【介護老人保健施設】長野県茅野市ちの3094-6", "url": "https://www.kaigokensaku.mhlw.go.jp/20/index.php?action_kouhyou_detail_004_kani=true&JigyosyoCd=2051480032-00&ServiceCd=520&Type=search", "url2": "http://www.lcv.ne.jp/~komakusa/" }, "geometry": { "type": "Point", "coordinates": [ 138.15018, 35.9934956 ] } },
{ "type": "Feature", "properties": { "内容": "諏訪中央病院組合介護老人保健施設やすらぎの丘【介護老人保健施設】長野県茅野市玉川４３００", "url": "https://www.kaigokensaku.mhlw.go.jp/20/index.php?action_kouhyou_detail_004_kani=true&JigyosyoCd=2051480016-00&ServiceCd=520&Type=search", "url2": null }, "geometry": { "type": "Point", "coordinates": [ 138.176958300000024, 35.9910467 ] } },
{ "type": "Feature", "properties": { "内容": "萌生の里【介護老人保健施設】長野県塩尻市大字木曽平沢２３９６－１", "url": "https://www.kaigokensaku.mhlw.go.jp/20/index.php?action_kouhyou_detail_004_kani=true&JigyosyoCd=2052680028-00&ServiceCd=520&Type=search", "url2": "https://www.keijin-kai.jp/home-health-care/moeunosato" }, "geometry": { "type": "Point", "coordinates": [ 137.828637800000024, 35.9811914 ] } },
{ "type": "Feature", "properties": { "内容": "老人保健施設こもれび【介護老人保健施設】長野県塩尻市大門六番町4-36", "url": "https://www.kaigokensaku.mhlw.go.jp/20/index.php?action_kouhyou_detail_004_kani=true&JigyosyoCd=2051580039-00&ServiceCd=520&Type=search", "url2": "http://shiojiri-komorebi.jp/" }, "geometry": { "type": "Point", "coordinates": [ 137.954676699999936, 36.1149112 ] } },
{ "type": "Feature", "properties": { "内容": "ロングライフ塩尻【介護老人保健施設】長野県塩尻市広丘高出１６１４－１", "url": "https://www.kaigokensaku.mhlw.go.jp/20/index.php?action_kouhyou_detail_004_kani=true&JigyosyoCd=2051580013-00&ServiceCd=520&Type=search", "url2": "http://www.longlife-shiojiri.jp/guide/residential.php" }, "geometry": { "type": "Point", "coordinates": [ 137.959073100000069, 36.1216828 ] } },
{ "type": "Feature", "properties": { "内容": "介護老人保健施設まほろばの郷【介護老人保健施設】長野県塩尻市宗賀１２９５番地", "url": "https://www.kaigokensaku.mhlw.go.jp/20/index.php?action_kouhyou_detail_004_kani=true&JigyosyoCd=2051580021-00&ServiceCd=520&Type=search", "url2": "http://www.keijin-kai.jp/home-health-care/mahorobanosato" }, "geometry": { "type": "Point", "coordinates": [ 137.9330066, 36.1111004 ] } },
{ "type": "Feature", "properties": { "内容": "サテライト介護老人保健施設なかごみ【介護老人保健施設】長野県佐久市中込3丁目15番地６", "url": "https://www.kaigokensaku.mhlw.go.jp/20/index.php?action_kouhyou_detail_004_kani=true&JigyosyoCd=2051780068-00&ServiceCd=520&Type=search", "url2": "https://www.keijinnet.or.jp" }, "geometry": { "type": "Point", "coordinates": [ 138.4779059, 36.2276769 ] } },
{ "type": "Feature", "properties": { "内容": "老人保健施設シルバーポートつかばら【介護老人保健施設】長野県佐久市塚原1894-1", "url": "https://www.kaigokensaku.mhlw.go.jp/20/index.php?action_kouhyou_detail_004_kani=true&JigyosyoCd=2051780035-00&ServiceCd=520&Type=search", "url2": "https://www.keijinnet.or.jp" }, "geometry": { "type": "Point", "coordinates": [ 138.436167, 36.2664683 ] } },
{ "type": "Feature", "properties": { "内容": "介護老人保健施設愛の郷【介護老人保健施設】長野県佐久市長土呂８６０－２", "url": "https://www.kaigokensaku.mhlw.go.jp/20/index.php?action_kouhyou_detail_004_kani=true&JigyosyoCd=2051780043-00&ServiceCd=520&Type=search", "url2": "http://skdf.jp/" }, "geometry": { "type": "Point", "coordinates": [ 138.471541500000058, 36.2918136 ] } },
{ "type": "Feature", "properties": { "内容": "介護老人保健施設安寿苑【介護老人保健施設】長野県佐久市中込１丁目１７番地８", "url": "https://www.kaigokensaku.mhlw.go.jp/20/index.php?action_kouhyou_detail_004_kani=true&JigyosyoCd=2051780019-00&ServiceCd=520&Type=search", "url2": "https://www.keijinnet.or.jp" }, "geometry": { "type": "Point", "coordinates": [ 138.477885217196672, 36.227439167674611 ] } },
{ "type": "Feature", "properties": { "内容": "介護老人保健施設愛の郷サテライト【介護老人保健施設】長野県佐久市長土呂865-1", "url": "https://www.kaigokensaku.mhlw.go.jp/20/index.php?action_kouhyou_detail_004_kani=true&JigyosyoCd=2051780050-00&ServiceCd=520&Type=search", "url2": "http://skdf.jp/" }, "geometry": { "type": "Point", "coordinates": [ 138.472023400000012, 36.2928802 ] } },
{ "type": "Feature", "properties": { "内容": "佐久総合病院老人保健施設【介護老人保健施設】長野県佐久市臼田779番地4", "url": "https://www.kaigokensaku.mhlw.go.jp/20/index.php?action_kouhyou_detail_004_kani=true&JigyosyoCd=2052080013-00&ServiceCd=520&Type=search", "url2": null }, "geometry": { "type": "Point", "coordinates": [ 138.477785930935596, 36.207760766928509 ] } },
{ "type": "Feature", "properties": { "内容": "社会医療法人大西会介護老人保健施設ひまわり【介護老人保健施設】長野県千曲市大字桑原1670-1", "url": "https://www.kaigokensaku.mhlw.go.jp/20/index.php?action_kouhyou_detail_004_kani=true&JigyosyoCd=2051680011-00&ServiceCd=520&Type=search", "url2": "http://chikuma-chp.com/" }, "geometry": { "type": "Point", "coordinates": [ 138.088707900000031, 36.5254045 ] } },
{ "type": "Feature", "properties": { "内容": "フランセーズ悠とぐら【介護老人保健施設】長野県千曲市大字上徳間３３７－１", "url": "https://www.kaigokensaku.mhlw.go.jp/20/index.php?action_kouhyou_detail_004_kani=true&JigyosyoCd=2051880017-00&ServiceCd=520&Type=search", "url2": "http://www.hakuyukai.com" }, "geometry": { "type": "Point", "coordinates": [ 138.1442075, 36.4958488 ] } },
{ "type": "Feature", "properties": { "内容": "介護老人保健施設ハーモニック東部【介護老人保健施設】長野県東御市祢津３４６番地１", "url": "https://www.kaigokensaku.mhlw.go.jp/20/index.php?action_kouhyou_detail_004_kani=true&JigyosyoCd=2052280027-00&ServiceCd=520&Type=search", "url2": "http://www.ryokufuukai.or.jp/index.html" }, "geometry": { "type": "Point", "coordinates": [ 138.3574145, 36.3691518 ] } },
{ "type": "Feature", "properties": { "内容": "介護老人保健施設安曇野メディア【介護老人保健施設】長野県安曇野市豊科５６３３－１", "url": "https://www.kaigokensaku.mhlw.go.jp/20/index.php?action_kouhyou_detail_004_kani=true&JigyosyoCd=2052880016-00&ServiceCd=520&Type=search", "url2": "http://www.shironishi.or.jp/az/01.htm" }, "geometry": { "type": "Point", "coordinates": [ 137.904487199999949, 36.3042342 ] } },
{ "type": "Feature", "properties": { "内容": "介護老人保健施設　孝穂舘【介護老人保健施設】長野県安曇野市穂高北穂高２５３１-３", "url": "https://www.kaigokensaku.mhlw.go.jp/20/index.php?action_kouhyou_detail_004_kani=true&JigyosyoCd=2052880040-00&ServiceCd=520&Type=search", "url2": "http://www.koumei.or.jp" }, "geometry": { "type": "Point", "coordinates": [ 137.878999499999964, 36.3533415 ] } },
{ "type": "Feature", "properties": { "内容": "老人保健施設あずみの里【介護老人保健施設】長野県安曇野市豊科高家5285-11", "url": "https://www.kaigokensaku.mhlw.go.jp/20/index.php?action_kouhyou_detail_004_kani=true&JigyosyoCd=2052880032-00&ServiceCd=520&Type=search", "url2": "http://www18.ocn.ne.jp/~azumino1/kyouritsufukushikai/index.html" }, "geometry": { "type": "Point", "coordinates": [ 137.916107799999963, 36.2474265 ] } },
{ "type": "Feature", "properties": { "内容": "有明苑【介護老人保健施設】長野県安曇野市穂高有明7261-3", "url": "https://www.kaigokensaku.mhlw.go.jp/20/index.php?action_kouhyou_detail_004_kani=true&JigyosyoCd=2052880024-00&ServiceCd=520&Type=search", "url2": "https://ariakeen.jp" }, "geometry": { "type": "Point", "coordinates": [ 137.816721, 36.3845409 ] } },
{ "type": "Feature", "properties": { "内容": "佐久総合病院老人保健施設こうみ【介護老人保健施設】長野県南佐久郡小海町大字小海4487-1", "url": "https://www.kaigokensaku.mhlw.go.jp/20/index.php?action_kouhyou_detail_004_kani=true&JigyosyoCd=2052080039-00&ServiceCd=520&Type=search", "url2": null }, "geometry": { "type": "Point", "coordinates": [ 138.4846172, 36.0863618 ] } },
{ "type": "Feature", "properties": { "内容": "佐久穂町老人保健施設【介護老人保健施設】長野県南佐久郡佐久穂町大字高野町３５２番地２", "url": "https://www.kaigokensaku.mhlw.go.jp/20/index.php?action_kouhyou_detail_004_kani=true&JigyosyoCd=2052080021-00&ServiceCd=520&Type=search", "url2": "https://www.town.sakuho.nagano.jp/shisetsu/sayaka.html" }, "geometry": { "type": "Point", "coordinates": [ 138.478244099999984, 36.1632337 ] } },
{ "type": "Feature", "properties": { "内容": "介護老人保健施設やまゆりの園【介護老人保健施設】長野県北佐久郡御代田町大字御代田４１０７－１３９", "url": "https://www.kaigokensaku.mhlw.go.jp/20/index.php?action_kouhyou_detail_004_kani=true&JigyosyoCd=2052180011-00&ServiceCd=520&Type=search", "url2": "http://www.miyotahp.or.jp/yamayuri/" }, "geometry": { "type": "Point", "coordinates": [ 138.51615860000004, 36.3116679 ] } },
{ "type": "Feature", "properties": { "内容": "介護老人保健施設やまゆりの園ユニット型【介護老人保健施設】長野県北佐久郡御代田町大字御代田４１０７－１３９", "url": "https://www.kaigokensaku.mhlw.go.jp/20/index.php?action_kouhyou_detail_004_kani=true&JigyosyoCd=2052180029-00&ServiceCd=520&Type=search", "url2": "http://www.miyotahp.or.jp/yamayuri/" }, "geometry": { "type": "Point", "coordinates": [ 138.516175299999986, 36.3116651 ] } },
{ "type": "Feature", "properties": { "内容": "依田窪老人保健施設【介護老人保健施設】長野県小県郡長和町古町3365-5", "url": "https://www.kaigokensaku.mhlw.go.jp/20/index.php?action_kouhyou_detail_004_kani=true&JigyosyoCd=2052280019-00&ServiceCd=520&Type=search", "url2": "http://www.kokuyou.ne.jp/~r-ikoi/" }, "geometry": { "type": "Point", "coordinates": [ 138.266768100000036, 36.273477 ] } },
{ "type": "Feature", "properties": { "内容": "老健すずかぜ【介護老人保健施設】長野県諏訪郡下諏訪町西赤砂4429-6諏訪共立ケアセンター赤砂", "url": "https://www.kaigokensaku.mhlw.go.jp/20/index.php?action_kouhyou_detail_004_kani=true&JigyosyoCd=2052380047-00&ServiceCd=520&Type=search", "url2": "http://www.skhp.or.jp/" }, "geometry": { "type": "Point", "coordinates": [ 138.076210356622369, 36.062783492214017 ] } },
{ "type": "Feature", "properties": { "内容": "介護老人保健施設グレイスフル下諏訪【介護老人保健施設】長野県諏訪郡下諏訪町９３７５－１", "url": "https://www.kaigokensaku.mhlw.go.jp/20/index.php?action_kouhyou_detail_004_kani=true&JigyosyoCd=2052380025-00&ServiceCd=520&Type=search", "url2": "http://www.sun-vision.or.jp/" }, "geometry": { "type": "Point", "coordinates": [ 138.106794700000023, 36.0672207 ] } },
{ "type": "Feature", "properties": { "内容": "老人保健施設あららぎ【介護老人保健施設】長野県諏訪郡富士見町落合11106番地1", "url": "https://www.kaigokensaku.mhlw.go.jp/20/index.php?action_kouhyou_detail_004_kani=true&JigyosyoCd=2052380017-00&ServiceCd=520&Type=search", "url2": "https://fujimihp.com/facility/%e8%80%81%e4%ba%ba%e4%bf%9d%e5%81%a5%e6%96%bd%e8%a8%ad%e3%81%82%e3%82%89%e3%82%89%e3%81%8e/" }, "geometry": { "type": "Point", "coordinates": [ 138.243986120237764, 35.915038012039524 ] } },
{ "type": "Feature", "properties": { "内容": "老人保健施設さくらの【介護老人保健施設】長野県諏訪郡原村13220番地1", "url": "https://www.kaigokensaku.mhlw.go.jp/20/index.php?action_kouhyou_detail_004_kani=true&JigyosyoCd=2052300015-00&ServiceCd=520&Type=search", "url2": "http://fujimihp.com/" }, "geometry": { "type": "Point", "coordinates": [ 138.236824747760011, 35.956107422332295 ] } },
{ "type": "Feature", "properties": { "内容": "老人保健施設きりとう【介護老人保健施設】長野県上伊那郡辰野町小野1290番地5", "url": "https://www.kaigokensaku.mhlw.go.jp/20/index.php?action_kouhyou_detail_004_kani=true&JigyosyoCd=2052480056-00&ServiceCd=520&Type=search", "url2": "https://fujimihp.com/facility/" }, "geometry": { "type": "Point", "coordinates": [ 137.968978501713508, 36.046154402207328 ] } },
{ "type": "Feature", "properties": { "内容": "介護老人保健施設　わかな【介護老人保健施設】長野県上伊那郡箕輪町大字東箕輪３２９６－１", "url": "https://www.kaigokensaku.mhlw.go.jp/20/index.php?action_kouhyou_detail_004_kani=true&JigyosyoCd=2052480031-00&ServiceCd=520&Type=search", "url2": "http://www.heisei-kai.jp/" }, "geometry": { "type": "Point", "coordinates": [ 137.994587540900397, 35.935768560211443 ] } },
{ "type": "Feature", "properties": { "内容": "介護老人保健施設プラムの里【介護老人保健施設】長野県上伊那郡宮田村4804-1", "url": "https://www.kaigokensaku.mhlw.go.jp/20/index.php?action_kouhyou_detail_004_kani=true&JigyosyoCd=2052480023-00&ServiceCd=520&Type=search", "url2": "http://s-sawayaka.or.jp/" }, "geometry": { "type": "Point", "coordinates": [ 137.9428292, 35.7510211 ] } },
{ "type": "Feature", "properties": { "内容": "円会センテナリアン【介護老人保健施設】長野県下伊那郡高森町牛牧２４６８番地４", "url": "https://www.kaigokensaku.mhlw.go.jp/20/index.php?action_kouhyou_detail_004_kani=true&JigyosyoCd=2052580012-00&ServiceCd=520&Type=search", "url2": "http://www.seguchi-nouge.or.jp/cente-toppage.html" }, "geometry": { "type": "Point", "coordinates": [ 137.852089, 35.5606287 ] } },
{ "type": "Feature", "properties": { "内容": "長野県阿南介護老人保健施設【介護老人保健施設】長野県下伊那郡阿南町北條２００９－１", "url": "https://www.kaigokensaku.mhlw.go.jp/20/index.php?action_kouhyou_detail_004_kani=true&JigyosyoCd=2052580038-00&ServiceCd=520&Type=search", "url2": "http://anan-hosp.jp/ailife-anan/" }, "geometry": { "type": "Point", "coordinates": [ 137.834708699999965, 35.3342035 ] } },
{ "type": "Feature", "properties": { "内容": "介護老人保健施設アルテンハイム会地の郷【介護老人保健施設】長野県下伊那郡阿智村駒場１２４－１", "url": "https://www.kaigokensaku.mhlw.go.jp/20/index.php?action_kouhyou_detail_004_kani=true&JigyosyoCd=2052580046-00&ServiceCd=520&Type=search", "url2": "http://www.alten-heim.com/alten/alten.html" }, "geometry": { "type": "Point", "coordinates": [ 137.747035099999948, 35.4490623 ] } },
{ "type": "Feature", "properties": { "内容": "介護老人保健施設はやしの杜【介護老人保健施設】長野県下伊那郡豊丘村大字神稲４１７６", "url": "https://www.kaigokensaku.mhlw.go.jp/20/index.php?action_kouhyou_detail_004_kani=true&JigyosyoCd=2052580020-00&ServiceCd=520&Type=search", "url2": "https://hayashinomori.notion.site/" }, "geometry": { "type": "Point", "coordinates": [ 137.8969217, 35.5430317 ] } },
{ "type": "Feature", "properties": { "内容": "長野県木曽介護老人保健施設【介護老人保健施設】長野県木曽郡木曽町福島６６１３－４", "url": "https://www.kaigokensaku.mhlw.go.jp/20/index.php?action_kouhyou_detail_004_kani=true&JigyosyoCd=2052680010-00&ServiceCd=520&Type=search", "url2": "https://kiso-hosp.jp/" }, "geometry": { "type": "Point", "coordinates": [ 137.683886600000051, 35.8355507 ] } },
{ "type": "Feature", "properties": { "内容": "介護老人保健施設にしじょう【介護老人保健施設】長野県東筑摩郡筑北村西条３８６８－１", "url": "https://www.kaigokensaku.mhlw.go.jp/20/index.php?action_kouhyou_detail_004_kani=true&JigyosyoCd=2052780026-00&ServiceCd=520&Type=search", "url2": "http://www.ten-yu-do.jp" }, "geometry": { "type": "Point", "coordinates": [ 138.011566, 36.4054305 ] } },
{ "type": "Feature", "properties": { "内容": "介護老人保健施設ライフ２【介護老人保健施設】長野県北安曇郡松川村字南神戸４３６０-１７", "url": "https://www.kaigokensaku.mhlw.go.jp/20/index.php?action_kouhyou_detail_004_kani=true&JigyosyoCd=2052980030-00&ServiceCd=520&Type=search", "url2": "http://koushu-nagano.jp/index.php?id=26" }, "geometry": { "type": "Point", "coordinates": [ 137.847992798147516, 36.395328266961229 ] } },
{ "type": "Feature", "properties": { "内容": "介護老人保健施設孝松舘【介護老人保健施設】長野県北安曇郡松川村５６５０番地２３", "url": "https://www.kaigokensaku.mhlw.go.jp/20/index.php?action_kouhyou_detail_004_kani=true&JigyosyoCd=2052980014-00&ServiceCd=520&Type=search", "url2": "http://www.koumei.or.jp" }, "geometry": { "type": "Point", "coordinates": [ 137.866293921426376, 36.403756205461747 ] } },
{ "type": "Feature", "properties": { "内容": "介護老人保健施設白馬メディア【介護老人保健施設】長野県北安曇郡白馬村大字神城２２８４４", "url": "https://www.kaigokensaku.mhlw.go.jp/20/index.php?action_kouhyou_detail_004_kani=true&JigyosyoCd=2052980022-00&ServiceCd=520&Type=search", "url2": "http://www.shironishi.or.jp/" }, "geometry": { "type": "Point", "coordinates": [ 137.846196599999985, 36.6639722 ] } },
{ "type": "Feature", "properties": { "内容": "介護老人保健施設朝日ホームおんせんリハビリテーションセンター【介護老人保健施設】長野県上高井郡高山村大字牧１５１番地１", "url": "https://www.kaigokensaku.mhlw.go.jp/20/index.php?action_kouhyou_detail_004_kani=true&JigyosyoCd=2053280018-00&ServiceCd=520&Type=search", "url2": null }, "geometry": { "type": "Point", "coordinates": [ 138.376562499999977, 36.6798428 ] } }
]
}
