{
"type": "FeatureCollection",
"name": "geo_20_特定施設入居者生活介護（有料老人ホーム（サービス付き高齢者向け住宅））",
"crs": { "type": "name", "properties": { "name": "urn:ogc:def:crs:OGC:1.3:CRS84" } },
"features": [
{ "type": "Feature", "properties": { "内容": "ソラーナ上町【特定施設入居者生活介護（有料老人ホーム（サービス付き高齢者向け住宅））】長野県長野市吉田1-14-33", "url": "https://www.kaigokensaku.mhlw.go.jp/20/index.php?action_kouhyou_detail_004_kani=true&JigyosyoCd=2070107343-00&ServiceCd=&Type=search", "url2": null }, "geometry": { "type": "Point", "coordinates": [ 138.2140236, 36.6677369 ] } },
{ "type": "Feature", "properties": { "内容": "介護付き有料老人ホームぬくもりの里篠ノ井【特定施設入居者生活介護（有料老人ホーム（サービス付き高齢者向け住宅））】長野県長野市篠ノ井布施高田747番地ぬくもりの里篠ノ井", "url": "https://www.kaigokensaku.mhlw.go.jp/20/index.php?action_kouhyou_detail_004_kani=true&JigyosyoCd=2070107335-00&ServiceCd=&Type=search", "url2": "https://www.serita-fukusushi.or.jp/shinonoi/" }, "geometry": { "type": "Point", "coordinates": [ 138.1381738, 36.5774074 ] } },
{ "type": "Feature", "properties": { "内容": "介護付き有料老人ホームぬくもりの里今井二号館【特定施設入居者生活介護（有料老人ホーム（サービス付き高齢者向け住宅））】長野県長野市川中島町原155-1", "url": "https://www.kaigokensaku.mhlw.go.jp/20/index.php?action_kouhyou_detail_004_kani=true&JigyosyoCd=2070107319-00&ServiceCd=&Type=search", "url2": "https://www.serita-fukushi.or.jp/imai2/" }, "geometry": { "type": "Point", "coordinates": [ 138.147882277968364, 36.589067069547845 ] } },
{ "type": "Feature", "properties": { "内容": "特定施設里山辺の杜【特定施設入居者生活介護（有料老人ホーム（サービス付き高齢者向け住宅））】松本市里山辺76-1", "url": "https://www.kaigokensaku.mhlw.go.jp/20/index.php?action_kouhyou_detail_004_kani=true&JigyosyoCd=2070202763-00&ServiceCd=&Type=search", "url2": "http://www.satoyamabe-mori.com" }, "geometry": { "type": "Point", "coordinates": [ 137.997905800000012, 36.2467881 ] } },
{ "type": "Feature", "properties": { "内容": "ハッピーシニアリビング上田【特定施設入居者生活介護（有料老人ホーム（サービス付き高齢者向け住宅））】長野県上田市材木町２丁目１４－６３", "url": "https://www.kaigokensaku.mhlw.go.jp/20/index.php?action_kouhyou_detail_004_kani=true&JigyosyoCd=2090300308-00&ServiceCd=&Type=search", "url2": null }, "geometry": { "type": "Point", "coordinates": [ 138.269743100000028, 36.3939207 ] } },
{ "type": "Feature", "properties": { "内容": "グリーンライフはるかぜ【特定施設入居者生活介護（有料老人ホーム（サービス付き高齢者向け住宅））】長野県上田市保野803-1", "url": "https://www.kaigokensaku.mhlw.go.jp/20/index.php?action_kouhyou_detail_004_kani=true&JigyosyoCd=2070302316-00&ServiceCd=&Type=search", "url2": null }, "geometry": { "type": "Point", "coordinates": [ 138.2017236, 36.3732677 ] } },
{ "type": "Feature", "properties": { "内容": "ウェルシニアホーム【特定施設入居者生活介護（有料老人ホーム（サービス付き高齢者向け住宅））】長野県上田市古里92-3", "url": "https://www.kaigokensaku.mhlw.go.jp/20/index.php?action_kouhyou_detail_004_kani=true&JigyosyoCd=2070302209-00&ServiceCd=&Type=search", "url2": "archms.com" }, "geometry": { "type": "Point", "coordinates": [ 138.2841556, 36.3947144 ] } },
{ "type": "Feature", "properties": { "内容": "サービス付き高齢者向け住宅「さつき」【特定施設入居者生活介護（有料老人ホーム（サービス付き高齢者向け住宅））】長野県岡谷市長地小萩1-11-30", "url": "https://www.kaigokensaku.mhlw.go.jp/20/index.php?action_kouhyou_detail_004_kani=true&JigyosyoCd=2070400904-00&ServiceCd=&Type=search", "url2": "http://www.kensei-kai.jp" }, "geometry": { "type": "Point", "coordinates": [ 138.055763591401643, 36.081656168213186 ] } },
{ "type": "Feature", "properties": { "内容": "こころのひろば特定施設入居者生活介護事業所【特定施設入居者生活介護（有料老人ホーム（サービス付き高齢者向け住宅））】長野県諏訪市高島一丁目21番14号", "url": "https://www.kaigokensaku.mhlw.go.jp/20/index.php?action_kouhyou_detail_004_kani=true&JigyosyoCd=2070600891-00&ServiceCd=&Type=search", "url2": "http://www.kokoro5560.or.jp" }, "geometry": { "type": "Point", "coordinates": [ 138.114542699999987, 36.0398027 ] } },
{ "type": "Feature", "properties": { "内容": "特定施設入居者生活介護事業所こころ高島【特定施設入居者生活介護（有料老人ホーム（サービス付き高齢者向け住宅））】長野県諏訪市高島三丁目１３００番１号", "url": "https://www.kaigokensaku.mhlw.go.jp/20/index.php?action_kouhyou_detail_004_kani=true&JigyosyoCd=2070600511-00&ServiceCd=&Type=search", "url2": "http://www.kokoro5560.or.jp" }, "geometry": { "type": "Point", "coordinates": [ 138.109109799999942, 36.0395249 ] } },
{ "type": "Feature", "properties": { "内容": "ウィズ茅野【特定施設入居者生活介護（有料老人ホーム（サービス付き高齢者向け住宅））】長野県茅野市宮川１１００５", "url": "https://www.kaigokensaku.mhlw.go.jp/20/index.php?action_kouhyou_detail_004_kani=true&JigyosyoCd=2071400820-00&ServiceCd=&Type=search", "url2": "https://socialnetwork.co.jp" }, "geometry": { "type": "Point", "coordinates": [ 138.169305900000012, 35.986405 ] } },
{ "type": "Feature", "properties": { "内容": "むつらぼし【特定施設入居者生活介護（有料老人ホーム（サービス付き高齢者向け住宅））】長野県塩尻市大門一番町９番１５号プレアデスコート大門", "url": "https://www.kaigokensaku.mhlw.go.jp/20/index.php?action_kouhyou_detail_004_kani=true&JigyosyoCd=2071500975-00&ServiceCd=&Type=search", "url2": "https://www.mutsuraboshi.com/pleiades-court/" }, "geometry": { "type": "Point", "coordinates": [ 137.954796499999986, 36.1116593 ] } },
{ "type": "Feature", "properties": { "内容": "サービス付き高齢者向け住宅　ウィズ安曇野【特定施設入居者生活介護（有料老人ホーム（サービス付き高齢者向け住宅））】長野県安曇野市穂高柏原4565－1サービス付き高齢者向け住宅　ウィズ安曇野", "url": "https://www.kaigokensaku.mhlw.go.jp/20/index.php?action_kouhyou_detail_004_kani=true&JigyosyoCd=2074000700-00&ServiceCd=&Type=search", "url2": "https://socialnetwork.co.jp" }, "geometry": { "type": "Point", "coordinates": [ 137.87372640000001, 36.3104236 ] } },
{ "type": "Feature", "properties": { "内容": "介護付有料老人ホームアムールまつかわ【特定施設入居者生活介護（有料老人ホーム（サービス付き高齢者向け住宅））】長野県下伊那郡松川町元大島3255-5", "url": "https://www.kaigokensaku.mhlw.go.jp/20/index.php?action_kouhyou_detail_004_kani=true&JigyosyoCd=2072501493-00&ServiceCd=&Type=search", "url2": "http://www.amour.or.jp" }, "geometry": { "type": "Point", "coordinates": [ 137.908324599999986, 35.6013601 ] } }
]
}
