{
"type": "FeatureCollection",
"name": "geo_20_定期巡回・随時対応型訪問介護看護",
"crs": { "type": "name", "properties": { "name": "urn:ogc:def:crs:OGC:1.3:CRS84" } },
"features": [
{ "type": "Feature", "properties": { "内容": "巡回訪問２４　コスモス【定期巡回・随時対応型訪問介護看護】長野県長野県長野市小島田町４４９住宅型有料老人ホームコスモスさいなみ　１階", "url": "https://www.kaigokensaku.mhlw.go.jp/20/index.php?action_kouhyou_detail_004_kani=true&JigyosyoCd=2090100542-00&ServiceCd=760&Type=search", "url2": "http://www.cosmosnet.or.jp/" }, "geometry": { "type": "Point", "coordinates": [ 138.180633670289552, 36.595381892918738 ] } },
{ "type": "Feature", "properties": { "内容": "アムール長野定期巡回訪問介護看護【定期巡回・随時対応型訪問介護看護】長野市大字栗田1568番地アムール長野駅東口", "url": "https://www.kaigokensaku.mhlw.go.jp/20/index.php?action_kouhyou_detail_004_kani=true&JigyosyoCd=2090101052-00&ServiceCd=760&Type=search", "url2": null }, "geometry": { "type": "Point", "coordinates": [ 138.18743, 36.6393834 ] } },
{ "type": "Feature", "properties": { "内容": "ケアステーション聖楓会ながの【定期巡回・随時対応型訪問介護看護】長野県長野市稲田3丁目37－12横山ビル203", "url": "https://www.kaigokensaku.mhlw.go.jp/20/index.php?action_kouhyou_detail_004_kani=true&JigyosyoCd=2090101466-00&ServiceCd=760&Type=search", "url2": "https//www.newlife.or.jp/powell_kai/" }, "geometry": { "type": "Point", "coordinates": [ 138.231052299999988, 36.673989 ] } },
{ "type": "Feature", "properties": { "内容": "愛光苑松本サポートセンター【定期巡回・随時対応型訪問介護看護】長野県松本市浅間温泉1-28-22愛光苑まつもと", "url": "https://www.kaigokensaku.mhlw.go.jp/20/index.php?action_kouhyou_detail_004_kani=true&JigyosyoCd=2090200342-00&ServiceCd=760&Type=search", "url2": "http://www.miraisai.co.jp" }, "geometry": { "type": "Point", "coordinates": [ 137.9861977, 36.26048535526607 ] } },
{ "type": "Feature", "properties": { "内容": "愛光苑蟻ケ崎サポートセンター【定期巡回・随時対応型訪問介護看護】長野県松本市蟻ケ崎5-4-10", "url": "https://www.kaigokensaku.mhlw.go.jp/20/index.php?action_kouhyou_detail_004_kani=true&JigyosyoCd=2090200532-00&ServiceCd=760&Type=search", "url2": "http://miraisai.co.jp" }, "geometry": { "type": "Point", "coordinates": [ 137.961721399999988, 36.2504936 ] } },
{ "type": "Feature", "properties": { "内容": "相澤地域密着型サービス事業所【定期巡回・随時対応型訪問介護看護】長野県松本市本庄2-10-21", "url": "https://www.kaigokensaku.mhlw.go.jp/20/index.php?action_kouhyou_detail_004_kani=true&JigyosyoCd=2090200268-00&ServiceCd=760&Type=search", "url2": "https://jisenkai.aizawahospital.jp/home_medical/" }, "geometry": { "type": "Point", "coordinates": [ 137.97527367486876, 36.227512086729881 ] } },
{ "type": "Feature", "properties": { "内容": "ほほ笑み介護24【定期巡回・随時対応型訪問介護看護】長野県上田市福田50-3", "url": "https://www.kaigokensaku.mhlw.go.jp/20/index.php?action_kouhyou_detail_004_kani=true&JigyosyoCd=2090300449-00&ServiceCd=760&Type=search", "url2": "http://hohoemikaigo.com/" }, "geometry": { "type": "Point", "coordinates": [ 138.201882399999931, 36.3874514 ] } },
{ "type": "Feature", "properties": { "内容": "ていきじゅんかいすてーしょんはるかぜ【定期巡回・随時対応型訪問介護看護】長野県上田市保野803-1", "url": "https://www.kaigokensaku.mhlw.go.jp/20/index.php?action_kouhyou_detail_004_kani=true&JigyosyoCd=2090300654-00&ServiceCd=760&Type=search", "url2": null }, "geometry": { "type": "Point", "coordinates": [ 138.201255, 36.373988 ] } },
{ "type": "Feature", "properties": { "内容": "24時間型ホームヘルパーステーションアザレアン【定期巡回・随時対応型訪問介護看護】長野県上田市真田町長7329－4サービス付き高齢者向け住宅アザレアン", "url": "https://www.kaigokensaku.mhlw.go.jp/20/index.php?action_kouhyou_detail_004_kani=true&JigyosyoCd=2090300142-00&ServiceCd=760&Type=search", "url2": "http://www.azarean.jp/" }, "geometry": { "type": "Point", "coordinates": [ 138.305778799999985, 36.443335 ] } },
{ "type": "Feature", "properties": { "内容": "定期巡回ケアステーション和が家【定期巡回・随時対応型訪問介護看護】長野県岡谷市山下町1-1-22和が家日和2階", "url": "https://www.kaigokensaku.mhlw.go.jp/20/index.php?action_kouhyou_detail_004_kani=true&JigyosyoCd=2090400249-00&ServiceCd=760&Type=search", "url2": "https://wagaya.co.jp/" }, "geometry": { "type": "Point", "coordinates": [ 138.0424964, 36.0653565 ] } },
{ "type": "Feature", "properties": { "内容": "定期巡回ステーションOneMade【定期巡回・随時対応型訪問介護看護】長野県飯田市八幡町2038-2", "url": "https://www.kaigokensaku.mhlw.go.jp/20/index.php?action_kouhyou_detail_004_kani=true&JigyosyoCd=2090500386-00&ServiceCd=760&Type=search", "url2": "https://www.mirai-no-kurashi.online/" }, "geometry": { "type": "Point", "coordinates": [ 137.8392182, 35.4971597 ] } },
{ "type": "Feature", "properties": { "内容": "定期巡回ステーション青空【定期巡回・随時対応型訪問介護看護】長野県飯田市鼎下山270-1", "url": "https://www.kaigokensaku.mhlw.go.jp/20/index.php?action_kouhyou_detail_004_kani=true&JigyosyoCd=2090500436-00&ServiceCd=760&Type=search", "url2": null }, "geometry": { "type": "Point", "coordinates": [ 137.839129778573607, 35.5058870801425 ] } },
{ "type": "Feature", "properties": { "内容": "定期巡回訪問介護きらら【定期巡回・随時対応型訪問介護看護】松尾城4998番地", "url": "https://www.kaigokensaku.mhlw.go.jp/20/index.php?action_kouhyou_detail_004_kani=true&JigyosyoCd=2090500535-00&ServiceCd=760&Type=search", "url2": "lovelys-teiki.com" }, "geometry": { "type": "Point", "coordinates": [ 137.8444024, 35.4902166 ] } },
{ "type": "Feature", "properties": { "内容": "パウル会　ケアステーション須坂【定期巡回・随時対応型訪問介護看護】長野県須坂市大字須坂1265-14", "url": "https://www.kaigokensaku.mhlw.go.jp/20/index.php?action_kouhyou_detail_004_kani=true&JigyosyoCd=2090700143-00&ServiceCd=760&Type=search", "url2": "https://www.newlife.or.jp/powell_kai/" }, "geometry": { "type": "Point", "coordinates": [ 138.309296188083238, 36.656137189323935 ] } },
{ "type": "Feature", "properties": { "内容": "となりのきんぎょ【定期巡回・随時対応型訪問介護看護】長野県須坂市大字豊丘2755番地", "url": "https://www.kaigokensaku.mhlw.go.jp/20/index.php?action_kouhyou_detail_004_kani=true&JigyosyoCd=2090700119-00&ServiceCd=760&Type=search", "url2": "http://www.i-nazuna.jp/kingyo/" }, "geometry": { "type": "Point", "coordinates": [ 138.3438914, 36.6370437 ] } },
{ "type": "Feature", "properties": { "内容": "定期巡回随時対応型訪問介護事業所タブノキ【定期巡回・随時対応型訪問介護看護】長野県小諸市市97番地", "url": "https://www.kaigokensaku.mhlw.go.jp/20/index.php?action_kouhyou_detail_004_kani=true&JigyosyoCd=2090800109-00&ServiceCd=760&Type=search", "url2": null }, "geometry": { "type": "Point", "coordinates": [ 138.4374903, 36.2863499 ] } },
{ "type": "Feature", "properties": { "内容": "24時間定期巡回訪問介護ゆりかご伊那【定期巡回・随時対応型訪問介護看護】長野県伊那市荒井3463‐1メディカルホームゆりかご2F", "url": "https://www.kaigokensaku.mhlw.go.jp/20/index.php?action_kouhyou_detail_004_kani=true&JigyosyoCd=2090900107-00&ServiceCd=760&Type=search", "url2": null }, "geometry": { "type": "Point", "coordinates": [ 137.958441820079315, 35.839100084758975 ] } },
{ "type": "Feature", "properties": { "内容": "24時間地域サポートステーションみよしちょう敬老園【定期巡回・随時対応型訪問介護看護】長野県中野市西一丁目6-5ハートネット信州中野1階", "url": "https://www.kaigokensaku.mhlw.go.jp/20/index.php?action_kouhyou_detail_004_kani=true&JigyosyoCd=2091100095-00&ServiceCd=760&Type=search", "url2": null }, "geometry": { "type": "Point", "coordinates": [ 138.364287517790984, 36.745740882327567 ] } },
{ "type": "Feature", "properties": { "内容": "定期巡回随時対応型事業所寿和寮【定期巡回・随時対応型訪問介護看護】長野県茅野市宮川5010-1", "url": "https://www.kaigokensaku.mhlw.go.jp/20/index.php?action_kouhyou_detail_004_kani=true&JigyosyoCd=2091400107-00&ServiceCd=760&Type=search", "url2": "http://www.heisei-kai.jp" }, "geometry": { "type": "Point", "coordinates": [ 138.162721893115247, 35.987170806609974 ] } },
{ "type": "Feature", "properties": { "内容": "24時間地域サポートステイションさくだいら敬老園【定期巡回・随時対応型訪問介護看護】長野県佐久市佐久平駅北17-4パストラルさくだいら", "url": "https://www.kaigokensaku.mhlw.go.jp/20/index.php?action_kouhyou_detail_004_kani=true&JigyosyoCd=2091700159-00&ServiceCd=760&Type=search", "url2": "p-saku@keiroen.or.jp" }, "geometry": { "type": "Point", "coordinates": [ 138.460951, 36.280634 ] } },
{ "type": "Feature", "properties": { "内容": "定期巡回随時対応型訪問介護看護【定期巡回・随時対応型訪問介護看護】長野県千曲市上山田温泉3-34-3あっとほーむ戸倉上山田温泉　　1階", "url": "https://www.kaigokensaku.mhlw.go.jp/20/index.php?action_kouhyou_detail_004_kani=true&JigyosyoCd=2091800108-00&ServiceCd=760&Type=search", "url2": null }, "geometry": { "type": "Point", "coordinates": [ 138.145970600000055, 36.4757367 ] } },
{ "type": "Feature", "properties": { "内容": "サンクスあんしんサポ【定期巡回・随時対応型訪問介護看護】長野県安曇野市穂高有明9990-1", "url": "https://www.kaigokensaku.mhlw.go.jp/20/index.php?action_kouhyou_detail_004_kani=true&JigyosyoCd=2094000359-00&ServiceCd=760&Type=search", "url2": "https://thanks-saiwainomachi.com" }, "geometry": { "type": "Point", "coordinates": [ 137.8615398, 36.345989 ] } },
{ "type": "Feature", "properties": { "内容": "愛光苑安曇野サポートセンター【定期巡回・随時対応型訪問介護看護】長野県安曇野市明科中川手147-2", "url": "https://www.kaigokensaku.mhlw.go.jp/20/index.php?action_kouhyou_detail_004_kani=true&JigyosyoCd=2094000177-00&ServiceCd=760&Type=search", "url2": "http://www.miraisai.co.jp" }, "geometry": { "type": "Point", "coordinates": [ 137.92735460489348, 36.335528392304631 ] } },
{ "type": "Feature", "properties": { "内容": "諏訪共立定期巡回ケア　えにし【定期巡回・随時対応型訪問介護看護】長野県諏訪郡下諏訪町西弥生町4928-1複合型施設　ゆいまーる　2F", "url": "https://www.kaigokensaku.mhlw.go.jp/20/index.php?action_kouhyou_detail_004_kani=true&JigyosyoCd=2092300173-00&ServiceCd=760&Type=search", "url2": "httt;//www.skhp.or.jp/" }, "geometry": { "type": "Point", "coordinates": [ 138.079142791679374, 36.073077145522966 ] } },
{ "type": "Feature", "properties": { "内容": "24時間ケアサポートふじみ【定期巡回・随時対応型訪問介護看護】長野県諏訪郡富士見町立沢815番地65", "url": "https://www.kaigokensaku.mhlw.go.jp/20/index.php?action_kouhyou_detail_004_kani=true&JigyosyoCd=2092300165-00&ServiceCd=760&Type=search", "url2": null }, "geometry": { "type": "Point", "coordinates": [ -8.24389, 53.41291 ] } }
]
}
