{
"type": "FeatureCollection",
"name": "geo_20_特定施設入居者生活介護（軽費老人ホーム）",
"crs": { "type": "name", "properties": { "name": "urn:ogc:def:crs:OGC:1.3:CRS84" } },
"features": [
{ "type": "Feature", "properties": { "内容": "ケアハウス南長野【特定施設入居者生活介護（軽費老人ホーム）】長野県長野市川中島町今井原１１－８", "url": "https://www.kaigokensaku.mhlw.go.jp/20/index.php?action_kouhyou_detail_004_kani=true&JigyosyoCd=2070102773-00&ServiceCd=332&Type=search", "url2": "http://park14.wakwak.com/~shitokukenkoukai/" }, "geometry": { "type": "Point", "coordinates": [ 138.145033, 36.5930964 ] } },
{ "type": "Feature", "properties": { "内容": "社会福祉法人てまりケアハウスメディタウンアベニュー【特定施設入居者生活介護（軽費老人ホーム）】長野県松本市高宮南6-25", "url": "https://www.kaigokensaku.mhlw.go.jp/20/index.php?action_kouhyou_detail_004_kani=true&JigyosyoCd=2070202243-00&ServiceCd=332&Type=search", "url2": "http://temari.naganoblog.jp/" }, "geometry": { "type": "Point", "coordinates": [ 137.9569702, 36.210158 ] } },
{ "type": "Feature", "properties": { "内容": "社会福祉法人てまりケアハウスメディタウン【特定施設入居者生活介護（軽費老人ホーム）】長野県松本市南松本２丁目13-12", "url": "https://www.kaigokensaku.mhlw.go.jp/20/index.php?action_kouhyou_detail_004_kani=true&JigyosyoCd=2070201195-00&ServiceCd=332&Type=search", "url2": "http://temari.naganoblog.jp/" }, "geometry": { "type": "Point", "coordinates": [ 137.968201193392929, 36.213401811100525 ] } },
{ "type": "Feature", "properties": { "内容": "ウェルシニアホーム【特定施設入居者生活介護（軽費老人ホーム）】長野県上田市古里92-3", "url": "https://www.kaigokensaku.mhlw.go.jp/20/index.php?action_kouhyou_detail_004_kani=true&JigyosyoCd=2070302209-00&ServiceCd=332&Type=search", "url2": null }, "geometry": { "type": "Point", "coordinates": [ 138.284584753442402, 36.399377786981823 ] } },
{ "type": "Feature", "properties": { "内容": "ケアハウス高尾【特定施設入居者生活介護（軽費老人ホーム）】長野県市川岸上４－３－７", "url": "https://www.kaigokensaku.mhlw.go.jp/20/index.php?action_kouhyou_detail_004_kani=true&JigyosyoCd=2070400243-00&ServiceCd=332&Type=search", "url2": "http://www.lcv.ne.jp/~ghtakao/" }, "geometry": { "type": "Point", "coordinates": [ 138.023639300000013, 36.0540488 ] } },
{ "type": "Feature", "properties": { "内容": "ケアハウスのぞみ【特定施設入居者生活介護（軽費老人ホーム）】長野県小諸市和田９６６-１５１", "url": "https://www.kaigokensaku.mhlw.go.jp/20/index.php?action_kouhyou_detail_004_kani=true&JigyosyoCd=2070800640-00&ServiceCd=332&Type=search", "url2": "https://nozomi-g.co.jp" }, "geometry": { "type": "Point", "coordinates": [ 138.461700699999938, 36.2969322 ] } },
{ "type": "Feature", "properties": { "内容": "ケアハウスあずみの里【特定施設入居者生活介護（軽費老人ホーム）】長野県安曇野市豊科高家5285-11", "url": "https://www.kaigokensaku.mhlw.go.jp/20/index.php?action_kouhyou_detail_004_kani=true&JigyosyoCd=2074000148-00&ServiceCd=332&Type=search", "url2": "http://www18.ocn.ne.jp/~azumino1/kyouritsufukushikai/index.html" }, "geometry": { "type": "Point", "coordinates": [ 137.916107799999963, 36.2474265 ] } },
{ "type": "Feature", "properties": { "内容": "ケアハウスひなたぼっこ【特定施設入居者生活介護（軽費老人ホーム）】長野県諏訪郡原村18638-1", "url": "https://www.kaigokensaku.mhlw.go.jp/20/index.php?action_kouhyou_detail_004_kani=true&JigyosyoCd=2072300755-00&ServiceCd=332&Type=search", "url2": "hinatabokko.net" }, "geometry": { "type": "Point", "coordinates": [ 138.235797545768719, 35.933605281955089 ] } },
{ "type": "Feature", "properties": { "内容": "ケアハウス絆【特定施設入居者生活介護（軽費老人ホーム）】長野県上水内郡信濃町野尻3884-259", "url": "https://www.kaigokensaku.mhlw.go.jp/20/index.php?action_kouhyou_detail_004_kani=true&JigyosyoCd=2073400893-00&ServiceCd=332&Type=search", "url2": null }, "geometry": { "type": "Point", "coordinates": [ 138.169395084560193, 36.826663958984973 ] } }
]
}
