{
"type": "FeatureCollection",
"name": "geo_20_介護老人福祉施設",
"crs": { "type": "name", "properties": { "name": "urn:ogc:def:crs:OGC:1.3:CRS84" } },
"features": [
{ "type": "Feature", "properties": { "内容": "ユニット型特別養護老人ホーム栗田の里【介護老人福祉施設】大字栗田669番地", "url": "https://www.kaigokensaku.mhlw.go.jp/20/index.php?action_kouhyou_detail_004_kani=true&JigyosyoCd=2070108010-00&ServiceCd=510&Type=search", "url2": "https://www.minamifukushi.or.jp/" }, "geometry": { "type": "Point", "coordinates": [ 138.1986875, 36.6376948 ] } },
{ "type": "Feature", "properties": { "内容": "博愛の園【介護老人福祉施設】長野県長野市浅川東条２９５番地５", "url": "https://www.kaigokensaku.mhlw.go.jp/20/index.php?action_kouhyou_detail_004_kani=true&JigyosyoCd=2070101023-00&ServiceCd=510&Type=search", "url2": "https://www.hakuaikai2000.com" }, "geometry": { "type": "Point", "coordinates": [ 138.202658700000029, 36.6804952 ] } },
{ "type": "Feature", "properties": { "内容": "特別養護老人ホーム　プリマベーラ【介護老人福祉施設】長野県長野市大字南長野新田町1106番地1", "url": "https://www.kaigokensaku.mhlw.go.jp/20/index.php?action_kouhyou_detail_004_kani=true&JigyosyoCd=2070105867-00&ServiceCd=510&Type=search", "url2": "https://www.keiqkai.jp" }, "geometry": { "type": "Point", "coordinates": [ 138.185122, 36.650462800000014 ] } },
{ "type": "Feature", "properties": { "内容": "特別養護老人ホームこうほく【介護老人福祉施設】長野県長野市稲里町下氷鉋682番地", "url": "https://www.kaigokensaku.mhlw.go.jp/20/index.php?action_kouhyou_detail_004_kani=true&JigyosyoCd=2070100553-00&ServiceCd=510&Type=search", "url2": "http://www.asahi-kouhoku.com/" }, "geometry": { "type": "Point", "coordinates": [ 138.175798699999973, 36.6076708 ] } },
{ "type": "Feature", "properties": { "内容": "グリーンヒル【介護老人福祉施設】長野県長野市篠ノ井布施五明1973番地", "url": "https://www.kaigokensaku.mhlw.go.jp/20/index.php?action_kouhyou_detail_004_kani=true&JigyosyoCd=2070100280-00&ServiceCd=510&Type=search", "url2": "http://www.valley.ne.jp/~greenhil/" }, "geometry": { "type": "Point", "coordinates": [ 138.11700129999997, 36.574075 ] } },
{ "type": "Feature", "properties": { "内容": "豊野清風園【介護老人福祉施設】長野県長野市豊野町豊野６５９－１", "url": "https://www.kaigokensaku.mhlw.go.jp/20/index.php?action_kouhyou_detail_004_kani=true&JigyosyoCd=2073400216-00&ServiceCd=510&Type=search", "url2": "https://www.san-ikukai.or.jp" }, "geometry": { "type": "Point", "coordinates": [ 138.28300749999994, 36.7111144 ] } },
{ "type": "Feature", "properties": { "内容": "富竹の里【介護老人福祉施設】長野県長野市大字富竹１６２１番地", "url": "https://www.kaigokensaku.mhlw.go.jp/20/index.php?action_kouhyou_detail_004_kani=true&JigyosyoCd=2070100538-00&ServiceCd=510&Type=search", "url2": "http://tomitake-carenet.com/" }, "geometry": { "type": "Point", "coordinates": [ 138.256571346557649, 36.672439057289509 ] } },
{ "type": "Feature", "properties": { "内容": "くめじそう【介護老人福祉施設】長野県長野市信州新町日原東2186番地1", "url": "https://www.kaigokensaku.mhlw.go.jp/20/index.php?action_kouhyou_detail_004_kani=true&JigyosyoCd=2070107681-00&ServiceCd=510&Type=search", "url2": null }, "geometry": { "type": "Point", "coordinates": [ 137.990206109856416, 36.558568616498491 ] } },
{ "type": "Feature", "properties": { "内容": "特別養護老人ホームふれあい荘【介護老人福祉施設】長野県長野市松代町西寺尾１０００番地", "url": "https://www.kaigokensaku.mhlw.go.jp/20/index.php?action_kouhyou_detail_004_kani=true&JigyosyoCd=2070100090-00&ServiceCd=510&Type=search", "url2": "https://fureaiso.shinshi-fukushi.com/" }, "geometry": { "type": "Point", "coordinates": [ 138.196447300000045, 36.5753305 ] } },
{ "type": "Feature", "properties": { "内容": "朝日ホーム【介護老人福祉施設】長野県長野市大字南堀３－１", "url": "https://www.kaigokensaku.mhlw.go.jp/20/index.php?action_kouhyou_detail_004_kani=true&JigyosyoCd=2070100561-00&ServiceCd=510&Type=search", "url2": "http://highness-life.com/" }, "geometry": { "type": "Point", "coordinates": [ 138.241687800000022, 36.6627545 ] } },
{ "type": "Feature", "properties": { "内容": "やすらぎの園【介護老人福祉施設】長野県長野市篠ノ井杵淵字新田前２１３番地４", "url": "https://www.kaigokensaku.mhlw.go.jp/20/index.php?action_kouhyou_detail_004_kani=true&JigyosyoCd=2070100504-00&ServiceCd=510&Type=search", "url2": "https://m-yasuragi.com" }, "geometry": { "type": "Point", "coordinates": [ 138.182965500000023, 36.5836567 ] } },
{ "type": "Feature", "properties": { "内容": "尚和寮【介護老人福祉施設】長野県長野市松代町東条９４－１", "url": "https://www.kaigokensaku.mhlw.go.jp/20/index.php?action_kouhyou_detail_004_kani=true&JigyosyoCd=2070101551-00&ServiceCd=510&Type=search", "url2": "http://nagano-shajikyo.or.jp/nsjk/syouwa/" }, "geometry": { "type": "Point", "coordinates": [ 138.212553500000013, 36.565994 ] } },
{ "type": "Feature", "properties": { "内容": "特別養護老人ホーム栗田の里【介護老人福祉施設】長野県長野市栗田669番地", "url": "https://www.kaigokensaku.mhlw.go.jp/20/index.php?action_kouhyou_detail_004_kani=true&JigyosyoCd=2070104357-00&ServiceCd=510&Type=search", "url2": "http://www.kuritahp.or.jp/gp/naniai.php" }, "geometry": { "type": "Point", "coordinates": [ 138.198138500344982, 36.63792284271436 ] } },
{ "type": "Feature", "properties": { "内容": "特別養護老人ホームサンビラかわなかじま【介護老人福祉施設】長野県長野市川中島町今里　６１０", "url": "https://www.kaigokensaku.mhlw.go.jp/20/index.php?action_kouhyou_detail_004_kani=true&JigyosyoCd=2070101262-00&ServiceCd=510&Type=search", "url2": "http://sunvilla.or.jp/" }, "geometry": { "type": "Point", "coordinates": [ 138.147790066270431, 36.610635093200131 ] } },
{ "type": "Feature", "properties": { "内容": "松寿荘【介護老人福祉施設】長野県長野市上野２丁目１２０番地４", "url": "https://www.kaigokensaku.mhlw.go.jp/20/index.php?action_kouhyou_detail_004_kani=true&JigyosyoCd=2070100512-00&ServiceCd=510&Type=search", "url2": null }, "geometry": { "type": "Point", "coordinates": [ 138.235016, 36.6863763 ] } },
{ "type": "Feature", "properties": { "内容": "フランセーズ悠【介護老人福祉施設】長野県長野市大字大豆島３６０－３", "url": "https://www.kaigokensaku.mhlw.go.jp/20/index.php?action_kouhyou_detail_004_kani=true&JigyosyoCd=2070100579-00&ServiceCd=510&Type=search", "url2": "http://www.hakuyukai.com" }, "geometry": { "type": "Point", "coordinates": [ 138.220398400000022, 36.6313647 ] } },
{ "type": "Feature", "properties": { "内容": "特別養護老人ホーム　大本願ユートピアわかほ【介護老人福祉施設】長野県長野市若穂綿内４４２９特別養護老人ホーム　大本願ユートピアわかほ", "url": "https://www.kaigokensaku.mhlw.go.jp/20/index.php?action_kouhyou_detail_004_kani=true&JigyosyoCd=2070100199-00&ServiceCd=510&Type=search", "url2": "https://zenkouji-dw.com" }, "geometry": { "type": "Point", "coordinates": [ 138.27729469999997, 36.6086774 ] } },
{ "type": "Feature", "properties": { "内容": "真島の里【介護老人福祉施設】長野県長野市真島町真島字中真島前沖５６３番地の2", "url": "https://www.kaigokensaku.mhlw.go.jp/20/index.php?action_kouhyou_detail_004_kani=true&JigyosyoCd=2070100546-00&ServiceCd=510&Type=search", "url2": "http://www.minamifukushi.or.jp/" }, "geometry": { "type": "Point", "coordinates": [ 138.20679191307525, 36.600620636898491 ] } },
{ "type": "Feature", "properties": { "内容": "豊岡荘【介護老人福祉施設】長野県長野市戸隠豊岡1384番地", "url": "https://www.kaigokensaku.mhlw.go.jp/20/index.php?action_kouhyou_detail_004_kani=true&JigyosyoCd=2070107863-00&ServiceCd=510&Type=search", "url2": "http://tokuyou.kowa-fukushi.or.jp/" }, "geometry": { "type": "Point", "coordinates": [ 138.089400162565653, 36.706845165802413 ] } },
{ "type": "Feature", "properties": { "内容": "特別養護老人ホーム泉平ハイツ【介護老人福祉施設】長野県長野市豊野町豊野２２９８－２", "url": "https://www.kaigokensaku.mhlw.go.jp/20/index.php?action_kouhyou_detail_004_kani=true&JigyosyoCd=2070107376-00&ServiceCd=510&Type=search", "url2": "http://nagano-swc.com/izumidaira/" }, "geometry": { "type": "Point", "coordinates": [ 138.285586287171952, 36.723266290261151 ] } },
{ "type": "Feature", "properties": { "内容": "特別養護老人ホームフランセーズ悠とみたけ【介護老人福祉施設】長野県長野市大字富竹118-1", "url": "https://www.kaigokensaku.mhlw.go.jp/20/index.php?action_kouhyou_detail_004_kani=true&JigyosyoCd=2070104993-00&ServiceCd=510&Type=search", "url2": "http://www.hakuyukai.com" }, "geometry": { "type": "Point", "coordinates": [ 138.235853919049077, 36.670970305779903 ] } },
{ "type": "Feature", "properties": { "内容": "特別養護老人ホーム若槻ホーム【介護老人福祉施設】長野県長野市田中1464-1", "url": "https://www.kaigokensaku.mhlw.go.jp/20/index.php?action_kouhyou_detail_004_kani=true&JigyosyoCd=2070101395-00&ServiceCd=510&Type=search", "url2": "http://care-net.biz/20/wakatsuki/" }, "geometry": { "type": "Point", "coordinates": [ 138.227291499999978, 36.6923586 ] } },
{ "type": "Feature", "properties": { "内容": "博仁会桜荘社会福祉総合施設【介護老人福祉施設】長野県長野市篠ノ井二ツ柳字大当1535-1", "url": "https://www.kaigokensaku.mhlw.go.jp/20/index.php?action_kouhyou_detail_004_kani=true&JigyosyoCd=2070100272-00&ServiceCd=510&Type=search", "url2": "https://hakujinkai-nagano.or.jp/" }, "geometry": { "type": "Point", "coordinates": [ 138.129033599999957, 36.5693341 ] } },
{ "type": "Feature", "properties": { "内容": "特別養護老人ホームりんごの郷【介護老人福祉施設】長野県長野市大字穂保字町裏２０７番地１", "url": "https://www.kaigokensaku.mhlw.go.jp/20/index.php?action_kouhyou_detail_004_kani=true&JigyosyoCd=2070101536-00&ServiceCd=510&Type=search", "url2": "https://www.ja-naganokai.or.jp/" }, "geometry": { "type": "Point", "coordinates": [ 138.269430883105429, 36.681605344650471 ] } },
{ "type": "Feature", "properties": { "内容": "特別養護老人ホームうつくしの里【介護老人福祉施設】長野県松本市大字里山辺藤井９１０－１", "url": "https://www.kaigokensaku.mhlw.go.jp/20/index.php?action_kouhyou_detail_004_kani=true&JigyosyoCd=2070200221-00&ServiceCd=510&Type=search", "url2": "http://www.ja-naganokai.or.jp/facilities/utsukushi/index.php" }, "geometry": { "type": "Point", "coordinates": [ 138.004216745225222, 36.243096084729842 ] } },
{ "type": "Feature", "properties": { "内容": "ゆめの里和田【介護老人福祉施設】長野県松本市大字和田２２４０-３３", "url": "https://www.kaigokensaku.mhlw.go.jp/20/index.php?action_kouhyou_detail_004_kani=true&JigyosyoCd=2070200759-00&ServiceCd=510&Type=search", "url2": "https://www.yumenosato.info" }, "geometry": { "type": "Point", "coordinates": [ 137.9158036, 36.2038908 ] } },
{ "type": "Feature", "properties": { "内容": "四賀福寿荘【介護老人福祉施設】長野県松本市刈谷原町６１３番地", "url": "https://www.kaigokensaku.mhlw.go.jp/20/index.php?action_kouhyou_detail_004_kani=true&JigyosyoCd=2072700244-00&ServiceCd=510&Type=search", "url2": "https://aoihato.com/" }, "geometry": { "type": "Point", "coordinates": [ 137.995895499999961, 36.3179738 ] } },
{ "type": "Feature", "properties": { "内容": "ちくまの【介護老人福祉施設】長野県松本市波田６９１４番地1", "url": "https://www.kaigokensaku.mhlw.go.jp/20/index.php?action_kouhyou_detail_004_kani=true&JigyosyoCd=2072700517-00&ServiceCd=510&Type=search", "url2": "http://aoihato.com" }, "geometry": { "type": "Point", "coordinates": [ 137.8673609, 36.2005974 ] } },
{ "type": "Feature", "properties": { "内容": "真寿園【介護老人福祉施設】長野県松本市寿中２－２０－１", "url": "https://www.kaigokensaku.mhlw.go.jp/20/index.php?action_kouhyou_detail_004_kani=true&JigyosyoCd=2070200213-00&ServiceCd=510&Type=search", "url2": "https://shinjyuen.net/" }, "geometry": { "type": "Point", "coordinates": [ 137.968675599999983, 36.1788929 ] } },
{ "type": "Feature", "properties": { "内容": "特別養護老人ホーム　ローズガーデン【介護老人福祉施設】長野県松本市中山6788番地38", "url": "https://www.kaigokensaku.mhlw.go.jp/20/index.php?action_kouhyou_detail_004_kani=true&JigyosyoCd=2070204314-00&ServiceCd=510&Type=search", "url2": "http://www.rosegarden-s.com/" }, "geometry": { "type": "Point", "coordinates": [ 138.006509782803363, 36.17056698386687 ] } },
{ "type": "Feature", "properties": { "内容": "やまびこの里【介護老人福祉施設】長野県松本市大字今井4820番地1", "url": "https://www.kaigokensaku.mhlw.go.jp/20/index.php?action_kouhyou_detail_004_kani=true&JigyosyoCd=2070200239-00&ServiceCd=510&Type=search", "url2": "http://aoihato.com/index.php?id=54" }, "geometry": { "type": "Point", "coordinates": [ 137.911404800000014, 36.1789466 ] } },
{ "type": "Feature", "properties": { "内容": "特別養護老人ホームぬくもりの里島立【介護老人福祉施設】長野県松本市島立２８２番地", "url": "https://www.kaigokensaku.mhlw.go.jp/20/index.php?action_kouhyou_detail_004_kani=true&JigyosyoCd=2070201856-00&ServiceCd=510&Type=search", "url2": "https://www.serita-fukushi.or.jp/facility/shimadachi" }, "geometry": { "type": "Point", "coordinates": [ 137.947778500000027, 36.2310629 ] } },
{ "type": "Feature", "properties": { "内容": "介護老人福祉施設サルビア【介護老人福祉施設】長野県松本市梓川倭3234番地15", "url": "https://www.kaigokensaku.mhlw.go.jp/20/index.php?action_kouhyou_detail_004_kani=true&JigyosyoCd=2072800531-00&ServiceCd=510&Type=search", "url2": "http://azusanosato-salvia.jp/" }, "geometry": { "type": "Point", "coordinates": [ 137.912318899999974, 36.242682500000015 ] } },
{ "type": "Feature", "properties": { "内容": "特別養護老人ホーム岡田の里【介護老人福祉施設】長野県松本市大字岡田下岡田６７７番地1", "url": "https://www.kaigokensaku.mhlw.go.jp/20/index.php?action_kouhyou_detail_004_kani=true&JigyosyoCd=2070200205-00&ServiceCd=510&Type=search", "url2": "https://aoihato.com/" }, "geometry": { "type": "Point", "coordinates": [ 137.959664699999962, 36.2631621 ] } },
{ "type": "Feature", "properties": { "内容": "ベルポートまるこ東【介護老人福祉施設】長野県上田市中丸子１８９７番地１", "url": "https://www.kaigokensaku.mhlw.go.jp/20/index.php?action_kouhyou_detail_004_kani=true&JigyosyoCd=2070301177-00&ServiceCd=510&Type=search", "url2": "http://daijukai.or.jp/" }, "geometry": { "type": "Point", "coordinates": [ 138.269184499999938, 36.3368559 ] } },
{ "type": "Feature", "properties": { "内容": "依田窪特別養護老人ホーム【介護老人福祉施設】長野県上田市下武石776-1番地", "url": "https://www.kaigokensaku.mhlw.go.jp/20/index.php?action_kouhyou_detail_004_kani=true&JigyosyoCd=2072200203-00&ServiceCd=510&Type=search", "url2": "http://www.yodakubofukushikai.jp/" }, "geometry": { "type": "Point", "coordinates": [ 138.229001299999936, 36.2860691 ] } },
{ "type": "Feature", "properties": { "内容": "アザレアンさなだ【介護老人福祉施設】長野県上田市真田町長７１４１－１", "url": "https://www.kaigokensaku.mhlw.go.jp/20/index.php?action_kouhyou_detail_004_kani=true&JigyosyoCd=2072200195-00&ServiceCd=510&Type=search", "url2": "http://www.azarean.jp/" }, "geometry": { "type": "Point", "coordinates": [ 138.305767699999933, 36.4433461 ] } },
{ "type": "Feature", "properties": { "内容": "別所温泉長寿園【介護老人福祉施設】長野県上田市別所温泉１８２８番地２", "url": "https://www.kaigokensaku.mhlw.go.jp/20/index.php?action_kouhyou_detail_004_kani=true&JigyosyoCd=2070300245-00&ServiceCd=510&Type=search", "url2": "URL.http://care-net.biz/20/chujuen/" }, "geometry": { "type": "Point", "coordinates": [ 138.158899, 36.3529822 ] } },
{ "type": "Feature", "properties": { "内容": "特別養護老人ホーム　うえだ敬老園【介護老人福祉施設】長野県上田市中央3-14-5", "url": "https://www.kaigokensaku.mhlw.go.jp/20/index.php?action_kouhyou_detail_004_kani=true&JigyosyoCd=2070300526-00&ServiceCd=510&Type=search", "url2": "http://www.keiroen.or.jp/" }, "geometry": { "type": "Point", "coordinates": [ 138.254980100000012, 36.4019782 ] } },
{ "type": "Feature", "properties": { "内容": "室賀の里【介護老人福祉施設】長野県上田市上室賀19番地", "url": "https://www.kaigokensaku.mhlw.go.jp/20/index.php?action_kouhyou_detail_004_kani=true&JigyosyoCd=2070300252-00&ServiceCd=510&Type=search", "url2": "https://shiinomikai.com/" }, "geometry": { "type": "Point", "coordinates": [ 138.15930394841007, 36.403203515982227 ] } },
{ "type": "Feature", "properties": { "内容": "特別養護老人ホームローマンうえだ【介護老人福祉施設】長野県上田市殿城250番地1", "url": "https://www.kaigokensaku.mhlw.go.jp/20/index.php?action_kouhyou_detail_004_kani=true&JigyosyoCd=2070300484-00&ServiceCd=510&Type=search", "url2": "https://www.ja-naganokai.or.jp/" }, "geometry": { "type": "Point", "coordinates": [ 138.300769723773186, 36.402663354175012 ] } },
{ "type": "Feature", "properties": { "内容": "特別養護老人ホーム神川苑【介護老人福祉施設】長野県上田市蒼久保1181-6", "url": "https://www.kaigokensaku.mhlw.go.jp/20/index.php?action_kouhyou_detail_004_kani=true&JigyosyoCd=2070302191-00&ServiceCd=510&Type=search", "url2": "http://nodoka-hidamari.com/" }, "geometry": { "type": "Point", "coordinates": [ 138.28138288836837, 36.377598813956325 ] } },
{ "type": "Feature", "properties": { "内容": "特別養護老人ホーム神川苑【介護老人福祉施設】長野県上田市蒼久保1181-6", "url": "https://www.kaigokensaku.mhlw.go.jp/20/index.php?action_kouhyou_detail_004_kani=true&JigyosyoCd=2070302183-00&ServiceCd=510&Type=search", "url2": "http://nodoka-hidamari.com/" }, "geometry": { "type": "Point", "coordinates": [ 138.280925807409687, 36.377244995219137 ] } },
{ "type": "Feature", "properties": { "内容": "ユニットケア型しものごう敬老園【介護老人福祉施設】長野県上田市下之郷463-1", "url": "https://www.kaigokensaku.mhlw.go.jp/20/index.php?action_kouhyou_detail_004_kani=true&JigyosyoCd=2070301573-00&ServiceCd=510&Type=search", "url2": "http://www.keiroen.or.jp" }, "geometry": { "type": "Point", "coordinates": [ 138.216677200000049, 36.364029 ] } },
{ "type": "Feature", "properties": { "内容": "しものごう敬老園【介護老人福祉施設】長野県上田市下之郷463-1", "url": "https://www.kaigokensaku.mhlw.go.jp/20/index.php?action_kouhyou_detail_004_kani=true&JigyosyoCd=2070301581-00&ServiceCd=510&Type=search", "url2": "http://www.keiroen.or.jp/" }, "geometry": { "type": "Point", "coordinates": [ 138.216677200000049, 36.364029 ] } },
{ "type": "Feature", "properties": { "内容": "しおがわ敬老園【介護老人福祉施設】長野県上田市塩川１００１番地", "url": "https://www.kaigokensaku.mhlw.go.jp/20/index.php?action_kouhyou_detail_004_kani=true&JigyosyoCd=2072200039-00&ServiceCd=510&Type=search", "url2": "http://www.keiroen.or.jp/" }, "geometry": { "type": "Point", "coordinates": [ 138.309871700000031, 36.3530189 ] } },
{ "type": "Feature", "properties": { "内容": "介護老人福祉施設　松風【介護老人福祉施設】長野県岡谷市内山4769-548", "url": "https://www.kaigokensaku.mhlw.go.jp/20/index.php?action_kouhyou_detail_004_kani=true&JigyosyoCd=2070400748-00&ServiceCd=510&Type=search", "url2": "www.heisei-kai.jp" }, "geometry": { "type": "Point", "coordinates": [ 138.0289993, 36.0742085 ] } },
{ "type": "Feature", "properties": { "内容": "特別養護老人ホーム洗心荘【介護老人福祉施設】長野県岡谷市長地出早二丁目6番33号", "url": "https://www.kaigokensaku.mhlw.go.jp/20/index.php?action_kouhyou_detail_004_kani=true&JigyosyoCd=2070400078-00&ServiceCd=510&Type=search", "url2": "http://yurinkai.or.jp" }, "geometry": { "type": "Point", "coordinates": [ 138.052293696295123, 36.092876591437985 ] } },
{ "type": "Feature", "properties": { "内容": "指定介護老人福祉施設さわらび【介護老人福祉施設】長野県岡谷市西山１７２３-１０１", "url": "https://www.kaigokensaku.mhlw.go.jp/20/index.php?action_kouhyou_detail_004_kani=true&JigyosyoCd=2070400219-00&ServiceCd=510&Type=search", "url2": "http://www.heisei-kai.jp/sisetu/sawarabi/" }, "geometry": { "type": "Point", "coordinates": [ 138.03496377934573, 36.079690376091371 ] } },
{ "type": "Feature", "properties": { "内容": "特別養護老人ホーム「きりしま邸苑」【介護老人福祉施設】長野県飯田市毛賀1681-10", "url": "https://www.kaigokensaku.mhlw.go.jp/20/index.php?action_kouhyou_detail_004_kani=true&JigyosyoCd=2070500844-00&ServiceCd=510&Type=search", "url2": "http://www.kizankai.or.jp/yusuikai" }, "geometry": { "type": "Point", "coordinates": [ 137.840955642327884, 35.478050648209951 ] } },
{ "type": "Feature", "properties": { "内容": "シルバーハウスゆめの郷【介護老人福祉施設】長野県飯田市松尾代田９１０－１", "url": "https://www.kaigokensaku.mhlw.go.jp/20/index.php?action_kouhyou_detail_004_kani=true&JigyosyoCd=2070501313-00&ServiceCd=510&Type=search", "url2": "http://kayagakikai-iida.jp/publics/index/19/" }, "geometry": { "type": "Point", "coordinates": [ 137.828258399999982, 35.4913196 ] } },
{ "type": "Feature", "properties": { "内容": "特別養護老人ホーム遠山荘【介護老人福祉施設】長野県飯田市南信濃和田1550", "url": "https://www.kaigokensaku.mhlw.go.jp/20/index.php?action_kouhyou_detail_004_kani=true&JigyosyoCd=2070501701-00&ServiceCd=510&Type=search", "url2": "http://www.iidashakyo.or.jp/" }, "geometry": { "type": "Point", "coordinates": [ 137.928936099999987, 35.3185355 ] } },
{ "type": "Feature", "properties": { "内容": "特別養護老人ホームかざこしの里【介護老人福祉施設】長野県飯田市三日市場２１００", "url": "https://www.kaigokensaku.mhlw.go.jp/20/index.php?action_kouhyou_detail_004_kani=true&JigyosyoCd=2070501099-00&ServiceCd=510&Type=search", "url2": "http://www.wn-sekizenkai.or.jp" }, "geometry": { "type": "Point", "coordinates": [ 137.796090199999981, 35.4866283 ] } },
{ "type": "Feature", "properties": { "内容": "特別養護老人ホーム笑みの里【介護老人福祉施設】長野県飯田市上郷別府２２３０－８", "url": "https://www.kaigokensaku.mhlw.go.jp/20/index.php?action_kouhyou_detail_004_kani=true&JigyosyoCd=2070501941-00&ServiceCd=510&Type=search", "url2": "http://www.wn-sekizenkai.or.jp" }, "geometry": { "type": "Point", "coordinates": [ 137.838928363754235, 35.515311770463235 ] } },
{ "type": "Feature", "properties": { "内容": "特別養護老人ホーム陽だまりの丘【介護老人福祉施設】長野県飯田市北方3369番地1", "url": "https://www.kaigokensaku.mhlw.go.jp/20/index.php?action_kouhyou_detail_004_kani=true&JigyosyoCd=2070501727-00&ServiceCd=510&Type=search", "url2": "http://ichiyokai-iida.jp/" }, "geometry": { "type": "Point", "coordinates": [ 137.7880649, 35.5069647 ] } },
{ "type": "Feature", "properties": { "内容": "特別養護老人ホーム飯田荘【介護老人福祉施設】長野県飯田市東栄町3137番地2", "url": "https://www.kaigokensaku.mhlw.go.jp/20/index.php?action_kouhyou_detail_004_kani=true&JigyosyoCd=2070500885-00&ServiceCd=510&Type=search", "url2": null }, "geometry": { "type": "Point", "coordinates": [ 137.837027653885457, 35.513400478755884 ] } },
{ "type": "Feature", "properties": { "内容": "特別養護老人ホーム　ゆい【介護老人福祉施設】長野県飯田市龍江７１５９番地1", "url": "https://www.kaigokensaku.mhlw.go.jp/20/index.php?action_kouhyou_detail_004_kani=true&JigyosyoCd=2070500398-00&ServiceCd=510&Type=search", "url2": "http://yuinosato-nagano.or.jp/" }, "geometry": { "type": "Point", "coordinates": [ 137.821269600000051, 35.4420892 ] } },
{ "type": "Feature", "properties": { "内容": "特別養護老人ホームやまりきの郷【介護老人福祉施設】長野県飯田市鼎下山1206番地", "url": "https://www.kaigokensaku.mhlw.go.jp/20/index.php?action_kouhyou_detail_004_kani=true&JigyosyoCd=2070502105-00&ServiceCd=510&Type=search", "url2": "http://yamarikishoujyukai.jp/" }, "geometry": { "type": "Point", "coordinates": [ 137.8340863, 35.5057236 ] } },
{ "type": "Feature", "properties": { "内容": "特別養護老人ホーム第二飯田荘【介護老人福祉施設】長野県飯田市東栄町3171-1", "url": "https://www.kaigokensaku.mhlw.go.jp/20/index.php?action_kouhyou_detail_004_kani=true&JigyosyoCd=2070500877-00&ServiceCd=510&Type=search", "url2": null }, "geometry": { "type": "Point", "coordinates": [ 137.837203600000095, 35.511942400000017 ] } },
{ "type": "Feature", "properties": { "内容": "すばらしき仲間たち【介護老人福祉施設】長野県諏訪市湖南４８９４－１", "url": "https://www.kaigokensaku.mhlw.go.jp/20/index.php?action_kouhyou_detail_004_kani=true&JigyosyoCd=2070600099-00&ServiceCd=510&Type=search", "url2": "http://www.seibonokai.com/tokuyo.html" }, "geometry": { "type": "Point", "coordinates": [ 138.099198399999977, 36.0061036 ] } },
{ "type": "Feature", "properties": { "内容": "特別養護老人ホームふくろうの森【介護老人福祉施設】長野県諏訪市四賀2398-1", "url": "https://www.kaigokensaku.mhlw.go.jp/20/index.php?action_kouhyou_detail_004_kani=true&JigyosyoCd=2070600594-00&ServiceCd=510&Type=search", "url2": "http://www.komakusa.or.jp/" }, "geometry": { "type": "Point", "coordinates": [ 138.129897532540866, 36.011166975321729 ] } },
{ "type": "Feature", "properties": { "内容": "特別養護老人ホーム須坂荘【介護老人福祉施設】長野県須坂市塩野町951番地", "url": "https://www.kaigokensaku.mhlw.go.jp/20/index.php?action_kouhyou_detail_004_kani=true&JigyosyoCd=2070700717-00&ServiceCd=510&Type=search", "url2": "http://www.greenarum.jp/" }, "geometry": { "type": "Point", "coordinates": [ 138.3344079, 36.6258482 ] } },
{ "type": "Feature", "properties": { "内容": "グリーンパルベル【介護老人福祉施設】長野県須坂市仁礼町７番地１０", "url": "https://www.kaigokensaku.mhlw.go.jp/20/index.php?action_kouhyou_detail_004_kani=true&JigyosyoCd=2070700204-00&ServiceCd=510&Type=search", "url2": "http://www.greenarum.jp/" }, "geometry": { "type": "Point", "coordinates": [ 138.338664699999981, 36.6137439 ] } },
{ "type": "Feature", "properties": { "内容": "高齢者総合福祉施設須坂やすらぎの園【介護老人福祉施設】長野県須坂市大字日滝字寺窪２８８７-１", "url": "https://www.kaigokensaku.mhlw.go.jp/20/index.php?action_kouhyou_detail_004_kani=true&JigyosyoCd=2070700055-00&ServiceCd=510&Type=search", "url2": "http://www.valley.ne.jp/~yasuragi/wellcome.html" }, "geometry": { "type": "Point", "coordinates": [ 138.328295320529122, 36.671253634308947 ] } },
{ "type": "Feature", "properties": { "内容": "特別養護老人ホーム愛灯園【介護老人福祉施設】長野県小諸市己字高峯143-1", "url": "https://www.kaigokensaku.mhlw.go.jp/20/index.php?action_kouhyou_detail_004_kani=true&JigyosyoCd=2070800111-00&ServiceCd=510&Type=search", "url2": "http://www.aitouen.org" }, "geometry": { "type": "Point", "coordinates": [ 138.448391500000071, 36.3533472 ] } },
{ "type": "Feature", "properties": { "内容": "菊の園【介護老人福祉施設】長野県小諸市大字滝原２５７－６", "url": "https://www.kaigokensaku.mhlw.go.jp/20/index.php?action_kouhyou_detail_004_kani=true&JigyosyoCd=2070800038-00&ServiceCd=510&Type=search", "url2": "http://www.kikunosono.or.jp/" }, "geometry": { "type": "Point", "coordinates": [ 138.411794500000042, 36.3505355 ] } },
{ "type": "Feature", "properties": { "内容": "特別養護老人ホームさくらの里【介護老人福祉施設】長野県伊那市高遠町勝間220番地", "url": "https://www.kaigokensaku.mhlw.go.jp/20/index.php?action_kouhyou_detail_004_kani=true&JigyosyoCd=2072400639-00&ServiceCd=510&Type=search", "url2": "https://sakura-v.or.jp/" }, "geometry": { "type": "Point", "coordinates": [ 138.06632956008005, 35.825533651652279 ] } },
{ "type": "Feature", "properties": { "内容": "特別養護老人ホームサンハート美和【介護老人福祉施設】長野県伊那市長谷非持484番地1", "url": "https://www.kaigokensaku.mhlw.go.jp/20/index.php?action_kouhyou_detail_004_kani=true&JigyosyoCd=2072400746-00&ServiceCd=510&Type=search", "url2": "http://kamifuku.jp/" }, "geometry": { "type": "Point", "coordinates": [ 138.096529700000019, 35.8215912 ] } },
{ "type": "Feature", "properties": { "内容": "特別養護老人ホームみすず四恩の家【介護老人福祉施設】長野県伊那市美篶7164番地2", "url": "https://www.kaigokensaku.mhlw.go.jp/20/index.php?action_kouhyou_detail_004_kani=true&JigyosyoCd=2070900655-00&ServiceCd=510&Type=search", "url2": "http://misuzusionnoie.com/" }, "geometry": { "type": "Point", "coordinates": [ 138.010538499999939, 35.8428216 ] } },
{ "type": "Feature", "properties": { "内容": "特別養護老人ホームみさやま【介護老人福祉施設】長野県伊那市西箕輪3900-251", "url": "https://www.kaigokensaku.mhlw.go.jp/20/index.php?action_kouhyou_detail_004_kani=true&JigyosyoCd=2070900598-00&ServiceCd=510&Type=search", "url2": "http://www.kamifuku.jp/" }, "geometry": { "type": "Point", "coordinates": [ 137.931313503010529, 35.877251873452401 ] } },
{ "type": "Feature", "properties": { "内容": "ユニット型特別養護老人ホームみさやま【介護老人福祉施設】長野県伊那市西箕輪３９００－２５１", "url": "https://www.kaigokensaku.mhlw.go.jp/20/index.php?action_kouhyou_detail_004_kani=true&JigyosyoCd=2070900606-00&ServiceCd=510&Type=search", "url2": "http://www.kamikuku.jp/" }, "geometry": { "type": "Point", "coordinates": [ 137.931297409756439, 35.877256220102751 ] } },
{ "type": "Feature", "properties": { "内容": "特別養護老人ホーム観成園【介護老人福祉施設】長野県駒ヶ根市赤穂３２１４－１", "url": "https://www.kaigokensaku.mhlw.go.jp/20/index.php?action_kouhyou_detail_004_kani=true&JigyosyoCd=2071000083-00&ServiceCd=510&Type=search", "url2": "http://inanfukushi.or.jp" }, "geometry": { "type": "Point", "coordinates": [ 137.919530500000064, 35.7356207 ] } },
{ "type": "Feature", "properties": { "内容": "特別養護老人ホームエーデルこまがね【介護老人福祉施設】長野県駒ヶ根市赤穂14421番地1", "url": "https://www.kaigokensaku.mhlw.go.jp/20/index.php?action_kouhyou_detail_004_kani=true&JigyosyoCd=2071000208-00&ServiceCd=510&Type=search", "url2": "https://care-net.biz/20/edel-komagane/" }, "geometry": { "type": "Point", "coordinates": [ 137.95070039999996, 35.7181107 ] } },
{ "type": "Feature", "properties": { "内容": "特別養護老人ホーム千寿園【介護老人福祉施設】長野県駒ヶ根市赤穂８１８０番地１２", "url": "https://www.kaigokensaku.mhlw.go.jp/20/index.php?action_kouhyou_detail_004_kani=true&JigyosyoCd=2071000067-00&ServiceCd=510&Type=search", "url2": "http://kamifuku.jp/publics/index/41" }, "geometry": { "type": "Point", "coordinates": [ 137.917300899999987, 35.7130323 ] } },
{ "type": "Feature", "properties": { "内容": "特別養護老人ホーム　高社の家【介護老人福祉施設】長野県中野市大字新井353番地", "url": "https://www.kaigokensaku.mhlw.go.jp/20/index.php?action_kouhyou_detail_004_kani=true&JigyosyoCd=2071100776-00&ServiceCd=510&Type=search", "url2": "https://miyuki-f.or.jp/about/" }, "geometry": { "type": "Point", "coordinates": [ 138.365685855069103, 36.761227836304279 ] } },
{ "type": "Feature", "properties": { "内容": "特別養護老人ホームふるさと苑【介護老人福祉施設】長野県中野市大字穴田2322番地１", "url": "https://www.kaigokensaku.mhlw.go.jp/20/index.php?action_kouhyou_detail_004_kani=true&JigyosyoCd=2073500072-00&ServiceCd=510&Type=search", "url2": "http://www.hokusin.or.jp/02work/sisetu/furusato/index.htm" }, "geometry": { "type": "Point", "coordinates": [ 138.324662699999976, 36.8005162 ] } },
{ "type": "Feature", "properties": { "内容": "従来型特別養護老人ホーム　フランセーズ悠なかの【介護老人福祉施設】長野県中野市片塩58-23", "url": "https://www.kaigokensaku.mhlw.go.jp/20/index.php?action_kouhyou_detail_004_kani=true&JigyosyoCd=2071100594-00&ServiceCd=510&Type=search", "url2": "http://www.hakuyukai.com/" }, "geometry": { "type": "Point", "coordinates": [ 138.348374599999943, 36.7452153 ] } },
{ "type": "Feature", "properties": { "内容": "ユニット型特別養護老人ホーム　　フランセーズ悠なかの【介護老人福祉施設】長野県中野市片塩58番地23", "url": "https://www.kaigokensaku.mhlw.go.jp/20/index.php?action_kouhyou_detail_004_kani=true&JigyosyoCd=2071100602-00&ServiceCd=510&Type=search", "url2": "http://www.hakuyukai.com/" }, "geometry": { "type": "Point", "coordinates": [ 138.348374599999943, 36.7452153 ] } },
{ "type": "Feature", "properties": { "内容": "特別養護老人ホームリーベおおまち【介護老人福祉施設】長野県大町市大町3504番地13", "url": "https://www.kaigokensaku.mhlw.go.jp/20/index.php?action_kouhyou_detail_004_kani=true&JigyosyoCd=2071200592-00&ServiceCd=510&Type=search", "url2": "http://www.kita-alpu.org" }, "geometry": { "type": "Point", "coordinates": [ 137.853155404893528, 36.498114284625032 ] } },
{ "type": "Feature", "properties": { "内容": "カトレヤ【介護老人福祉施設】長野県大町市平1955番地971", "url": "https://www.kaigokensaku.mhlw.go.jp/20/index.php?action_kouhyou_detail_004_kani=true&JigyosyoCd=2071200048-00&ServiceCd=510&Type=search", "url2": "http://www.syuukoukai.jp" }, "geometry": { "type": "Point", "coordinates": [ 137.804027388360595, 36.520692588928611 ] } },
{ "type": "Feature", "properties": { "内容": "特別養護老人ホーム銀松苑【介護老人福祉施設】長野県大町市常盤6850-24", "url": "https://www.kaigokensaku.mhlw.go.jp/20/index.php?action_kouhyou_detail_004_kani=true&JigyosyoCd=2071200394-00&ServiceCd=510&Type=search", "url2": "http://www.ginshoen.or.jp/tokuyo/what/" }, "geometry": { "type": "Point", "coordinates": [ 137.857405500000027, 36.476624 ] } },
{ "type": "Feature", "properties": { "内容": "老人ホームてるさと【介護老人福祉施設】長野県飯山市大字照里2000番地", "url": "https://www.kaigokensaku.mhlw.go.jp/20/index.php?action_kouhyou_detail_004_kani=true&JigyosyoCd=2071300517-00&ServiceCd=510&Type=search", "url2": "https://www.hokusin.or.jp/shisetsu/terusato/" }, "geometry": { "type": "Point", "coordinates": [ 138.3851598, 36.9077307 ] } },
{ "type": "Feature", "properties": { "内容": "茅野市特別養護老人ホームふれあいの里【介護老人福祉施設】茅野市玉川４３００番地９", "url": "https://www.kaigokensaku.mhlw.go.jp/20/index.php?action_kouhyou_detail_004_kani=true&JigyosyoCd=2071400051-00&ServiceCd=510&Type=search", "url2": "http://www.city.chino.lg.jp/ctg/14000010/14000010.html" }, "geometry": { "type": "Point", "coordinates": [ 138.177636099999972, 35.990419 ] } },
{ "type": "Feature", "properties": { "内容": "特別養護老人ホーム白駒の森【介護老人福祉施設】長野県茅野市ちの3000-1", "url": "https://www.kaigokensaku.mhlw.go.jp/20/index.php?action_kouhyou_detail_004_kani=true&JigyosyoCd=2071400473-00&ServiceCd=510&Type=search", "url2": "http://www.lcv.ne.jp/~komakusa/shirakoma01.html" }, "geometry": { "type": "Point", "coordinates": [ 138.151455, 35.9921235 ] } },
{ "type": "Feature", "properties": { "内容": "特別養護老人ホームりんどう苑【介護老人福祉施設】長野県茅野市豊平1907番地１", "url": "https://www.kaigokensaku.mhlw.go.jp/20/index.php?action_kouhyou_detail_004_kani=true&JigyosyoCd=2071400606-00&ServiceCd=510&Type=search", "url2": "http://taishikai.or.jp" }, "geometry": { "type": "Point", "coordinates": [ 138.19774689999997, 36.0182773 ] } },
{ "type": "Feature", "properties": { "内容": "諏訪中央病院組合介護老人福祉施設　ふれあいの里【介護老人福祉施設】長野県茅野市玉川４３００番地9", "url": "https://www.kaigokensaku.mhlw.go.jp/20/index.php?action_kouhyou_detail_004_kani=true&JigyosyoCd=2071400747-00&ServiceCd=510&Type=search", "url2": null }, "geometry": { "type": "Point", "coordinates": [ 138.177652699999953, 35.9904606 ] } },
{ "type": "Feature", "properties": { "内容": "ユニット型特別養護老人ホーム　グレイスフル塩尻【介護老人福祉施設】長野県塩尻市大門八番町9-10", "url": "https://www.kaigokensaku.mhlw.go.jp/20/index.php?action_kouhyou_detail_004_kani=true&JigyosyoCd=2071500884-00&ServiceCd=510&Type=search", "url2": "http://www.e-sunlife.or.jp/" }, "geometry": { "type": "Point", "coordinates": [ 137.948316200000022, 36.1135197 ] } },
{ "type": "Feature", "properties": { "内容": "特別養護老人ホームグレイスフル塩尻【介護老人福祉施設】長野県塩尻市大門八番町9-10", "url": "https://www.kaigokensaku.mhlw.go.jp/20/index.php?action_kouhyou_detail_004_kani=true&JigyosyoCd=2071500892-00&ServiceCd=510&Type=search", "url2": "https://sun-vision.or.jp/" }, "geometry": { "type": "Point", "coordinates": [ 137.948536141139243, 36.113246679602632 ] } },
{ "type": "Feature", "properties": { "内容": "特別養護老人ホームえんれい【介護老人福祉施設】長野県塩尻市大字片丘６７７８番地１", "url": "https://www.kaigokensaku.mhlw.go.jp/20/index.php?action_kouhyou_detail_004_kani=true&JigyosyoCd=2071500603-00&ServiceCd=510&Type=search", "url2": "http://www.enrei.or.jp/" }, "geometry": { "type": "Point", "coordinates": [ 137.998207099999945, 36.1525105 ] } },
{ "type": "Feature", "properties": { "内容": "桔梗荘【介護老人福祉施設】長野県塩尻市大字広丘郷原１６８３番地１", "url": "https://www.kaigokensaku.mhlw.go.jp/20/index.php?action_kouhyou_detail_004_kani=true&JigyosyoCd=2071500132-00&ServiceCd=510&Type=search", "url2": "https://aoihato.com" }, "geometry": { "type": "Point", "coordinates": [ 137.944368599999962, 36.1265152 ] } },
{ "type": "Feature", "properties": { "内容": "特別養護老人ホームさじきの里【介護老人福祉施設】長野県塩尻市桟敷525", "url": "https://www.kaigokensaku.mhlw.go.jp/20/index.php?action_kouhyou_detail_004_kani=true&JigyosyoCd=2071500991-00&ServiceCd=510&Type=search", "url2": "http://www.kyouritsu-fukushikai.com/facility/shiojiri/index5.php" }, "geometry": { "type": "Point", "coordinates": [ 137.9675981, 36.1145943 ] } },
{ "type": "Feature", "properties": { "内容": "佐久広域老人ホーム塩名田苑【介護老人福祉施設】長野県佐久市塩名田５４２番地１", "url": "https://www.kaigokensaku.mhlw.go.jp/20/index.php?action_kouhyou_detail_004_kani=true&JigyosyoCd=2072100106-00&ServiceCd=510&Type=search", "url2": "http://www.areasaku.or.jp/fukushi/index.html" }, "geometry": { "type": "Point", "coordinates": [ 138.420796099999961, 36.2700564 ] } },
{ "type": "Feature", "properties": { "内容": "特別養護老人ホームさくら苑【介護老人福祉施設】長野県佐久市下小田切50番地１", "url": "https://www.kaigokensaku.mhlw.go.jp/20/index.php?action_kouhyou_detail_004_kani=true&JigyosyoCd=2071700864-00&ServiceCd=510&Type=search", "url2": "http://www.home-sakuraen.net" }, "geometry": { "type": "Point", "coordinates": [ 138.476760099999979, 36.1908911 ] } },
{ "type": "Feature", "properties": { "内容": "佐久市特別養護老人ホームシルバーランドきしの【介護老人福祉施設】長野県佐久市根岸１１３番地１", "url": "https://www.kaigokensaku.mhlw.go.jp/20/index.php?action_kouhyou_detail_004_kani=true&JigyosyoCd=2071700872-00&ServiceCd=510&Type=search", "url2": "http://naganosaiseikai.jp/" }, "geometry": { "type": "Point", "coordinates": [ 138.428013, 36.2394212 ] } },
{ "type": "Feature", "properties": { "内容": "特別養護老人ホーム佐久平愛の郷【介護老人福祉施設】長野県佐久市平賀741", "url": "https://www.kaigokensaku.mhlw.go.jp/20/index.php?action_kouhyou_detail_004_kani=true&JigyosyoCd=2071701169-00&ServiceCd=510&Type=search", "url2": "http://www.skdf.jp/" }, "geometry": { "type": "Point", "coordinates": [ 138.492399299999988, 36.2259624 ] } },
{ "type": "Feature", "properties": { "内容": "ユニット型特別養護老人ホーム佐久平愛の郷【介護老人福祉施設】長野県佐久市平賀741", "url": "https://www.kaigokensaku.mhlw.go.jp/20/index.php?action_kouhyou_detail_004_kani=true&JigyosyoCd=2071701177-00&ServiceCd=510&Type=search", "url2": "http://www.skdf.jp/" }, "geometry": { "type": "Point", "coordinates": [ 138.492399299999988, 36.2259624 ] } },
{ "type": "Feature", "properties": { "内容": "佐久福寿園【介護老人福祉施設】長野県佐久市岩村田４２１３番地", "url": "https://www.kaigokensaku.mhlw.go.jp/20/index.php?action_kouhyou_detail_004_kani=true&JigyosyoCd=2071701540-00&ServiceCd=510&Type=search", "url2": "http://www.janis.or.jp/users/fukujuen/index.htm" }, "geometry": { "type": "Point", "coordinates": [ 138.48670130000005, 36.2738968 ] } },
{ "type": "Feature", "properties": { "内容": "特別養護老人ホーム結いの家【介護老人福祉施設】長野県佐久市望月326番地4", "url": "https://www.kaigokensaku.mhlw.go.jp/20/index.php?action_kouhyou_detail_004_kani=true&JigyosyoCd=2072100437-00&ServiceCd=510&Type=search", "url2": "http://www.yuugen-fukushikai.com" }, "geometry": { "type": "Point", "coordinates": [ 138.35720850000007, 36.2653439 ] } },
{ "type": "Feature", "properties": { "内容": "特別養護老人ホーム　うすだコスモ苑【介護老人福祉施設】長野県佐久市臼田86番地", "url": "https://www.kaigokensaku.mhlw.go.jp/20/index.php?action_kouhyou_detail_004_kani=true&JigyosyoCd=2071701615-00&ServiceCd=510&Type=search", "url2": "http;//www.ja-naganokai.or.jp" }, "geometry": { "type": "Point", "coordinates": [ 138.478884838623088, 36.195726468040156 ] } },
{ "type": "Feature", "properties": { "内容": "特別養護老人ホーム　うすだコスモ苑【介護老人福祉施設】長野県佐久市臼田86番地", "url": "https://www.kaigokensaku.mhlw.go.jp/20/index.php?action_kouhyou_detail_004_kani=true&JigyosyoCd=2071701714-00&ServiceCd=510&Type=search", "url2": "http://www.ja-naganokai.or.jp" }, "geometry": { "type": "Point", "coordinates": [ 138.478793643516582, 36.19584335388911 ] } },
{ "type": "Feature", "properties": { "内容": "佐久市特別養護老人ホームシルバーランドみつい【介護老人福祉施設】長野県佐久市新子田８６６番地", "url": "https://www.kaigokensaku.mhlw.go.jp/20/index.php?action_kouhyou_detail_004_kani=true&JigyosyoCd=2071700088-00&ServiceCd=510&Type=search", "url2": "https://www.naganosaiseikai.jp" }, "geometry": { "type": "Point", "coordinates": [ 138.505286100000035, 36.2579289 ] } },
{ "type": "Feature", "properties": { "内容": "特別養護老人ホーム吉野の里【介護老人福祉施設】長野県千曲市大字羽尾３６６番地１", "url": "https://www.kaigokensaku.mhlw.go.jp/20/index.php?action_kouhyou_detail_004_kani=true&JigyosyoCd=2073100063-00&ServiceCd=510&Type=search", "url2": null }, "geometry": { "type": "Point", "coordinates": [ 138.110122499999989, 36.4994915 ] } },
{ "type": "Feature", "properties": { "内容": "特別養護老人ホームフランセーズ悠こうしょく【介護老人福祉施設】長野県千曲市大字粟佐１１７７番地", "url": "https://www.kaigokensaku.mhlw.go.jp/20/index.php?action_kouhyou_detail_004_kani=true&JigyosyoCd=2071800698-00&ServiceCd=510&Type=search", "url2": "http://www.hakuyukai.com/" }, "geometry": { "type": "Point", "coordinates": [ 138.119491303704876, 36.539396989971003 ] } },
{ "type": "Feature", "properties": { "内容": "特別養護老人ホーム森の里【介護老人福祉施設】長野県千曲市大字森字青田1024番地3", "url": "https://www.kaigokensaku.mhlw.go.jp/20/index.php?action_kouhyou_detail_004_kani=true&JigyosyoCd=2071600098-00&ServiceCd=510&Type=search", "url2": "http://www.taishikai.or.jp/kaigo/sub01.html" }, "geometry": { "type": "Point", "coordinates": [ 138.148968369000272, 36.526818604860253 ] } },
{ "type": "Feature", "properties": { "内容": "特別養護老人ホーム　杏寿荘【介護老人福祉施設】長野県千曲市大字倉科79番地", "url": "https://www.kaigokensaku.mhlw.go.jp/20/index.php?action_kouhyou_detail_004_kani=true&JigyosyoCd=2071800839-00&ServiceCd=510&Type=search", "url2": "https://www.kyojuso.com" }, "geometry": { "type": "Point", "coordinates": [ 138.156098, 36.532456 ] } },
{ "type": "Feature", "properties": { "内容": "特別養護老人ホーム　香風園【介護老人福祉施設】長野県千曲市大字上山田２４５４", "url": "https://www.kaigokensaku.mhlw.go.jp/20/index.php?action_kouhyou_detail_004_kani=true&JigyosyoCd=2071800151-00&ServiceCd=510&Type=search", "url2": "https://www.sensyokai.jp" }, "geometry": { "type": "Point", "coordinates": [ 138.1391714, 36.4737562 ] } },
{ "type": "Feature", "properties": { "内容": "ユニット型介護老人福祉施設こころ【介護老人福祉施設】長野県東御市祢津1098-1", "url": "https://www.kaigokensaku.mhlw.go.jp/20/index.php?action_kouhyou_detail_004_kani=true&JigyosyoCd=2071900308-00&ServiceCd=510&Type=search", "url2": "http://www.chiisagata.jp" }, "geometry": { "type": "Point", "coordinates": [ 138.348881799999958, 36.367799 ] } },
{ "type": "Feature", "properties": { "内容": "介護老人福祉施設　フォーレスト【介護老人福祉施設】長野県東御市常田2-1", "url": "https://www.kaigokensaku.mhlw.go.jp/20/index.php?action_kouhyou_detail_004_kani=true&JigyosyoCd=2072200450-00&ServiceCd=510&Type=search", "url2": "http://www.chiisagata.jp/forest/index.html" }, "geometry": { "type": "Point", "coordinates": [ 138.348382099999981, 36.3592001 ] } },
{ "type": "Feature", "properties": { "内容": "ケアポートみまき【介護老人福祉施設】長野県東御市布下６－１", "url": "https://www.kaigokensaku.mhlw.go.jp/20/index.php?action_kouhyou_detail_004_kani=true&JigyosyoCd=2072100114-00&ServiceCd=510&Type=search", "url2": "http://www.cpmimaki.or.jp" }, "geometry": { "type": "Point", "coordinates": [ 138.361515300000065, 36.3355255 ] } },
{ "type": "Feature", "properties": { "内容": "孝明舘【介護老人福祉施設】長野県安曇野市明科七貴３６８１番地", "url": "https://www.kaigokensaku.mhlw.go.jp/20/index.php?action_kouhyou_detail_004_kani=true&JigyosyoCd=2072700228-00&ServiceCd=510&Type=search", "url2": "http://www.koumei.or.jp" }, "geometry": { "type": "Point", "coordinates": [ 137.903697100000045, 36.3642992 ] } },
{ "type": "Feature", "properties": { "内容": "小倉メナー【介護老人福祉施設】長野県安曇野市三郷小倉6079番1", "url": "https://www.kaigokensaku.mhlw.go.jp/20/index.php?action_kouhyou_detail_004_kani=true&JigyosyoCd=2072800234-00&ServiceCd=510&Type=search", "url2": "http://www.nanatsunokane.or.jp" }, "geometry": { "type": "Point", "coordinates": [ 137.858012, 36.2533634 ] } },
{ "type": "Feature", "properties": { "内容": "ユニット型指定介護老人福祉施設孝明豊科舘【介護老人福祉施設】長野県安曇野市豊科南穂高5771番地", "url": "https://www.kaigokensaku.mhlw.go.jp/20/index.php?action_kouhyou_detail_004_kani=true&JigyosyoCd=2074000577-00&ServiceCd=510&Type=search", "url2": "http://www.koumei.or.jp/index.html" }, "geometry": { "type": "Point", "coordinates": [ 137.909078944180266, 36.334418807748669 ] } },
{ "type": "Feature", "properties": { "内容": "特別養護老人ホーム　ライフ穂高【介護老人福祉施設】長野県安曇野市穂高6571", "url": "https://www.kaigokensaku.mhlw.go.jp/20/index.php?action_kouhyou_detail_004_kani=true&JigyosyoCd=2074001195-00&ServiceCd=510&Type=search", "url2": "https://koushu-nagano.jp/" }, "geometry": { "type": "Point", "coordinates": [ 137.8773175, 36.3368308 ] } },
{ "type": "Feature", "properties": { "内容": "特別養護老人ホーム豊岳荘【介護老人福祉施設】長野県安曇野市豊科南穂高817番地1", "url": "https://www.kaigokensaku.mhlw.go.jp/20/index.php?action_kouhyou_detail_004_kani=true&JigyosyoCd=2072800226-00&ServiceCd=510&Type=search", "url2": "http://azuminofukushi.jp/publics/index/152/" }, "geometry": { "type": "Point", "coordinates": [ 137.911706200000026, 36.3059926 ] } },
{ "type": "Feature", "properties": { "内容": "介護老人福祉施設たきべ野【介護老人福祉施設】長野県安曇野市豊科高家5090番地1", "url": "https://www.kaigokensaku.mhlw.go.jp/20/index.php?action_kouhyou_detail_004_kani=true&JigyosyoCd=2072800747-00&ServiceCd=510&Type=search", "url2": "http://takibeno.or.jp/" }, "geometry": { "type": "Point", "coordinates": [ 137.9189351, 36.2575448 ] } },
{ "type": "Feature", "properties": { "内容": "常念荘【介護老人福祉施設】長野県安曇野市堀金烏川２０４８－２", "url": "https://www.kaigokensaku.mhlw.go.jp/20/index.php?action_kouhyou_detail_004_kani=true&JigyosyoCd=2072800242-00&ServiceCd=510&Type=search", "url2": "http://www.azuminofukushi.com" }, "geometry": { "type": "Point", "coordinates": [ 137.87520029999996, 36.2998338 ] } },
{ "type": "Feature", "properties": { "内容": "特別養護老人ホームあずみの里【介護老人福祉施設】長野県安曇野市豊科高家5285-11", "url": "https://www.kaigokensaku.mhlw.go.jp/20/index.php?action_kouhyou_detail_004_kani=true&JigyosyoCd=2072800598-00&ServiceCd=510&Type=search", "url2": "http://www18.ocn.ne.jp/~azumino1/kyouritsufukushikai/index.html" }, "geometry": { "type": "Point", "coordinates": [ 137.916107799999963, 36.2474265 ] } },
{ "type": "Feature", "properties": { "内容": "指定介護老人福祉施設孝明豊科舘【介護老人福祉施設】長野県安曇野市豊科南穂高5771番地", "url": "https://www.kaigokensaku.mhlw.go.jp/20/index.php?action_kouhyou_detail_004_kani=true&JigyosyoCd=2074000569-00&ServiceCd=510&Type=search", "url2": "http://www.koumei.or.jp/index.html" }, "geometry": { "type": "Point", "coordinates": [ 137.909025299999939, 36.3340947 ] } },
{ "type": "Feature", "properties": { "内容": "特別養護老人ホームこうみの里【介護老人福祉施設】長野県南佐久郡小海町小海3130番地4", "url": "https://www.kaigokensaku.mhlw.go.jp/20/index.php?action_kouhyou_detail_004_kani=true&JigyosyoCd=2072000728-00&ServiceCd=510&Type=search", "url2": "http://www.ja-naganokai.or.jp/" }, "geometry": { "type": "Point", "coordinates": [ 138.4819731, 36.0733864 ] } },
{ "type": "Feature", "properties": { "内容": "特別養護老人ホームこうみの里【介護老人福祉施設】長野県南佐久郡小海町小海3130番地4", "url": "https://www.kaigokensaku.mhlw.go.jp/20/index.php?action_kouhyou_detail_004_kani=true&JigyosyoCd=2072000736-00&ServiceCd=510&Type=search", "url2": "http://www.ja-naganokai.or.jp/" }, "geometry": { "type": "Point", "coordinates": [ 138.482604028198807, 36.07307505505328 ] } },
{ "type": "Feature", "properties": { "内容": "特別養護老人ホームのべやま【介護老人福祉施設】長野県南佐久郡南牧村大字野辺山65-3", "url": "https://www.kaigokensaku.mhlw.go.jp/20/index.php?action_kouhyou_detail_004_kani=true&JigyosyoCd=2072000173-00&ServiceCd=510&Type=search", "url2": "http://www.ja-naganokai.or.jp/facilities/nobeyama/index.php" }, "geometry": { "type": "Point", "coordinates": [ 138.464895364417998, 35.960297247180399 ] } },
{ "type": "Feature", "properties": { "内容": "ユニット型特別養護老人ホーム　佐久穂愛の郷【介護老人福祉施設】長野県南佐久郡佐久穂町高野町303-1", "url": "https://www.kaigokensaku.mhlw.go.jp/20/index.php?action_kouhyou_detail_004_kani=true&JigyosyoCd=2072000686-00&ServiceCd=510&Type=search", "url2": "http://www.skdf.jp" }, "geometry": { "type": "Point", "coordinates": [ 138.478353884455828, 36.160981256531805 ] } },
{ "type": "Feature", "properties": { "内容": "特別養護老人ホーム　佐久穂愛の郷【介護老人福祉施設】長野県南佐久郡佐久穂町高野町303－1", "url": "https://www.kaigokensaku.mhlw.go.jp/20/index.php?action_kouhyou_detail_004_kani=true&JigyosyoCd=2072000694-00&ServiceCd=510&Type=search", "url2": "http://www.skdf.jp" }, "geometry": { "type": "Point", "coordinates": [ 138.4785470035049, 36.160782028940936 ] } },
{ "type": "Feature", "properties": { "内容": "かるいざわ敬老園【介護老人福祉施設】長野県北佐久郡軽井沢町追分１４３６", "url": "https://www.kaigokensaku.mhlw.go.jp/20/index.php?action_kouhyou_detail_004_kani=true&JigyosyoCd=2072100395-00&ServiceCd=510&Type=search", "url2": "http://www.keiroen.or.jp/" }, "geometry": { "type": "Point", "coordinates": [ 138.550457, 36.3432949 ] } },
{ "type": "Feature", "properties": { "内容": "きらく苑【介護老人福祉施設】長野県北佐久郡御代田町御代田４１０８－１３７４", "url": "https://www.kaigokensaku.mhlw.go.jp/20/index.php?action_kouhyou_detail_004_kani=true&JigyosyoCd=2072100080-00&ServiceCd=510&Type=search", "url2": "http://kirakuen.org/" }, "geometry": { "type": "Point", "coordinates": [ 138.526258360709534, 36.328532890219087 ] } },
{ "type": "Feature", "properties": { "内容": "佐久広域老人ホーム豊昇園【介護老人福祉施設】長野県北佐久郡御代田町大字豊昇１８００番地８", "url": "https://www.kaigokensaku.mhlw.go.jp/20/index.php?action_kouhyou_detail_004_kani=true&JigyosyoCd=2072100072-00&ServiceCd=510&Type=search", "url2": "ｈｏｓｙｏｅｎ＠ａｒｅａｓａｋｕ．ｏｒ．ｊｐ" }, "geometry": { "type": "Point", "coordinates": [ 138.533387700000048, 36.3023614 ] } },
{ "type": "Feature", "properties": { "内容": "介護老人福祉施設すずらん【介護老人福祉施設】長野県北佐久郡立科町芦田720-1", "url": "https://www.kaigokensaku.mhlw.go.jp/20/index.php?action_kouhyou_detail_004_kani=true&JigyosyoCd=2072100841-00&ServiceCd=510&Type=search", "url2": "http://www.hc-tateshina.jp" }, "geometry": { "type": "Point", "coordinates": [ 138.32300668286436, 36.274048709276961 ] } },
{ "type": "Feature", "properties": { "内容": "社会福祉法人大樹会　ラポートあおき【介護老人福祉施設】長野県小県郡青木村大字田沢３４０２－１", "url": "https://www.kaigokensaku.mhlw.go.jp/20/index.php?action_kouhyou_detail_004_kani=true&JigyosyoCd=2072200211-00&ServiceCd=510&Type=search", "url2": "https://www.daijukai.or.jp/" }, "geometry": { "type": "Point", "coordinates": [ 138.121176399999968, 36.3691903 ] } },
{ "type": "Feature", "properties": { "内容": "特別養護老人ホームグレイスフル下諏訪【介護老人福祉施設】長野県諏訪郡下諏訪町高木９３７５－１", "url": "https://www.kaigokensaku.mhlw.go.jp/20/index.php?action_kouhyou_detail_004_kani=true&JigyosyoCd=2072300169-00&ServiceCd=510&Type=search", "url2": "http://www.e-sunlife.or.jp/service/" }, "geometry": { "type": "Point", "coordinates": [ 138.106794700000023, 36.0672207 ] } },
{ "type": "Feature", "properties": { "内容": "ハイム天白【介護老人福祉施設】長野県諏訪郡下諏訪町５５７番地２（東町中１）", "url": "https://www.kaigokensaku.mhlw.go.jp/20/index.php?action_kouhyou_detail_004_kani=true&JigyosyoCd=2072300151-00&ServiceCd=510&Type=search", "url2": null }, "geometry": { "type": "Point", "coordinates": [ 138.0853922, 36.0812731 ] } },
{ "type": "Feature", "properties": { "内容": "特別養護老人ホーム紅林荘【介護老人福祉施設】長野県諏訪郡富士見町富士見3107番地2", "url": "https://www.kaigokensaku.mhlw.go.jp/20/index.php?action_kouhyou_detail_004_kani=true&JigyosyoCd=2072300326-00&ServiceCd=510&Type=search", "url2": "http://www.ja-naganokai.or.jp/facilities/kourin/index.php" }, "geometry": { "type": "Point", "coordinates": [ 138.228421799999978, 35.9096107 ] } },
{ "type": "Feature", "properties": { "内容": "富士見高原医療福祉センター　特別養護老人ホーム　恋月荘【介護老人福祉施設】長野県諏訪郡富士見町境8830", "url": "https://www.kaigokensaku.mhlw.go.jp/20/index.php?action_kouhyou_detail_004_kani=true&JigyosyoCd=2072300839-00&ServiceCd=510&Type=search", "url2": "http://www.fujimihp.com/" }, "geometry": { "type": "Point", "coordinates": [ 138.285523880100982, 35.890691544160937 ] } },
{ "type": "Feature", "properties": { "内容": "アイリス【介護老人福祉施設】長野県諏訪郡原村10377-2", "url": "https://www.kaigokensaku.mhlw.go.jp/20/index.php?action_kouhyou_detail_004_kani=true&JigyosyoCd=2072300177-00&ServiceCd=510&Type=search", "url2": "http://www.iriss.or.jp" }, "geometry": { "type": "Point", "coordinates": [ 138.188601046255513, 35.958775597486806 ] } },
{ "type": "Feature", "properties": { "内容": "介護老人福祉施設福寿苑【介護老人福祉施設】長野県上伊那郡辰野町大字伊那富字大原9501番地1", "url": "https://www.kaigokensaku.mhlw.go.jp/20/index.php?action_kouhyou_detail_004_kani=true&JigyosyoCd=2072401355-00&ServiceCd=510&Type=search", "url2": "http://www.heisei-kai.jp" }, "geometry": { "type": "Point", "coordinates": [ 137.972055533746357, 35.944077786535793 ] } },
{ "type": "Feature", "properties": { "内容": "特別養護老人ホームかたくりの里【介護老人福祉施設】長野県上伊那郡辰野町大字上島1766番地", "url": "https://www.kaigokensaku.mhlw.go.jp/20/index.php?action_kouhyou_detail_004_kani=true&JigyosyoCd=2072400589-00&ServiceCd=510&Type=search", "url2": "http://www.kamifuku.jp/" }, "geometry": { "type": "Point", "coordinates": [ 137.9716032, 36.0092671 ] } },
{ "type": "Feature", "properties": { "内容": "特別養護老人ホーム　グレイスフル箕輪【介護老人福祉施設】長野県上伊那郡箕輪町大字中箕輪6062", "url": "https://www.kaigokensaku.mhlw.go.jp/20/index.php?action_kouhyou_detail_004_kani=true&JigyosyoCd=2072401215-00&ServiceCd=510&Type=search", "url2": "https://sun-vision.or.jp/" }, "geometry": { "type": "Point", "coordinates": [ 137.949758240079746, 35.920258445661617 ] } },
{ "type": "Feature", "properties": { "内容": "特別養護老人ホームみのわ園【介護老人福祉施設】長野県上伊那郡箕輪町大字三日町１６６０番地３", "url": "https://www.kaigokensaku.mhlw.go.jp/20/index.php?action_kouhyou_detail_004_kani=true&JigyosyoCd=2072400225-00&ServiceCd=510&Type=search", "url2": "http://kamifuku.jp/" }, "geometry": { "type": "Point", "coordinates": [ 137.994601296403488, 35.897156551428978 ] } },
{ "type": "Feature", "properties": { "内容": "越百園【介護老人福祉施設】長野県上伊那郡飯島町七久保1338番地1", "url": "https://www.kaigokensaku.mhlw.go.jp/20/index.php?action_kouhyou_detail_004_kani=true&JigyosyoCd=2072400233-00&ServiceCd=510&Type=search", "url2": "http://kamifuku.jp" }, "geometry": { "type": "Point", "coordinates": [ 137.923336400000039, 35.6522761 ] } },
{ "type": "Feature", "properties": { "内容": "特別養護老人ホームコンソール大芝【介護老人福祉施設】長野県上伊那郡南箕輪村2380-1079", "url": "https://www.kaigokensaku.mhlw.go.jp/20/index.php?action_kouhyou_detail_004_kani=true&JigyosyoCd=2072400514-00&ServiceCd=510&Type=search", "url2": null }, "geometry": { "type": "Point", "coordinates": [ 137.953211, 35.8761702 ] } },
{ "type": "Feature", "properties": { "内容": "特別養護老人ホーム松川荘【介護老人福祉施設】長野県下伊那郡松川町元大島2965-1", "url": "https://www.kaigokensaku.mhlw.go.jp/20/index.php?action_kouhyou_detail_004_kani=true&JigyosyoCd=2072501402-00&ServiceCd=510&Type=search", "url2": "http://matsukawa-shakyo.net/survice.html#kaigo3" }, "geometry": { "type": "Point", "coordinates": [ 137.909666900000047, 35.5972306 ] } },
{ "type": "Feature", "properties": { "内容": "特別養護老人ホームあさぎりの郷【介護老人福祉施設】下伊那郡高森町吉田481-1", "url": "https://www.kaigokensaku.mhlw.go.jp/20/index.php?action_kouhyou_detail_004_kani=true&JigyosyoCd=2072500792-00&ServiceCd=510&Type=search", "url2": "http://www.ja-naganokai.or.jp/facilities/asagiri/" }, "geometry": { "type": "Point", "coordinates": [ 137.887697600000024, 35.5517637 ] } },
{ "type": "Feature", "properties": { "内容": "特別養護老人ホームあさぎりの郷【介護老人福祉施設】長野県下伊那郡高森町吉田481-1", "url": "https://www.kaigokensaku.mhlw.go.jp/20/index.php?action_kouhyou_detail_004_kani=true&JigyosyoCd=2072501667-00&ServiceCd=510&Type=search", "url2": "http：//www.ja-naganokai.or.jp" }, "geometry": { "type": "Point", "coordinates": [ 137.887899, 35.5518233 ] } },
{ "type": "Feature", "properties": { "内容": "特別養護老人ホーム阿南荘【介護老人福祉施設】下伊那郡阿南町北條２４１１", "url": "https://www.kaigokensaku.mhlw.go.jp/20/index.php?action_kouhyou_detail_004_kani=true&JigyosyoCd=2072500917-00&ServiceCd=510&Type=search", "url2": "http://business3.plala.or.jp/anansou1/" }, "geometry": { "type": "Point", "coordinates": [ 137.834278199999972, 35.3328815 ] } },
{ "type": "Feature", "properties": { "内容": "特別養護老人ホーム赤石寮【介護老人福祉施設】長野県下伊那郡阿南町新野28-4", "url": "https://www.kaigokensaku.mhlw.go.jp/20/index.php?action_kouhyou_detail_004_kani=true&JigyosyoCd=2072500198-00&ServiceCd=510&Type=search", "url2": "http://kayagakikai-anan.jp/" }, "geometry": { "type": "Point", "coordinates": [ 137.761218099999951, 35.2722532 ] } },
{ "type": "Feature", "properties": { "内容": "特別養護老人ホーム阿南荘【介護老人福祉施設】長野県下伊那郡阿南町北條４１３", "url": "https://www.kaigokensaku.mhlw.go.jp/20/index.php?action_kouhyou_detail_004_kani=true&JigyosyoCd=2072501410-00&ServiceCd=510&Type=search", "url2": "http://business3.plala.or.jp/anansou1/index.html" }, "geometry": { "type": "Point", "coordinates": [ 137.837630399999966, 35.3439385 ] } },
{ "type": "Feature", "properties": { "内容": "特別養護老人ホーム阿智荘【介護老人福祉施設】下伊那郡阿智村智里４９１地４１", "url": "https://www.kaigokensaku.mhlw.go.jp/20/index.php?action_kouhyou_detail_004_kani=true&JigyosyoCd=2072501063-00&ServiceCd=510&Type=search", "url2": null }, "geometry": { "type": "Point", "coordinates": [ 137.712559700000043, 35.4588325 ] } },
{ "type": "Feature", "properties": { "内容": "特別養護老人ホーム阿智荘【介護老人福祉施設】長野県下伊那郡阿智村智里491-41", "url": "https://www.kaigokensaku.mhlw.go.jp/20/index.php?action_kouhyou_detail_004_kani=true&JigyosyoCd=2072501394-00&ServiceCd=510&Type=search", "url2": "http://www.achi-syakyo.or.jp/" }, "geometry": { "type": "Point", "coordinates": [ 137.713756699999976, 35.459588 ] } },
{ "type": "Feature", "properties": { "内容": "特別養護老人ホーム第二光の園【介護老人福祉施設】長野県下伊那郡下條村睦沢7098番地8", "url": "https://www.kaigokensaku.mhlw.go.jp/20/index.php?action_kouhyou_detail_004_kani=true&JigyosyoCd=2072500164-00&ServiceCd=510&Type=search", "url2": "https://kayagakikai.or.jp/pages/106/" }, "geometry": { "type": "Point", "coordinates": [ 137.753272949230791, 35.393813497177675 ] } },
{ "type": "Feature", "properties": { "内容": "特別養護老人ホーム天龍荘【介護老人福祉施設】長野県下伊那郡天龍村平岡７７３番地１", "url": "https://www.kaigokensaku.mhlw.go.jp/20/index.php?action_kouhyou_detail_004_kani=true&JigyosyoCd=2072500909-00&ServiceCd=510&Type=search", "url2": "http://tenryushakyo.info/" }, "geometry": { "type": "Point", "coordinates": [ 137.859936299999958, 35.2826793 ] } },
{ "type": "Feature", "properties": { "内容": "特別養護老人ホーム　やすおか荘【介護老人福祉施設】長野県下伊那郡泰阜村7565番地3", "url": "https://www.kaigokensaku.mhlw.go.jp/20/index.php?action_kouhyou_detail_004_kani=true&JigyosyoCd=2072501568-00&ServiceCd=510&Type=search", "url2": "http://yasuokasyakyo.jp" }, "geometry": { "type": "Point", "coordinates": [ 137.84749920540844, 35.344945507174515 ] } },
{ "type": "Feature", "properties": { "内容": "特別養護老人ホーム喬木荘【介護老人福祉施設】下伊那郡喬木村３２８６番地１", "url": "https://www.kaigokensaku.mhlw.go.jp/20/index.php?action_kouhyou_detail_004_kani=true&JigyosyoCd=2072501212-00&ServiceCd=510&Type=search", "url2": null }, "geometry": { "type": "Point", "coordinates": [ 137.884036899999955, 35.5202497 ] } },
{ "type": "Feature", "properties": { "内容": "特別養護老人ホーム喬木荘【介護老人福祉施設】長野県下伊那郡喬木村阿島3286番地１", "url": "https://www.kaigokensaku.mhlw.go.jp/20/index.php?action_kouhyou_detail_004_kani=true&JigyosyoCd=2072501444-00&ServiceCd=510&Type=search", "url2": null }, "geometry": { "type": "Point", "coordinates": [ 137.87369990000002, 35.5136822 ] } },
{ "type": "Feature", "properties": { "内容": "特別養護老人ホームグレイスフル上松【介護老人福祉施設】長野県木曽郡上松町大字上松１８８－１", "url": "https://www.kaigokensaku.mhlw.go.jp/20/index.php?action_kouhyou_detail_004_kani=true&JigyosyoCd=2072600790-00&ServiceCd=510&Type=search", "url2": "http://www.sun-vision.or.jp" }, "geometry": { "type": "Point", "coordinates": [ 137.693001728836094, 35.785294377593473 ] } },
{ "type": "Feature", "properties": { "内容": "特別養護老人ホーム木曽あすなろ荘【介護老人福祉施設】長野県木曽郡南木曽町田立１５０番地１", "url": "https://www.kaigokensaku.mhlw.go.jp/20/index.php?action_kouhyou_detail_004_kani=true&JigyosyoCd=2072600220-00&ServiceCd=510&Type=search", "url2": "http://www.aoihato.jp" }, "geometry": { "type": "Point", "coordinates": [ 137.5595379, 35.5888203 ] } },
{ "type": "Feature", "properties": { "内容": "特別養護老人ホームサニーヒルきそ【介護老人福祉施設】長野県木曽郡木祖村大字藪原８４２番地２", "url": "https://www.kaigokensaku.mhlw.go.jp/20/index.php?action_kouhyou_detail_004_kani=true&JigyosyoCd=2072600238-00&ServiceCd=510&Type=search", "url2": "http://www.aoihato.com" }, "geometry": { "type": "Point", "coordinates": [ 137.784609300000056, 35.944175 ] } },
{ "type": "Feature", "properties": { "内容": "総合福祉施設開田の里【介護老人福祉施設】長野県木曽郡木曽町開田高原西野５２２７－１００", "url": "https://www.kaigokensaku.mhlw.go.jp/20/index.php?action_kouhyou_detail_004_kani=true&JigyosyoCd=2072600568-00&ServiceCd=510&Type=search", "url2": "http://kaidanosato.kisoji.kiso.nagano.jp/" }, "geometry": { "type": "Point", "coordinates": [ 137.570332900000039, 35.9430188 ] } },
{ "type": "Feature", "properties": { "内容": "なんてんの里【介護老人福祉施設】長野県木曽郡木曽町三岳１００３９番地", "url": "https://www.kaigokensaku.mhlw.go.jp/20/index.php?action_kouhyou_detail_004_kani=true&JigyosyoCd=2072600246-00&ServiceCd=510&Type=search", "url2": "http://www.aoihato.jp" }, "geometry": { "type": "Point", "coordinates": [ 137.657475400000067, 35.8256869 ] } },
{ "type": "Feature", "properties": { "内容": "特別養護老人ホームグレイスフル木曽【介護老人福祉施設】長野県木曽郡木曽町福島２７８１", "url": "https://www.kaigokensaku.mhlw.go.jp/20/index.php?action_kouhyou_detail_004_kani=true&JigyosyoCd=2072600758-00&ServiceCd=510&Type=search", "url2": "http://www.sun-vision.or.jp" }, "geometry": { "type": "Point", "coordinates": [ 137.689269299999978, 35.8392143 ] } },
{ "type": "Feature", "properties": { "内容": "サンライフおみ【介護老人福祉施設】長野県東筑摩郡麻績村麻２１１７番地１", "url": "https://www.kaigokensaku.mhlw.go.jp/20/index.php?action_kouhyou_detail_004_kani=true&JigyosyoCd=2072700251-00&ServiceCd=510&Type=search", "url2": "https://www.aoihato.jp" }, "geometry": { "type": "Point", "coordinates": [ 138.030587800000035, 36.4480253 ] } },
{ "type": "Feature", "properties": { "内容": "ピアやまがた【介護老人福祉施設】長野県東筑摩郡山形村４６９９番地１", "url": "https://www.kaigokensaku.mhlw.go.jp/20/index.php?action_kouhyou_detail_004_kani=true&JigyosyoCd=2072700269-00&ServiceCd=510&Type=search", "url2": "http://www.aoihato.com" }, "geometry": { "type": "Point", "coordinates": [ 137.891742099999988, 36.1573772 ] } },
{ "type": "Feature", "properties": { "内容": "特別養護老人ホームライフ【介護老人福祉施設】長野県北安曇郡池田町会染１４９８－１", "url": "https://www.kaigokensaku.mhlw.go.jp/20/index.php?action_kouhyou_detail_004_kani=true&JigyosyoCd=2072900125-00&ServiceCd=510&Type=search", "url2": "http://koushu-nagano.jp/" }, "geometry": { "type": "Point", "coordinates": [ 137.894497699999988, 36.4175416 ] } },
{ "type": "Feature", "properties": { "内容": "特別養護老人ホーム高瀬荘【介護老人福祉施設】長野県北安曇郡池田町大字池田1942-1", "url": "https://www.kaigokensaku.mhlw.go.jp/20/index.php?action_kouhyou_detail_004_kani=true&JigyosyoCd=2072900067-00&ServiceCd=510&Type=search", "url2": "https://takasesou.jp" }, "geometry": { "type": "Point", "coordinates": [ 137.876454599999988, 36.428523 ] } },
{ "type": "Feature", "properties": { "内容": "特別養護老人ホーム　ライフ松川【介護老人福祉施設】長野県北安曇郡松川村５６２２－３３", "url": "https://www.kaigokensaku.mhlw.go.jp/20/index.php?action_kouhyou_detail_004_kani=true&JigyosyoCd=2072900786-00&ServiceCd=510&Type=search", "url2": "http://koushu-nagano.jp/" }, "geometry": { "type": "Point", "coordinates": [ 137.865869250878859, 36.40453399432397 ] } },
{ "type": "Feature", "properties": { "内容": "特別養護老人ホーム白嶺【介護老人福祉施設】長野県北安曇郡白馬村大字神城22847-2", "url": "https://www.kaigokensaku.mhlw.go.jp/20/index.php?action_kouhyou_detail_004_kani=true&JigyosyoCd=2072900133-00&ServiceCd=510&Type=search", "url2": "https://hakurei-nagano.com" }, "geometry": { "type": "Point", "coordinates": [ 137.844824600000038, 36.6640416 ] } },
{ "type": "Feature", "properties": { "内容": "特別養護老人ホームさかき美山園【介護老人福祉施設】長野県埴科郡坂城町大字南条２７２５番地２", "url": "https://www.kaigokensaku.mhlw.go.jp/20/index.php?action_kouhyou_detail_004_kani=true&JigyosyoCd=2073100014-00&ServiceCd=510&Type=search", "url2": "www.sakakifukusikai.or.jp" }, "geometry": { "type": "Point", "coordinates": [ 138.203716500000041, 36.4372679 ] } },
{ "type": "Feature", "properties": { "内容": "特別養護老人ホームさかき美里園【介護老人福祉施設】長野県埴科郡坂城町坂城9086番地1", "url": "https://www.kaigokensaku.mhlw.go.jp/20/index.php?action_kouhyou_detail_004_kani=true&JigyosyoCd=2073100162-00&ServiceCd=510&Type=search", "url2": "http://www.sakakifukushikai.or.jp" }, "geometry": { "type": "Point", "coordinates": [ 138.191119800000024, 36.4531351 ] } },
{ "type": "Feature", "properties": { "内容": "小布施荘【介護老人福祉施設】長野県上高井郡小布施町大字小布施８５７－５", "url": "https://www.kaigokensaku.mhlw.go.jp/20/index.php?action_kouhyou_detail_004_kani=true&JigyosyoCd=2073200053-00&ServiceCd=510&Type=search", "url2": "http://www.area-nagano.jp/" }, "geometry": { "type": "Point", "coordinates": [ 138.317353799999978, 36.6894403 ] } },
{ "type": "Feature", "properties": { "内容": "特別養護老人ホーム高山おんせん朝日ホーム【介護老人福祉施設】長野県上高井郡高山村大字牧１０５番地", "url": "https://www.kaigokensaku.mhlw.go.jp/20/index.php?action_kouhyou_detail_004_kani=true&JigyosyoCd=2073200152-00&ServiceCd=510&Type=search", "url2": "http://www.dia.janis.or.jp/~asahi-t/" }, "geometry": { "type": "Point", "coordinates": [ 138.375429299999951, 36.6800038 ] } },
{ "type": "Feature", "properties": { "内容": "特別養護老人ホームいで湯の里【介護老人福祉施設】長野県下高井郡山ノ内町大字佐野７９９－２", "url": "https://www.kaigokensaku.mhlw.go.jp/20/index.php?action_kouhyou_detail_004_kani=true&JigyosyoCd=2073300069-00&ServiceCd=510&Type=search", "url2": "https://www.hokusin.or.jp/sisetsu/ideyunosato/" }, "geometry": { "type": "Point", "coordinates": [ 138.405125099999964, 36.7303796 ] } },
{ "type": "Feature", "properties": { "内容": "特別養護老人ホーム望岳荘【介護老人福祉施設】長野県下高井郡木島平村大字穂高721番地3", "url": "https://www.kaigokensaku.mhlw.go.jp/20/index.php?action_kouhyou_detail_004_kani=true&JigyosyoCd=2073300077-00&ServiceCd=510&Type=search", "url2": "https://www.hokusin.or.jp/shisetsu/bogakusou/" }, "geometry": { "type": "Point", "coordinates": [ 138.411056799999983, 36.861678 ] } },
{ "type": "Feature", "properties": { "内容": "特別養護老人ホーム菜の花苑【介護老人福祉施設】長野県下高井郡野沢温泉村大字豊郷９８６３番地１", "url": "https://www.kaigokensaku.mhlw.go.jp/20/index.php?action_kouhyou_detail_004_kani=true&JigyosyoCd=2073300085-00&ServiceCd=510&Type=search", "url2": "http://www.hokusin.or.jp/02work/sisetu/nanohana/" }, "geometry": { "type": "Point", "coordinates": [ 138.439044100000046, 36.9227965 ] } },
{ "type": "Feature", "properties": { "内容": "おらが庵【介護老人福祉施設】長野県上水内郡信濃町柏原３５０", "url": "https://www.kaigokensaku.mhlw.go.jp/20/index.php?action_kouhyou_detail_004_kani=true&JigyosyoCd=2073400232-00&ServiceCd=510&Type=search", "url2": "https://oragakai.jp/" }, "geometry": { "type": "Point", "coordinates": [ 138.204863299999943, 36.8092783 ] } },
{ "type": "Feature", "properties": { "内容": "矢筒荘【介護老人福祉施設】長野県上水内郡飯綱町大字牟礼2227", "url": "https://www.kaigokensaku.mhlw.go.jp/20/index.php?action_kouhyou_detail_004_kani=true&JigyosyoCd=2073400240-00&ServiceCd=510&Type=search", "url2": "http://www.area.-nagano.jp" }, "geometry": { "type": "Point", "coordinates": [ 138.234716899999967, 36.7484585 ] } },
{ "type": "Feature", "properties": { "内容": "特別養護老人ホームフランセーズ悠さかえ【介護老人福祉施設】長野県下水内郡栄村大字豊栄２１４０番地", "url": "https://www.kaigokensaku.mhlw.go.jp/20/index.php?action_kouhyou_detail_004_kani=true&JigyosyoCd=2073500106-00&ServiceCd=510&Type=search", "url2": "http://hakuyukai.com/sakae/index.html" }, "geometry": { "type": "Point", "coordinates": [ 138.528667899999959, 36.9841221 ] } },
{ "type": "Feature", "properties": { "内容": "特別養護老人ホーム　フランセーズ悠さかえひがし【介護老人福祉施設】長野県下水内郡栄村豊栄2140", "url": "https://www.kaigokensaku.mhlw.go.jp/20/index.php?action_kouhyou_detail_004_kani=true&JigyosyoCd=2073500130-00&ServiceCd=510&Type=search", "url2": "http://hakuyukai.com/sakae/index.html" }, "geometry": { "type": "Point", "coordinates": [ 138.528883622090149, 36.985452172956414 ] } }
]
}
