{
"type": "FeatureCollection",
"name": "geo_20_訪問看護",
"crs": { "type": "name", "properties": { "name": "urn:ogc:def:crs:OGC:1.3:CRS84" } },
"features": [
{ "type": "Feature", "properties": { "内容": "医療法人宮沢医院【訪問看護】長野市吉田２-１-２９", "url": "https://www.kaigokensaku.mhlw.go.jp/20/index.php?action_kouhyou_detail_004_kani=true&JigyosyoCd=2010117709-00&ServiceCd=130&Type=search", "url2": "http://www.miyazawaiin.com" }, "geometry": { "type": "Point", "coordinates": [ 138.218076399999973, 36.6697053 ] } },
{ "type": "Feature", "properties": { "内容": "更水医院【訪問看護】長野市信州新町新町606", "url": "https://www.kaigokensaku.mhlw.go.jp/20/index.php?action_kouhyou_detail_004_kani=true&JigyosyoCd=2010119218-00&ServiceCd=130&Type=search", "url2": "http://website.infomity.net/c0007221/" }, "geometry": { "type": "Point", "coordinates": [ 138.011949100000038, 36.5711885 ] } },
{ "type": "Feature", "properties": { "内容": "長野市国民健康保険中条診療所【訪問看護】長野市中条２６２６番地", "url": "https://www.kaigokensaku.mhlw.go.jp/20/index.php?action_kouhyou_detail_004_kani=true&JigyosyoCd=2010119226-00&ServiceCd=130&Type=search", "url2": null }, "geometry": { "type": "Point", "coordinates": [ 138.035945500000025, 36.6117825 ] } },
{ "type": "Feature", "properties": { "内容": "医療法人東口メンタルクリニック　訪問看護ステーション　カシオペア【訪問看護】長野県長野市栗田1579番地", "url": "https://www.kaigokensaku.mhlw.go.jp/20/index.php?action_kouhyou_detail_004_kani=true&JigyosyoCd=2060190457-00&ServiceCd=130&Type=search", "url2": "https://cassiopeia.hmcl.jp/" }, "geometry": { "type": "Point", "coordinates": [ 138.18815115277863, 36.639692897556593 ] } },
{ "type": "Feature", "properties": { "内容": "子どもとおとなのつむぎ訪問看護ステーション【訪問看護】長野県長野市川中島町今里87－6", "url": "https://www.kaigokensaku.mhlw.go.jp/20/index.php?action_kouhyou_detail_004_kani=true&JigyosyoCd=2060190499-00&ServiceCd=130&Type=search", "url2": null }, "geometry": { "type": "Point", "coordinates": [ 138.156126300000011, 36.6033462 ] } },
{ "type": "Feature", "properties": { "内容": "訪問看護ステーションクラリス【訪問看護】長野県長野市鶴賀362番地1202", "url": "https://www.kaigokensaku.mhlw.go.jp/20/index.php?action_kouhyou_detail_004_kani=true&JigyosyoCd=2060190549-00&ServiceCd=130&Type=search", "url2": null }, "geometry": { "type": "Point", "coordinates": [ 138.2028042, 36.6405896 ] } },
{ "type": "Feature", "properties": { "内容": "訪問看護ステーション快星【訪問看護】長野県長野市大字稲葉2036番地6", "url": "https://www.kaigokensaku.mhlw.go.jp/20/index.php?action_kouhyou_detail_004_kani=true&JigyosyoCd=2060190564-00&ServiceCd=130&Type=search", "url2": "https://kaisei-nurstar.amebaownd.com" }, "geometry": { "type": "Point", "coordinates": [ 138.2067171, 36.6360387 ] } },
{ "type": "Feature", "properties": { "内容": "看護小規模多機能城山【訪問看護】長野県長野市箱清水一丁目12番14号", "url": "https://www.kaigokensaku.mhlw.go.jp/20/index.php?action_kouhyou_detail_004_kani=true&JigyosyoCd=2060190580-00&ServiceCd=130&Type=search", "url2": "s-joyama.or.jp" }, "geometry": { "type": "Point", "coordinates": [ 138.1904286, 36.6652242 ] } },
{ "type": "Feature", "properties": { "内容": "MAMORU内科クリニック【訪問看護】長野県長野市三輪1丁目5-19電弘ビル201", "url": "https://www.kaigokensaku.mhlw.go.jp/20/index.php?action_kouhyou_detail_004_kani=true&JigyosyoCd=2015110170-00&ServiceCd=130&Type=search", "url2": "https://mamoru-clinic.jp/" }, "geometry": { "type": "Point", "coordinates": [ 138.2070104, 36.6566112 ] } },
{ "type": "Feature", "properties": { "内容": "訪問看護ステーションあやめ川中島【訪問看護】長野県長野市青木島1丁目20番地１近藤ビルⅢ3階", "url": "https://www.kaigokensaku.mhlw.go.jp/20/index.php?action_kouhyou_detail_004_kani=true&JigyosyoCd=2060190614-00&ServiceCd=130&Type=search", "url2": "https://firstnurse.co.jp/" }, "geometry": { "type": "Point", "coordinates": [ 138.1801075, 36.6176917 ] } },
{ "type": "Feature", "properties": { "内容": "長野市国民健康保険鬼無里診療所【訪問看護】長野県長野市鬼無里日影２７５０－１", "url": "https://www.kaigokensaku.mhlw.go.jp/20/index.php?action_kouhyou_detail_004_kani=true&JigyosyoCd=2010118863-00&ServiceCd=130&Type=search", "url2": null }, "geometry": { "type": "Point", "coordinates": [ 138.001421899999968, 36.6803475 ] } },
{ "type": "Feature", "properties": { "内容": "医療法人伊勢宮胃腸外科【訪問看護】長野県長野市伊勢宮１－２３－１", "url": "https://www.kaigokensaku.mhlw.go.jp/20/index.php?action_kouhyou_detail_004_kani=true&JigyosyoCd=2010118301-00&ServiceCd=130&Type=search", "url2": "http://park10.wakwak.com/~isemiyaichougeka/homonkango/index.html" }, "geometry": { "type": "Point", "coordinates": [ 138.171851100000026, 36.6316984 ] } },
{ "type": "Feature", "properties": { "内容": "訪問看護ステーションのどか【訪問看護】長野県長野市平林2丁目3-17", "url": "https://www.kaigokensaku.mhlw.go.jp/20/index.php?action_kouhyou_detail_004_kani=true&JigyosyoCd=2060190648-00&ServiceCd=130&Type=search", "url2": null }, "geometry": { "type": "Point", "coordinates": [ 138.210001799999986, 36.6545244 ] } },
{ "type": "Feature", "properties": { "内容": "訪問看護ステーションふぁむ【訪問看護】長野県長野市鶴賀問御所町1242長野中央文化ビル3F3F", "url": "https://www.kaigokensaku.mhlw.go.jp/20/index.php?action_kouhyou_detail_004_kani=true&JigyosyoCd=2060190655-00&ServiceCd=130&Type=search", "url2": "https://utagu.org/fam/" }, "geometry": { "type": "Point", "coordinates": [ 138.1880617, 36.6502011 ] } },
{ "type": "Feature", "properties": { "内容": "医心館訪問看護ステーション長野【訪問看護】長野県長野市大字稲葉916-1", "url": "https://www.kaigokensaku.mhlw.go.jp/20/index.php?action_kouhyou_detail_004_kani=true&JigyosyoCd=2060190465-00&ServiceCd=130&Type=search", "url2": null }, "geometry": { "type": "Point", "coordinates": [ 138.212198699999988, 36.6284872 ] } },
{ "type": "Feature", "properties": { "内容": "ツクイ長野訪問看護ステーション【訪問看護】長野県長野市南長野西後町1597-1長野表参道ビル６階", "url": "https://www.kaigokensaku.mhlw.go.jp/20/index.php?action_kouhyou_detail_004_kani=true&JigyosyoCd=2060190671-00&ServiceCd=130&Type=search", "url2": "https://www.tsukui.net/" }, "geometry": { "type": "Point", "coordinates": [ 138.1865082, 36.6526093 ] } },
{ "type": "Feature", "properties": { "内容": "訪問看護ステーションふくろう【訪問看護】長野県長野市川中島町御厨1177-2", "url": "https://www.kaigokensaku.mhlw.go.jp/20/index.php?action_kouhyou_detail_004_kani=true&JigyosyoCd=2060190663-00&ServiceCd=130&Type=search", "url2": null }, "geometry": { "type": "Point", "coordinates": [ 138.1612481, 36.5915644 ] } },
{ "type": "Feature", "properties": { "内容": "mal訪問看護ステーション【訪問看護】長野県長野市大字柳原1983-2１階北号室", "url": "https://www.kaigokensaku.mhlw.go.jp/20/index.php?action_kouhyou_detail_004_kani=true&JigyosyoCd=2060190689-00&ServiceCd=130&Type=search", "url2": "https://mal.nagano-hcc.com" }, "geometry": { "type": "Point", "coordinates": [ 138.257058086508152, 36.661636432065471 ] } },
{ "type": "Feature", "properties": { "内容": "戸隠介護サービスセンター訪問看護事業所【訪問看護】長野県長野市戸隠豊岡1533番地2", "url": "https://www.kaigokensaku.mhlw.go.jp/20/index.php?action_kouhyou_detail_004_kani=true&JigyosyoCd=2063490045-00&ServiceCd=130&Type=search", "url2": null }, "geometry": { "type": "Point", "coordinates": [ 138.088453557147204, 36.703043002990157 ] } },
{ "type": "Feature", "properties": { "内容": "ニチイケアセンター篠ノ井中央訪問看護ステーション【訪問看護】長野県長野市篠ノ井御幣川1157番地1", "url": "https://www.kaigokensaku.mhlw.go.jp/20/index.php?action_kouhyou_detail_004_kani=true&JigyosyoCd=2060190242-00&ServiceCd=130&Type=search", "url2": "http://www.nichiigakkan.co.jp/" }, "geometry": { "type": "Point", "coordinates": [ 138.141012297483826, 36.57486091069557 ] } },
{ "type": "Feature", "properties": { "内容": "訪問看護リハビリステーションつばさ【訪問看護】長野県長野市川合新田４１４番地１－２ハイム北岡B棟", "url": "https://www.kaigokensaku.mhlw.go.jp/20/index.php?action_kouhyou_detail_004_kani=true&JigyosyoCd=2060190416-00&ServiceCd=130&Type=search", "url2": "https://www.houmonkango-tsubasa.com/" }, "geometry": { "type": "Point", "coordinates": [ 138.209881713352956, 36.624681107172975 ] } },
{ "type": "Feature", "properties": { "内容": "訪問看護ステーションとよの【訪問看護】長野県長野市豊野町豊野６５９－１", "url": "https://www.kaigokensaku.mhlw.go.jp/20/index.php?action_kouhyou_detail_004_kani=true&JigyosyoCd=2063490011-00&ServiceCd=130&Type=search", "url2": "https://www.san-ikukai.or.jp" }, "geometry": { "type": "Point", "coordinates": [ 138.283189955819694, 36.711397700000013 ] } },
{ "type": "Feature", "properties": { "内容": "訪問看護ステーション絆【訪問看護】長野県長野市大字稲葉南俣2462-2ハイツ小島106号", "url": "https://www.kaigokensaku.mhlw.go.jp/20/index.php?action_kouhyou_detail_004_kani=true&JigyosyoCd=2060190523-00&ServiceCd=130&Type=search", "url2": "https://houkankenta0528.wixsite.com/website" }, "geometry": { "type": "Point", "coordinates": [ 138.204667699999959, 36.6380454 ] } },
{ "type": "Feature", "properties": { "内容": "訪問看護ステーションこころ【訪問看護】長野県長野市青木島町大塚１４３０－１", "url": "https://www.kaigokensaku.mhlw.go.jp/20/index.php?action_kouhyou_detail_004_kani=true&JigyosyoCd=2060190283-00&ServiceCd=130&Type=search", "url2": null }, "geometry": { "type": "Point", "coordinates": [ 138.183503299999984, 36.614398 ] } },
{ "type": "Feature", "properties": { "内容": "訪問看護ステーション　フィオーレ【訪問看護】長野市稲葉日詰1975ラックス堀内101", "url": "https://www.kaigokensaku.mhlw.go.jp/20/index.php?action_kouhyou_detail_004_kani=true&JigyosyoCd=2060190622-00&ServiceCd=130&Type=search", "url2": "www.fiore-welfare.jp" }, "geometry": { "type": "Point", "coordinates": [ 138.21265, 36.63653 ] } },
{ "type": "Feature", "properties": { "内容": "訪問看護ステーションコスモス【訪問看護】長野県長野市小島田町４４９番地", "url": "https://www.kaigokensaku.mhlw.go.jp/20/index.php?action_kouhyou_detail_004_kani=true&JigyosyoCd=2060190143-00&ServiceCd=130&Type=search", "url2": "http://www.cosmosnet.or.jp/file/houkan.html" }, "geometry": { "type": "Point", "coordinates": [ 138.180410605418388, 36.595972564423285 ] } },
{ "type": "Feature", "properties": { "内容": "訪問看護ステーションあゆみ【訪問看護】長野県長野市大字風間1100-415", "url": "https://www.kaigokensaku.mhlw.go.jp/20/index.php?action_kouhyou_detail_004_kani=true&JigyosyoCd=2060190291-00&ServiceCd=130&Type=search", "url2": "https://www.ayumi2798.jp/" }, "geometry": { "type": "Point", "coordinates": [ 138.217701499999947, 36.6340754 ] } },
{ "type": "Feature", "properties": { "内容": "むすびの森篠ノ井訪問看護ステーション【訪問看護】長野県長野市篠ノ井布施五明3428番地", "url": "https://www.kaigokensaku.mhlw.go.jp/20/index.php?action_kouhyou_detail_004_kani=true&JigyosyoCd=2060190606-00&ServiceCd=130&Type=search", "url2": "http://musubi-houmon.ikeda-kk.com/" }, "geometry": { "type": "Point", "coordinates": [ 138.1290689, 36.5791047 ] } },
{ "type": "Feature", "properties": { "内容": "アムール長野　訪問看護ステーション【訪問看護】長野県長野市大字栗田1568", "url": "https://www.kaigokensaku.mhlw.go.jp/20/index.php?action_kouhyou_detail_004_kani=true&JigyosyoCd=2060190325-00&ServiceCd=130&Type=search", "url2": "ｈｔｔｐｓ：//www.hi-danke.com" }, "geometry": { "type": "Point", "coordinates": [ 138.187349975345427, 36.638688981910242 ] } },
{ "type": "Feature", "properties": { "内容": "訪問看護ステーションあおい【訪問看護】長野県長野市川合新田370-4053階", "url": "https://www.kaigokensaku.mhlw.go.jp/20/index.php?action_kouhyou_detail_004_kani=true&JigyosyoCd=2060190572-00&ServiceCd=130&Type=search", "url2": null }, "geometry": { "type": "Point", "coordinates": [ 138.213152733192231, 36.622747302380127 ] } },
{ "type": "Feature", "properties": { "内容": "訪問看護ステーション嫩草【訪問看護】長野県長野市上野２－１１９－１", "url": "https://www.kaigokensaku.mhlw.go.jp/20/index.php?action_kouhyou_detail_004_kani=true&JigyosyoCd=2060190226-00&ServiceCd=130&Type=search", "url2": "https://houkan-wakakusa.jp/" }, "geometry": { "type": "Point", "coordinates": [ 138.232807900000012, 36.6856818 ] } },
{ "type": "Feature", "properties": { "内容": "長野赤十字訪問看護ステーション【訪問看護】長野県長野市若里5-22-1", "url": "https://www.kaigokensaku.mhlw.go.jp/20/index.php?action_kouhyou_detail_004_kani=true&JigyosyoCd=2060190051-00&ServiceCd=130&Type=search", "url2": "http://www.nagano-med.jrc.or.jp" }, "geometry": { "type": "Point", "coordinates": [ 138.190649399999984, 36.6265385 ] } },
{ "type": "Feature", "properties": { "内容": "訪問看護ステーションまつしろ【訪問看護】長野県長野市松代町松代176番地14", "url": "https://www.kaigokensaku.mhlw.go.jp/20/index.php?action_kouhyou_detail_004_kani=true&JigyosyoCd=2060190036-00&ServiceCd=130&Type=search", "url2": "http://www.nagano-matsushiro.or.jp" }, "geometry": { "type": "Point", "coordinates": [ 138.199083299999984, 36.5638736 ] } },
{ "type": "Feature", "properties": { "内容": "訪問看護ステーションながの【訪問看護】長野県長野市東鶴賀町1547-19", "url": "https://www.kaigokensaku.mhlw.go.jp/20/index.php?action_kouhyou_detail_004_kani=true&JigyosyoCd=2060190044-00&ServiceCd=130&Type=search", "url2": "http://www.healthcoop-nagano.or.jp/office/kaigo_st.html" }, "geometry": { "type": "Point", "coordinates": [ 138.196410427806597, 36.65159741385969 ] } },
{ "type": "Feature", "properties": { "内容": "アクア長野訪問看護ステーション【訪問看護】長野県長野市西和田1丁目24番16号アクアホーム長野西和田", "url": "https://www.kaigokensaku.mhlw.go.jp/20/index.php?action_kouhyou_detail_004_kani=true&JigyosyoCd=2060190697-00&ServiceCd=130&Type=search", "url2": null }, "geometry": { "type": "Point", "coordinates": [ 138.218721732161242, 36.652660635399378 ] } },
{ "type": "Feature", "properties": { "内容": "コンフォート訪問看護ステーション【訪問看護】長野県長野市大字鶴賀西鶴賀町1528岡田内科2F", "url": "https://www.kaigokensaku.mhlw.go.jp/20/index.php?action_kouhyou_detail_004_kani=true&JigyosyoCd=2060190275-00&ServiceCd=130&Type=search", "url2": "https://www.keiseikai-group.org" }, "geometry": { "type": "Point", "coordinates": [ 138.1957943584747, 36.653392362808574 ] } },
{ "type": "Feature", "properties": { "内容": "訪問看護ステーションきいろ【訪問看護】長野県長野市石渡47-5", "url": "https://www.kaigokensaku.mhlw.go.jp/20/index.php?action_kouhyou_detail_004_kani=true&JigyosyoCd=2060190507-00&ServiceCd=130&Type=search", "url2": "http://k-hinata.co.jp/houkan-kiiro/" }, "geometry": { "type": "Point", "coordinates": [ 138.242280404850987, 36.661936118243744 ] } },
{ "type": "Feature", "properties": { "内容": "訪問看護ステーション愛和【訪問看護】長野県長野市大字鶴賀1044-2", "url": "https://www.kaigokensaku.mhlw.go.jp/20/index.php?action_kouhyou_detail_004_kani=true&JigyosyoCd=2060190119-00&ServiceCd=130&Type=search", "url2": "https://aiwahp.net/" }, "geometry": { "type": "Point", "coordinates": [ 138.195267364726305, 36.646254139603073 ] } },
{ "type": "Feature", "properties": { "内容": "ケアーズ訪問看護ステーションながのの看護【訪問看護】長野県長野市大字栗田2009番地BBBビル302号室", "url": "https://www.kaigokensaku.mhlw.go.jp/20/index.php?action_kouhyou_detail_004_kani=true&JigyosyoCd=2060190309-00&ServiceCd=130&Type=search", "url2": "https://www.facebook.com/naganonokango/" }, "geometry": { "type": "Point", "coordinates": [ 138.19493650000004, 36.6416527 ] } },
{ "type": "Feature", "properties": { "内容": "みらい訪問看護ステーション【訪問看護】長野県長野市篠ノ井布施高田1009番地1ユニティービル１階", "url": "https://www.kaigokensaku.mhlw.go.jp/20/index.php?action_kouhyou_detail_004_kani=true&JigyosyoCd=2060190531-00&ServiceCd=130&Type=search", "url2": "https://mirai-createthefuture.com" }, "geometry": { "type": "Point", "coordinates": [ 138.140515099999988, 36.581532 ] } },
{ "type": "Feature", "properties": { "内容": "訪問看護かえりえ長野【訪問看護】長野県長野市高田63", "url": "https://www.kaigokensaku.mhlw.go.jp/20/index.php?action_kouhyou_detail_004_kani=true&JigyosyoCd=2060190341-00&ServiceCd=130&Type=search", "url2": "https://search.yasashiite.com/detail/homonkango_nagano/" }, "geometry": { "type": "Point", "coordinates": [ 138.211991500000039, 36.643958 ] } },
{ "type": "Feature", "properties": { "内容": "訪問看護ステーションふれあい田町【訪問看護】長野県長野市田町2099番地", "url": "https://www.kaigokensaku.mhlw.go.jp/20/index.php?action_kouhyou_detail_004_kani=true&JigyosyoCd=2060190010-00&ServiceCd=130&Type=search", "url2": "https://takeshige-hosp.com/visit-nurse" }, "geometry": { "type": "Point", "coordinates": [ 138.1969679, 36.6548459 ] } },
{ "type": "Feature", "properties": { "内容": "訪問看護ステーションパナケア【訪問看護】長野市青木島1-27-1アメニティ青波　104号室", "url": "https://www.kaigokensaku.mhlw.go.jp/20/index.php?action_kouhyou_detail_004_kani=true&JigyosyoCd=2060190705-00&ServiceCd=130&Type=search", "url2": "https://panacare-houkan.jp/" }, "geometry": { "type": "Point", "coordinates": [ 138.1773182, 36.6186283 ] } },
{ "type": "Feature", "properties": { "内容": "長野県厚生農業協同組合連合会訪問看護ステーションしののい【訪問看護】長野県長野市篠ノ井会666番地1", "url": "https://www.kaigokensaku.mhlw.go.jp/20/index.php?action_kouhyou_detail_004_kani=true&JigyosyoCd=2060190028-00&ServiceCd=130&Type=search", "url2": "http://www.shinonoi-ghp.jp/" }, "geometry": { "type": "Point", "coordinates": [ 138.149558500000012, 36.5757147 ] } },
{ "type": "Feature", "properties": { "内容": "朝日訪問看護ステーション【訪問看護】長野県長野市南堀１３５番地１", "url": "https://www.kaigokensaku.mhlw.go.jp/20/index.php?action_kouhyou_detail_004_kani=true&JigyosyoCd=2060190598-00&ServiceCd=130&Type=search", "url2": "https://www.asahi-hospital.com/" }, "geometry": { "type": "Point", "coordinates": [ 138.2415246, 36.663375 ] } },
{ "type": "Feature", "properties": { "内容": "長野市民病院訪問看護ステーション【訪問看護】長野県長野市大字富竹１３３３番地１", "url": "https://www.kaigokensaku.mhlw.go.jp/20/index.php?action_kouhyou_detail_004_kani=true&JigyosyoCd=2060190317-00&ServiceCd=130&Type=search", "url2": "http://www.hospital.nagano.nagano.jp/" }, "geometry": { "type": "Point", "coordinates": [ 138.253775899999937, 36.6690121 ] } },
{ "type": "Feature", "properties": { "内容": "訪問看護ステーションしんまち【訪問看護】長野県長野市信州新町上条137番地", "url": "https://www.kaigokensaku.mhlw.go.jp/20/index.php?action_kouhyou_detail_004_kani=true&JigyosyoCd=2063490029-00&ServiceCd=130&Type=search", "url2": "http://www.shinmachi-hsp.com" }, "geometry": { "type": "Point", "coordinates": [ 138.021345200000042, 36.5731167 ] } },
{ "type": "Feature", "properties": { "内容": "アクア松本訪問看護ステーション【訪問看護】長野県松本市里山辺104-2アクアホーム松本山辺", "url": "https://www.kaigokensaku.mhlw.go.jp/20/index.php?action_kouhyou_detail_004_kani=true&JigyosyoCd=2060290398-00&ServiceCd=130&Type=search", "url2": "https://www.aquasyuei.com/" }, "geometry": { "type": "Point", "coordinates": [ 137.9976188, 36.2478908 ] } },
{ "type": "Feature", "properties": { "内容": "アクア松本寿北訪問看護ステーション【訪問看護】長野県ん松本市寿北5丁目1番9号", "url": "https://www.kaigokensaku.mhlw.go.jp/20/index.php?action_kouhyou_detail_004_kani=true&JigyosyoCd=2060290455-00&ServiceCd=130&Type=search", "url2": "https://www.syueiaqua-kaigo-recruit.com/company/" }, "geometry": { "type": "Point", "coordinates": [ 137.980751, 36.2034124 ] } },
{ "type": "Feature", "properties": { "内容": "松本市四賀の里クリニック【訪問看護】長野県松本市会田1535-1", "url": "https://www.kaigokensaku.mhlw.go.jp/20/index.php?action_kouhyou_detail_004_kani=true&JigyosyoCd=2010218614-00&ServiceCd=130&Type=search", "url2": "https://www.city.matsumoto.nagano.jp/shisei/buka/byouin/aida_Hospital.html" }, "geometry": { "type": "Point", "coordinates": [ 137.993556, 36.348028600000035 ] } },
{ "type": "Feature", "properties": { "内容": "松本中川病院【訪問看護】長野県松本市野溝西２－３－1６", "url": "https://www.kaigokensaku.mhlw.go.jp/20/index.php?action_kouhyou_detail_004_kani=true&JigyosyoCd=2010218226-00&ServiceCd=130&Type=search", "url2": null }, "geometry": { "type": "Point", "coordinates": [ 137.954295699999989, 36.2009259 ] } },
{ "type": "Feature", "properties": { "内容": "訪問看護ステーション　デューン松本【訪問看護】長野県松本市深志2丁目8番6号OTKビル3階", "url": "https://www.kaigokensaku.mhlw.go.jp/20/index.php?action_kouhyou_detail_004_kani=true&JigyosyoCd=2060290307-00&ServiceCd=130&Type=search", "url2": "http://www.nfield.co.jp/" }, "geometry": { "type": "Point", "coordinates": [ 137.9713696, 36.2291845 ] } },
{ "type": "Feature", "properties": { "内容": "あかはね内科・神経内科医院【訪問看護】長野県松本市神林３５６１-１１", "url": "https://www.kaigokensaku.mhlw.go.jp/20/index.php?action_kouhyou_detail_004_kani=true&JigyosyoCd=2010213318-00&ServiceCd=130&Type=search", "url2": null }, "geometry": { "type": "Point", "coordinates": [ 137.923808799999961, 36.1934731 ] } },
{ "type": "Feature", "properties": { "内容": "訪問看護ステーションいま・ここ【訪問看護】長野県松本市岡田町759-2", "url": "https://www.kaigokensaku.mhlw.go.jp/20/index.php?action_kouhyou_detail_004_kani=true&JigyosyoCd=2060290505-00&ServiceCd=130&Type=search", "url2": null }, "geometry": { "type": "Point", "coordinates": [ 137.9799557, 36.2752499 ] } },
{ "type": "Feature", "properties": { "内容": "松本協立訪問看護ステーション【訪問看護】長野県松本市巾上9番26号", "url": "https://www.kaigokensaku.mhlw.go.jp/20/index.php?action_kouhyou_detail_004_kani=true&JigyosyoCd=2060290034-00&ServiceCd=130&Type=search", "url2": "HomeNursing@mkhp.chushin-miniren.gr.jp" }, "geometry": { "type": "Point", "coordinates": [ 137.963034864556903, 36.229617863014397 ] } },
{ "type": "Feature", "properties": { "内容": "訪問看護ステーションあおいそら【訪問看護】長野県松本市笹賀2975-1", "url": "https://www.kaigokensaku.mhlw.go.jp/20/index.php?action_kouhyou_detail_004_kani=true&JigyosyoCd=2060290216-00&ServiceCd=130&Type=search", "url2": null }, "geometry": { "type": "Point", "coordinates": [ 137.935358599999972, 36.178228 ] } },
{ "type": "Feature", "properties": { "内容": "訪問看護ステーションサルビア【訪問看護】梓川倭3234番地15", "url": "https://www.kaigokensaku.mhlw.go.jp/20/index.php?action_kouhyou_detail_004_kani=true&JigyosyoCd=2060290489-00&ServiceCd=130&Type=search", "url2": "https://azusanosato.or.jp" }, "geometry": { "type": "Point", "coordinates": [ 137.9123189, 36.2426825 ] } },
{ "type": "Feature", "properties": { "内容": "訪問看護ステーションあず【訪問看護】長野県松本市梓川倭2689-10", "url": "https://www.kaigokensaku.mhlw.go.jp/20/index.php?action_kouhyou_detail_004_kani=true&JigyosyoCd=2060290208-00&ServiceCd=130&Type=search", "url2": null }, "geometry": { "type": "Point", "coordinates": [ 137.901662200000032, 36.2390548 ] } },
{ "type": "Feature", "properties": { "内容": "訪問看護ステーション　ほっと・はあと【訪問看護】長野県松本市県2-3-17むつみの郷あがた　2F", "url": "https://www.kaigokensaku.mhlw.go.jp/20/index.php?action_kouhyou_detail_004_kani=true&JigyosyoCd=2060290299-00&ServiceCd=130&Type=search", "url2": "http://hot-h.net/" }, "geometry": { "type": "Point", "coordinates": [ 137.986149384022497, 36.234270140908414 ] } },
{ "type": "Feature", "properties": { "内容": "社会福祉法人てまり　訪問看護ほっとステーション【訪問看護】長野県松本市小屋北1-16-33", "url": "https://www.kaigokensaku.mhlw.go.jp/20/index.php?action_kouhyou_detail_004_kani=true&JigyosyoCd=2060290315-00&ServiceCd=130&Type=search", "url2": "http://temari.naganoblog.jp/" }, "geometry": { "type": "Point", "coordinates": [ 137.958273730619084, 36.186279863032169 ] } },
{ "type": "Feature", "properties": { "内容": "訪問看護ステーション　あけみ野【訪問看護】長野県松本市浅間温泉1-24-8", "url": "https://www.kaigokensaku.mhlw.go.jp/20/index.php?action_kouhyou_detail_004_kani=true&JigyosyoCd=2060290240-00&ServiceCd=130&Type=search", "url2": "https://okusuri-honpo.jp/" }, "geometry": { "type": "Point", "coordinates": [ 137.986937200000057, 36.2607245 ] } },
{ "type": "Feature", "properties": { "内容": "なべりん訪問看護あいステーション【訪問看護】長野県松本市双葉8番10号", "url": "https://www.kaigokensaku.mhlw.go.jp/20/index.php?action_kouhyou_detail_004_kani=true&JigyosyoCd=2060290281-00&ServiceCd=130&Type=search", "url2": "http://www.ainabelin.com" }, "geometry": { "type": "Point", "coordinates": [ 137.964663800000039, 36.211372 ] } },
{ "type": "Feature", "properties": { "内容": "アイケア訪問看護ステーション【訪問看護】長野県松本市岡田松岡506-1コーポ大木301", "url": "https://www.kaigokensaku.mhlw.go.jp/20/index.php?action_kouhyou_detail_004_kani=true&JigyosyoCd=2060290380-00&ServiceCd=130&Type=search", "url2": "https://aikea1102.amebaownd.com/" }, "geometry": { "type": "Point", "coordinates": [ 137.9723366, 36.2646966 ] } },
{ "type": "Feature", "properties": { "内容": "訪問看護ステーション　ケアラビット【訪問看護】長野県松本市出川町１８－１５寺田アパート1F", "url": "https://www.kaigokensaku.mhlw.go.jp/20/index.php?action_kouhyou_detail_004_kani=true&JigyosyoCd=2060290349-00&ServiceCd=130&Type=search", "url2": "https://carerabbit.co.jp/" }, "geometry": { "type": "Point", "coordinates": [ 137.970225964418006, 36.207695706085488 ] } },
{ "type": "Feature", "properties": { "内容": "丸の内訪問看護ステーション【訪問看護】長野県松本市島立674-1", "url": "https://www.kaigokensaku.mhlw.go.jp/20/index.php?action_kouhyou_detail_004_kani=true&JigyosyoCd=2060290067-00&ServiceCd=130&Type=search", "url2": "http://www.marunouchi.or.jp/care/c_care/care01.htm" }, "geometry": { "type": "Point", "coordinates": [ 137.952404853029975, 36.23629276603927 ] } },
{ "type": "Feature", "properties": { "内容": "公益社団法人長野県看護協会南松本訪問看護ステーション【訪問看護】長野県松本市双葉4-16松本市総合社会福祉ｾﾝﾀｰ内4階", "url": "https://www.kaigokensaku.mhlw.go.jp/20/index.php?action_kouhyou_detail_004_kani=true&JigyosyoCd=2060290075-00&ServiceCd=130&Type=search", "url2": null }, "geometry": { "type": "Point", "coordinates": [ 137.967366, 36.2078258 ] } },
{ "type": "Feature", "properties": { "内容": "一之瀬訪問看護ステーション【訪問看護】長野県松本市島立2100-2", "url": "https://www.kaigokensaku.mhlw.go.jp/20/index.php?action_kouhyou_detail_004_kani=true&JigyosyoCd=2060290174-00&ServiceCd=130&Type=search", "url2": "https://inh.or.jp/care/home-nursing.html" }, "geometry": { "type": "Point", "coordinates": [ 137.937522088793941, 36.229674688174782 ] } },
{ "type": "Feature", "properties": { "内容": "藤森訪問看護ステーション【訪問看護】長野県松本市中央３－２－７在宅支援センター　ふじの花", "url": "https://www.kaigokensaku.mhlw.go.jp/20/index.php?action_kouhyou_detail_004_kani=true&JigyosyoCd=2060290091-00&ServiceCd=130&Type=search", "url2": "http://www.fujimori-hosp.jp/" }, "geometry": { "type": "Point", "coordinates": [ 137.9718593, 36.2333276 ] } },
{ "type": "Feature", "properties": { "内容": "ゆめの里和田訪問看護ステーション【訪問看護】長野県松本市大字和田２２４０－３３", "url": "https://www.kaigokensaku.mhlw.go.jp/20/index.php?action_kouhyou_detail_004_kani=true&JigyosyoCd=2060290117-00&ServiceCd=130&Type=search", "url2": "https://www.yumenosato.info" }, "geometry": { "type": "Point", "coordinates": [ 137.9158036, 36.2038908 ] } },
{ "type": "Feature", "properties": { "内容": "松本市立病院訪問看護ステーション【訪問看護】長野県松本市波田4417－180", "url": "https://www.kaigokensaku.mhlw.go.jp/20/index.php?action_kouhyou_detail_004_kani=true&JigyosyoCd=2060290182-00&ServiceCd=130&Type=search", "url2": "www.mt-hsp.jp" }, "geometry": { "type": "Point", "coordinates": [ 137.855367217266121, 36.19955593064369 ] } },
{ "type": "Feature", "properties": { "内容": "エミナス訪問看護ステーション【訪問看護】長野県松本市笹賀５３０１－１", "url": "https://www.kaigokensaku.mhlw.go.jp/20/index.php?action_kouhyou_detail_004_kani=true&JigyosyoCd=2060290364-00&ServiceCd=130&Type=search", "url2": "https://orange-nurse.com/eminas/" }, "geometry": { "type": "Point", "coordinates": [ 137.941792681614658, 36.194903538040194 ] } },
{ "type": "Feature", "properties": { "内容": "訪問看護ステーション安寧【訪問看護】長野県松本市横田３丁目19番7号横田貸家西棟", "url": "https://www.kaigokensaku.mhlw.go.jp/20/index.php?action_kouhyou_detail_004_kani=true&JigyosyoCd=2060290422-00&ServiceCd=130&Type=search", "url2": null }, "geometry": { "type": "Point", "coordinates": [ 137.986994, 36.2453379 ] } },
{ "type": "Feature", "properties": { "内容": "医療法人心泉会ローズガーデン訪問看護ステーション【訪問看護】長野県松本市村井町西2-16-1", "url": "https://www.kaigokensaku.mhlw.go.jp/20/index.php?action_kouhyou_detail_004_kani=true&JigyosyoCd=2060290042-00&ServiceCd=130&Type=search", "url2": "http://www.kamijyomhp.or.jp/kaigo/zaitaku.html" }, "geometry": { "type": "Point", "coordinates": [ 137.947433, 36.1724485 ] } },
{ "type": "Feature", "properties": { "内容": "かいごくらーくまつもと【訪問看護】長野県松本市島内3452番地15", "url": "https://www.kaigokensaku.mhlw.go.jp/20/index.php?action_kouhyou_detail_004_kani=true&JigyosyoCd=2060290471-00&ServiceCd=130&Type=search", "url2": null }, "geometry": { "type": "Point", "coordinates": [ 137.9460019, 36.2408094 ] } },
{ "type": "Feature", "properties": { "内容": "相澤訪問看護ステーションひまわり【訪問看護】長野県松本市本庄2-10-21", "url": "https://www.kaigokensaku.mhlw.go.jp/20/index.php?action_kouhyou_detail_004_kani=true&JigyosyoCd=2060290059-00&ServiceCd=130&Type=search", "url2": "http://www.ai-hosp.or.jp/shinryo/a_center_2.html" }, "geometry": { "type": "Point", "coordinates": [ 137.9752629460327, 36.227494777325454 ] } },
{ "type": "Feature", "properties": { "内容": "松本西訪問看護ステーション【訪問看護】長野県松本市城西１-９-２", "url": "https://www.kaigokensaku.mhlw.go.jp/20/index.php?action_kouhyou_detail_004_kani=true&JigyosyoCd=2060290018-00&ServiceCd=130&Type=search", "url2": "http://www.shironishi.or.jp/sh/care/" }, "geometry": { "type": "Point", "coordinates": [ 137.961763, 36.2396512 ] } },
{ "type": "Feature", "properties": { "内容": "訪問看護ステーションメロディー【訪問看護】長野県松本市大字笹賀3972-1", "url": "https://www.kaigokensaku.mhlw.go.jp/20/index.php?action_kouhyou_detail_004_kani=true&JigyosyoCd=2060290133-00&ServiceCd=130&Type=search", "url2": "https://www.hijiri-kai.or.jp" }, "geometry": { "type": "Point", "coordinates": [ 137.932846911361707, 36.179958564847198 ] } },
{ "type": "Feature", "properties": { "内容": "訪問看護ステーションあやめ松本【訪問看護】長野県松本市宮田7-2ブレインマンション宮田102", "url": "https://www.kaigokensaku.mhlw.go.jp/20/index.php?action_kouhyou_detail_004_kani=true&JigyosyoCd=2060290497-00&ServiceCd=130&Type=search", "url2": "https://firstnurse.co.jp/" }, "geometry": { "type": "Point", "coordinates": [ 137.960853500000013, 36.2055995 ] } },
{ "type": "Feature", "properties": { "内容": "ことのは訪問看護ステーション【訪問看護】長野県松本市蟻ケ崎五丁目1-3２F", "url": "https://www.kaigokensaku.mhlw.go.jp/20/index.php?action_kouhyou_detail_004_kani=true&JigyosyoCd=2060290513-00&ServiceCd=130&Type=search", "url2": null }, "geometry": { "type": "Point", "coordinates": [ 137.964271, 36.2494349 ] } },
{ "type": "Feature", "properties": { "内容": "峠茶屋訪問看護ステーション【訪問看護】長野県松本市刈谷原町533-1", "url": "https://www.kaigokensaku.mhlw.go.jp/20/index.php?action_kouhyou_detail_004_kani=true&JigyosyoCd=2060290257-00&ServiceCd=130&Type=search", "url2": "http://www.touge.or.jp" }, "geometry": { "type": "Point", "coordinates": [ 137.99187802071026, 36.317554201893834 ] } },
{ "type": "Feature", "properties": { "内容": "訪問看護ステーションとんび　松本【訪問看護】長野県松本市水汲166-4-102", "url": "https://www.kaigokensaku.mhlw.go.jp/20/index.php?action_kouhyou_detail_004_kani=true&JigyosyoCd=2060290430-00&ServiceCd=130&Type=search", "url2": "https://ums-gr.jp/" }, "geometry": { "type": "Point", "coordinates": [ 137.9828434, 36.2605788 ] } },
{ "type": "Feature", "properties": { "内容": "ツクイ松本西訪問看護ステーション【訪問看護】長野県松本市双葉10-22　双葉町ビルB棟310号室", "url": "https://www.kaigokensaku.mhlw.go.jp/20/index.php?action_kouhyou_detail_004_kani=true&JigyosyoCd=2060290356-00&ServiceCd=130&Type=search", "url2": null }, "geometry": { "type": "Point", "coordinates": [ 137.963938432795487, 36.209060170463054 ] } },
{ "type": "Feature", "properties": { "内容": "訪問看護ｽﾃｰｼｮﾝﾎﾟﾌﾟﾗ【訪問看護】長野県上田市中央東4-61", "url": "https://www.kaigokensaku.mhlw.go.jp/20/index.php?action_kouhyou_detail_004_kani=true&JigyosyoCd=2060390131-00&ServiceCd=130&Type=search", "url2": "http://tikumaso.jp" }, "geometry": { "type": "Point", "coordinates": [ 138.266220699999963, 36.4028004 ] } },
{ "type": "Feature", "properties": { "内容": "訪問看護ステーションあやめ上田【訪問看護】長野県上田市中之条307-1かどやリースビル202号室", "url": "https://www.kaigokensaku.mhlw.go.jp/20/index.php?action_kouhyou_detail_004_kani=true&JigyosyoCd=2060390180-00&ServiceCd=130&Type=search", "url2": "https://firstnurse.co.jp/" }, "geometry": { "type": "Point", "coordinates": [ 138.2308932, 36.3964828 ] } },
{ "type": "Feature", "properties": { "内容": "きらり在宅診療所【訪問看護】長野県上田市天神2-1-22OAUビル5F-B", "url": "https://www.kaigokensaku.mhlw.go.jp/20/index.php?action_kouhyou_detail_004_kani=true&JigyosyoCd=2010318216-00&ServiceCd=130&Type=search", "url2": "https://kirari-zaitaku.jp/" }, "geometry": { "type": "Point", "coordinates": [ 138.246368100000012, 36.3998973 ] } },
{ "type": "Feature", "properties": { "内容": "訪問看護ステーションあやめ東御【訪問看護】長野県上田市上丸子1054-1サンステージ駅前館202号室", "url": "https://www.kaigokensaku.mhlw.go.jp/20/index.php?action_kouhyou_detail_004_kani=true&JigyosyoCd=2060390206-00&ServiceCd=130&Type=search", "url2": "https://firstnurse.co.jp/" }, "geometry": { "type": "Point", "coordinates": [ 138.2723096, 36.3208171 ] } },
{ "type": "Feature", "properties": { "内容": "訪問看護ステーション花園【訪問看護】長野県上田市中央西1-15-25", "url": "https://www.kaigokensaku.mhlw.go.jp/20/index.php?action_kouhyou_detail_004_kani=true&JigyosyoCd=2060390198-00&ServiceCd=130&Type=search", "url2": "http://hanazono.life.coocan.jp/about.html" }, "geometry": { "type": "Point", "coordinates": [ 138.248437599999988, 36.4079878 ] } },
{ "type": "Feature", "properties": { "内容": "ほほ笑み訪問看護ステーション【訪問看護】長野県上田市福田45-7なし", "url": "https://www.kaigokensaku.mhlw.go.jp/20/index.php?action_kouhyou_detail_004_kani=true&JigyosyoCd=2060390156-00&ServiceCd=130&Type=search", "url2": "http://hohoemikaigo.com/" }, "geometry": { "type": "Point", "coordinates": [ 138.202718017982448, 36.387626337179377 ] } },
{ "type": "Feature", "properties": { "内容": "上田市武石診療所【訪問看護】長野県上田市下武石771-1", "url": "https://www.kaigokensaku.mhlw.go.jp/20/index.php?action_kouhyou_detail_004_kani=true&JigyosyoCd=2010317804-00&ServiceCd=130&Type=search", "url2": "http://www.city.ueda.nagano.jp/hp/takeshi/0850/20100302110652286.html" }, "geometry": { "type": "Point", "coordinates": [ 138.229865099999984, 36.285572 ] } },
{ "type": "Feature", "properties": { "内容": "医療法人山浦会こまき訪問看護ステーション【訪問看護】長野県上田市小牧３１２番地３", "url": "https://www.kaigokensaku.mhlw.go.jp/20/index.php?action_kouhyou_detail_004_kani=true&JigyosyoCd=2060390230-00&ServiceCd=130&Type=search", "url2": null }, "geometry": { "type": "Point", "coordinates": [ 138.2567717, 36.376317 ] } },
{ "type": "Feature", "properties": { "内容": "ごきげん訪問看護リハビリステーション【訪問看護】長野県上田市小牧1162-18", "url": "https://www.kaigokensaku.mhlw.go.jp/20/index.php?action_kouhyou_detail_004_kani=true&JigyosyoCd=2060390248-00&ServiceCd=130&Type=search", "url2": "cosmo.-care.or.jp" }, "geometry": { "type": "Point", "coordinates": [ 138.257508800000011, 36.3823475 ] } },
{ "type": "Feature", "properties": { "内容": "訪問看護ステーションしらゆり【訪問看護】長野県上田市上丸子３２８－１", "url": "https://www.kaigokensaku.mhlw.go.jp/20/index.php?action_kouhyou_detail_004_kani=true&JigyosyoCd=2062290099-00&ServiceCd=130&Type=search", "url2": null }, "geometry": { "type": "Point", "coordinates": [ 138.270959700000049, 36.3282124 ] } },
{ "type": "Feature", "properties": { "内容": "大屋リハビリ訪問看護ステーション【訪問看護】長野県上田市大屋２１３", "url": "https://www.kaigokensaku.mhlw.go.jp/20/index.php?action_kouhyou_detail_004_kani=true&JigyosyoCd=2060390099-00&ServiceCd=130&Type=search", "url2": "http://www.sumariha.jp" }, "geometry": { "type": "Point", "coordinates": [ 138.297758400000021, 36.3708992 ] } },
{ "type": "Feature", "properties": { "内容": "塩田訪問看護ステーション【訪問看護】長野県上田市本郷596-4", "url": "https://www.kaigokensaku.mhlw.go.jp/20/index.php?action_kouhyou_detail_004_kani=true&JigyosyoCd=2060390032-00&ServiceCd=130&Type=search", "url2": "http://shioda-hp.jp/index.php?id=146" }, "geometry": { "type": "Point", "coordinates": [ 138.199639511917098, 36.360667458588701 ] } },
{ "type": "Feature", "properties": { "内容": "そよ風訪問看護ステーション【訪問看護】長野県上田市中丸子1771番地1", "url": "https://www.kaigokensaku.mhlw.go.jp/20/index.php?action_kouhyou_detail_004_kani=true&JigyosyoCd=2062290024-00&ServiceCd=130&Type=search", "url2": null }, "geometry": { "type": "Point", "coordinates": [ 138.270923700000026, 36.3264349 ] } },
{ "type": "Feature", "properties": { "内容": "訪問看護ステーション真田【訪問看護】長野県上田市真田町長７１４１－１", "url": "https://www.kaigokensaku.mhlw.go.jp/20/index.php?action_kouhyou_detail_004_kani=true&JigyosyoCd=2062290057-00&ServiceCd=130&Type=search", "url2": "http://www.azarean.jp/" }, "geometry": { "type": "Point", "coordinates": [ 138.305767699999933, 36.4433461 ] } },
{ "type": "Feature", "properties": { "内容": "神科訪問看護ステーション【訪問看護】長野県上田市住吉322", "url": "https://www.kaigokensaku.mhlw.go.jp/20/index.php?action_kouhyou_detail_004_kani=true&JigyosyoCd=2060390057-00&ServiceCd=130&Type=search", "url2": "houkan@jishyukai.or.jp" }, "geometry": { "type": "Point", "coordinates": [ 138.279236, 36.4058444 ] } },
{ "type": "Feature", "properties": { "内容": "御所苑訪問看護ステーション【訪問看護】長野県上田市御所666", "url": "https://www.kaigokensaku.mhlw.go.jp/20/index.php?action_kouhyou_detail_004_kani=true&JigyosyoCd=2060390172-00&ServiceCd=130&Type=search", "url2": "https://gosyoen.maruyamakai.jp/houmon/" }, "geometry": { "type": "Point", "coordinates": [ 138.234260400000011, 36.3987311 ] } },
{ "type": "Feature", "properties": { "内容": "訪問看護ステーションやまなみ【訪問看護】長野県上田市塩川1333番地", "url": "https://www.kaigokensaku.mhlw.go.jp/20/index.php?action_kouhyou_detail_004_kani=true&JigyosyoCd=2062290016-00&ServiceCd=130&Type=search", "url2": null }, "geometry": { "type": "Point", "coordinates": [ 138.307050886891147, 36.355689668086946 ] } },
{ "type": "Feature", "properties": { "内容": "上田生協訪問看護ステーション【訪問看護】長野県上田市上塩尻３９３－１", "url": "https://www.kaigokensaku.mhlw.go.jp/20/index.php?action_kouhyou_detail_004_kani=true&JigyosyoCd=2060390073-00&ServiceCd=130&Type=search", "url2": "http://www.toshin-iryou.com/" }, "geometry": { "type": "Point", "coordinates": [ 138.221448268786645, 36.414692300908243 ] } },
{ "type": "Feature", "properties": { "内容": "訪問看護ステーションライフサポート【訪問看護】長野県上田市中丸子1430-2ヒカリビル1階１号", "url": "https://www.kaigokensaku.mhlw.go.jp/20/index.php?action_kouhyou_detail_004_kani=true&JigyosyoCd=2060390214-00&ServiceCd=130&Type=search", "url2": "https://kango-life.com" }, "geometry": { "type": "Point", "coordinates": [ 138.2702674, 36.3320033 ] } },
{ "type": "Feature", "properties": { "内容": "Calme訪問看護ステーション【訪問看護】長野県上田市築地751-45山浦貸住宅A号室", "url": "https://www.kaigokensaku.mhlw.go.jp/20/index.php?action_kouhyou_detail_004_kani=true&JigyosyoCd=2060390222-00&ServiceCd=130&Type=search", "url2": null }, "geometry": { "type": "Point", "coordinates": [ 138.212238, 36.3976582 ] } },
{ "type": "Feature", "properties": { "内容": "北大手訪問看護ステーション【訪問看護】長野県上田市中央西一丁目２番１０号", "url": "https://www.kaigokensaku.mhlw.go.jp/20/index.php?action_kouhyou_detail_004_kani=true&JigyosyoCd=2060390016-00&ServiceCd=130&Type=search", "url2": "http://kenkyukai.or.jp/" }, "geometry": { "type": "Point", "coordinates": [ 138.248274700000024, 36.4053001 ] } },
{ "type": "Feature", "properties": { "内容": "ニチイケアセンター上田緑が丘訪問看護ステーション【訪問看護】長野県上田市緑が丘3-21-12", "url": "https://www.kaigokensaku.mhlw.go.jp/20/index.php?action_kouhyou_detail_004_kani=true&JigyosyoCd=2060390115-00&ServiceCd=130&Type=search", "url2": "https://www.nichii-kaigo.jp/base/base-result/05P39/" }, "geometry": { "type": "Point", "coordinates": [ 138.241160600000057, 36.414204800000014 ] } },
{ "type": "Feature", "properties": { "内容": "訪問看護ステーションやまびこ【訪問看護】長野県上田市小泉72-1", "url": "https://www.kaigokensaku.mhlw.go.jp/20/index.php?action_kouhyou_detail_004_kani=true&JigyosyoCd=2060390065-00&ServiceCd=130&Type=search", "url2": null }, "geometry": { "type": "Point", "coordinates": [ 138.194938699999966, 36.3863681 ] } },
{ "type": "Feature", "properties": { "内容": "上田中央訪問看護ステーション【訪問看護】長野県上田市中央1-3-3", "url": "https://www.kaigokensaku.mhlw.go.jp/20/index.php?action_kouhyou_detail_004_kani=true&JigyosyoCd=2060390024-00&ServiceCd=130&Type=search", "url2": "http://www.ueda-hp.or.jp" }, "geometry": { "type": "Point", "coordinates": [ 138.251553934401386, 36.398477465499887 ] } },
{ "type": "Feature", "properties": { "内容": "訪問看護ステーション芳田【訪問看護】長野県上田市芳田1415番地6", "url": "https://www.kaigokensaku.mhlw.go.jp/20/index.php?action_kouhyou_detail_004_kani=true&JigyosyoCd=2060390149-00&ServiceCd=130&Type=search", "url2": "www.houmonkango-st-yoshida.com" }, "geometry": { "type": "Point", "coordinates": [ 138.2999087, 36.3885884 ] } },
{ "type": "Feature", "properties": { "内容": "アクア岡谷訪問看護ステーション【訪問看護】長野県岡谷市塚間町2-6059-1アクアホーム岡谷塚間", "url": "https://www.kaigokensaku.mhlw.go.jp/20/index.php?action_kouhyou_detail_004_kani=true&JigyosyoCd=2060490089-00&ServiceCd=130&Type=search", "url2": "https://www.aquasyuei.com/" }, "geometry": { "type": "Point", "coordinates": [ 138.0536917, 36.0644195 ] } },
{ "type": "Feature", "properties": { "内容": "岡谷市訪問看護ステーション【訪問看護】長野県岡谷市本町四丁目１１番３３号", "url": "https://www.kaigokensaku.mhlw.go.jp/20/index.php?action_kouhyou_detail_004_kani=true&JigyosyoCd=2060490014-00&ServiceCd=130&Type=search", "url2": null }, "geometry": { "type": "Point", "coordinates": [ 138.048231200000032, 36.0655505 ] } },
{ "type": "Feature", "properties": { "内容": "株式会社　ブリス【訪問看護】長野県岡谷市1873-4", "url": "https://www.kaigokensaku.mhlw.go.jp/20/index.php?action_kouhyou_detail_004_kani=true&JigyosyoCd=2060490097-00&ServiceCd=130&Type=search", "url2": null }, "geometry": { "type": "Point", "coordinates": [ 138.049370900000014, 36.0670021 ] } },
{ "type": "Feature", "properties": { "内容": "やさしい手わかみや訪問看護ステーション【訪問看護】長野県岡谷市若宮1-5-27", "url": "https://www.kaigokensaku.mhlw.go.jp/20/index.php?action_kouhyou_detail_004_kani=true&JigyosyoCd=2060490063-00&ServiceCd=130&Type=search", "url2": "http://www.yasashiite-suwa.com/" }, "geometry": { "type": "Point", "coordinates": [ 138.061050665745597, 36.064214879181286 ] } },
{ "type": "Feature", "properties": { "内容": "医療法人研成会訪問看護ステーション「おさち」【訪問看護】長野県岡谷市長地小萩1-11-30", "url": "https://www.kaigokensaku.mhlw.go.jp/20/index.php?action_kouhyou_detail_004_kani=true&JigyosyoCd=2060490030-00&ServiceCd=130&Type=search", "url2": null }, "geometry": { "type": "Point", "coordinates": [ 138.055799, 36.0809298 ] } },
{ "type": "Feature", "properties": { "内容": "訪問看護ステーションaffection【訪問看護】長野県飯田市鼎上茶屋3340-1味の万世2階", "url": "https://www.kaigokensaku.mhlw.go.jp/20/index.php?action_kouhyou_detail_004_kani=true&JigyosyoCd=2060590128-00&ServiceCd=130&Type=search", "url2": "http:/hp.kaipoke.biz/4yz/" }, "geometry": { "type": "Point", "coordinates": [ 137.81371809999996, 35.5111087 ] } },
{ "type": "Feature", "properties": { "内容": "輝山会記念病院【訪問看護】長野県飯田市毛賀1707番地", "url": "https://www.kaigokensaku.mhlw.go.jp/20/index.php?action_kouhyou_detail_004_kani=true&JigyosyoCd=2010517296-00&ServiceCd=130&Type=search", "url2": "http://www.kizankai.or.jp" }, "geometry": { "type": "Point", "coordinates": [ 137.84172639999997, 35.476742100000024 ] } },
{ "type": "Feature", "properties": { "内容": "KC訪問看護ステーション【訪問看護】長野県飯田市大瀬木4229-4", "url": "https://www.kaigokensaku.mhlw.go.jp/20/index.php?action_kouhyou_detail_004_kani=true&JigyosyoCd=2060590169-00&ServiceCd=130&Type=search", "url2": "https://kc-hvns.jimdofree.com/" }, "geometry": { "type": "Point", "coordinates": [ 137.78728, 35.4925811 ] } },
{ "type": "Feature", "properties": { "内容": "公益社団法人長野県看護協会飯伊訪問看護ステーション【訪問看護】長野県飯田市鼎切石４３５８－１", "url": "https://www.kaigokensaku.mhlw.go.jp/20/index.php?action_kouhyou_detail_004_kani=true&JigyosyoCd=2060590011-00&ServiceCd=130&Type=search", "url2": "http://www.nursen.or.jp" }, "geometry": { "type": "Point", "coordinates": [ 137.807920700000068, 35.5105643 ] } },
{ "type": "Feature", "properties": { "内容": "訪問看護ステーション健和会【訪問看護】長野県市鼎上山1552-1", "url": "https://www.kaigokensaku.mhlw.go.jp/20/index.php?action_kouhyou_detail_004_kani=true&JigyosyoCd=2060590078-00&ServiceCd=130&Type=search", "url2": "http://www.kenwakai.or.jp" }, "geometry": { "type": "Point", "coordinates": [ 137.826400127030979, 35.503633644292002 ] } },
{ "type": "Feature", "properties": { "内容": "訪問看護ステーションわか葉【訪問看護】長野県飯田市松尾寺7051", "url": "https://www.kaigokensaku.mhlw.go.jp/20/index.php?action_kouhyou_detail_004_kani=true&JigyosyoCd=2060590110-00&ServiceCd=130&Type=search", "url2": "wak-wak.net/houkan_st.html" }, "geometry": { "type": "Point", "coordinates": [ 137.854881544439507, 35.496663472673035 ] } },
{ "type": "Feature", "properties": { "内容": "飯田市訪問看護ステーション【訪問看護】長野県飯田市八幡町４３８番地", "url": "https://www.kaigokensaku.mhlw.go.jp/20/index.php?action_kouhyou_detail_004_kani=true&JigyosyoCd=2060590029-00&ServiceCd=130&Type=search", "url2": null }, "geometry": { "type": "Point", "coordinates": [ 137.836112800000024, 35.4993106 ] } },
{ "type": "Feature", "properties": { "内容": "みつばさ訪問看護ステーション【訪問看護】長野県飯田市鼎上山3800-5-2", "url": "https://www.kaigokensaku.mhlw.go.jp/20/index.php?action_kouhyou_detail_004_kani=true&JigyosyoCd=2060590136-00&ServiceCd=130&Type=search", "url2": "https://www.mitsubasa-kaigo.com" }, "geometry": { "type": "Point", "coordinates": [ 137.809415, 35.5065709 ] } },
{ "type": "Feature", "properties": { "内容": "訪問看護ステーション　オリーヴ【訪問看護】長野県飯田市毛賀1627", "url": "https://www.kaigokensaku.mhlw.go.jp/20/index.php?action_kouhyou_detail_004_kani=true&JigyosyoCd=2060590151-00&ServiceCd=130&Type=search", "url2": "https://olive.bona.jp/" }, "geometry": { "type": "Point", "coordinates": [ 137.8390771, 35.4803024 ] } },
{ "type": "Feature", "properties": { "内容": "つるかめ訪問看護ステーション【訪問看護】長野県諏訪市中洲福島5317-1", "url": "https://www.kaigokensaku.mhlw.go.jp/20/index.php?action_kouhyou_detail_004_kani=true&JigyosyoCd=2062390063-00&ServiceCd=130&Type=search", "url2": "https://www.tsurukame-suwa.com/" }, "geometry": { "type": "Point", "coordinates": [ 130.406417299999987, 33.5929669 ] } },
{ "type": "Feature", "properties": { "内容": "医療法人清風会宮坂医院【訪問看護】長野県諏訪市元町4-10", "url": "https://www.kaigokensaku.mhlw.go.jp/20/index.php?action_kouhyou_detail_004_kani=true&JigyosyoCd=2010617229-00&ServiceCd=130&Type=search", "url2": "http://www.lcv.ne.jp/~hartcare/houmon.html" }, "geometry": { "type": "Point", "coordinates": [ 138.123541899999964, 36.0392947 ] } },
{ "type": "Feature", "properties": { "内容": "諏訪赤十字訪問看護ステーション【訪問看護】長野県諏訪市湖岸通り5丁目11番50号諏訪赤十字病院", "url": "https://www.kaigokensaku.mhlw.go.jp/20/index.php?action_kouhyou_detail_004_kani=true&JigyosyoCd=2060690019-00&ServiceCd=130&Type=search", "url2": "http://www.suwa.jrc.or.jp" }, "geometry": { "type": "Point", "coordinates": [ 138.10670719999996, 36.0431326 ] } },
{ "type": "Feature", "properties": { "内容": "ハーツ訪問ナースステーション【訪問看護】長野県諏訪市高島1丁目27－2", "url": "https://www.kaigokensaku.mhlw.go.jp/20/index.php?action_kouhyou_detail_004_kani=true&JigyosyoCd=2060690035-00&ServiceCd=130&Type=search", "url2": "alfa-hearts.com" }, "geometry": { "type": "Point", "coordinates": [ 138.112650800000011, 36.0369205 ] } },
{ "type": "Feature", "properties": { "内容": "訪問看護ステーションしらかば【訪問看護】長野県須坂市大字須坂1528-3島田ビル２階", "url": "https://www.kaigokensaku.mhlw.go.jp/20/index.php?action_kouhyou_detail_004_kani=true&JigyosyoCd=2060790041-00&ServiceCd=130&Type=search", "url2": "https://www.shirakaba-kaigo.com/" }, "geometry": { "type": "Point", "coordinates": [ 138.309268722533204, 36.649996075808765 ] } },
{ "type": "Feature", "properties": { "内容": "長野県立信州医療センター在宅診療部訪問看護室【訪問看護】長野県須坂市大字須坂１３３２", "url": "https://www.kaigokensaku.mhlw.go.jp/20/index.php?action_kouhyou_detail_004_kani=true&JigyosyoCd=2010716013-00&ServiceCd=130&Type=search", "url2": "https://shinshumedicalcenta.jp" }, "geometry": { "type": "Point", "coordinates": [ 138.309263699999974, 36.6539804 ] } },
{ "type": "Feature", "properties": { "内容": "リリーフライフ訪問看護ステーションぴいす【訪問看護】長野県須坂市大字須坂1387-5", "url": "https://www.kaigokensaku.mhlw.go.jp/20/index.php?action_kouhyou_detail_004_kani=true&JigyosyoCd=2060790066-00&ServiceCd=130&Type=search", "url2": "https://www.relieflife.info/" }, "geometry": { "type": "Point", "coordinates": [ 138.310838749596314, 36.65191472539923 ] } },
{ "type": "Feature", "properties": { "内容": "公益社団法人長野県看護協会須高訪問看護ステーション【訪問看護】長野県須坂市大字須坂１５２８番地７センタービル８０", "url": "https://www.kaigokensaku.mhlw.go.jp/20/index.php?action_kouhyou_detail_004_kani=true&JigyosyoCd=2060790025-00&ServiceCd=130&Type=search", "url2": "https://nursen.or.jp/" }, "geometry": { "type": "Point", "coordinates": [ 138.307142100524942, 36.650435079995759 ] } },
{ "type": "Feature", "properties": { "内容": "医療法人公仁会　轟訪問看護ステーション【訪問看護】長野県須坂市大字須坂1239番地", "url": "https://www.kaigokensaku.mhlw.go.jp/20/index.php?action_kouhyou_detail_004_kani=true&JigyosyoCd=2060790082-00&ServiceCd=130&Type=search", "url2": "http://www.todoroki-h.com" }, "geometry": { "type": "Point", "coordinates": [ 138.308482700000013, 36.6576677 ] } },
{ "type": "Feature", "properties": { "内容": "グリーン訪問看護ステーション【訪問看護】長野県須坂市大字仁礼７番地10", "url": "https://www.kaigokensaku.mhlw.go.jp/20/index.php?action_kouhyou_detail_004_kani=true&JigyosyoCd=2060790033-00&ServiceCd=130&Type=search", "url2": "https://www.greenarum.jp/" }, "geometry": { "type": "Point", "coordinates": [ 138.338808699999987, 36.6137606 ] } },
{ "type": "Feature", "properties": { "内容": "長野県立信州医療センター訪問看護ステーションはなみずき【訪問看護】長野県須坂市大字須坂1332", "url": "https://www.kaigokensaku.mhlw.go.jp/20/index.php?action_kouhyou_detail_004_kani=true&JigyosyoCd=2060790074-00&ServiceCd=130&Type=search", "url2": "https://shinshumedicalcenter.jp" }, "geometry": { "type": "Point", "coordinates": [ 138.310125099999965, 36.6541293 ] } },
{ "type": "Feature", "properties": { "内容": "訪問看護ステーションあやめ小諸【訪問看護】大字御影新田792-1マンション三景102", "url": "https://www.kaigokensaku.mhlw.go.jp/20/index.php?action_kouhyou_detail_004_kani=true&JigyosyoCd=2060890064-00&ServiceCd=130&Type=search", "url2": "http://www.firstnurse.co.jp" }, "geometry": { "type": "Point", "coordinates": [ 138.4699226, 36.3016252 ] } },
{ "type": "Feature", "properties": { "内容": "栁橋脳神経外科【訪問看護】長野県小諸市大字諸350", "url": "https://www.kaigokensaku.mhlw.go.jp/20/index.php?action_kouhyou_detail_004_kani=true&JigyosyoCd=2010817191-00&ServiceCd=130&Type=search", "url2": "http://www.yanagibashi.or.jp" }, "geometry": { "type": "Point", "coordinates": [ 138.411466600000011, 36.3389748 ] } },
{ "type": "Feature", "properties": { "内容": "訪問看護ステーションこもろ【訪問看護】長野県小諸市南町二丁目２番２７号老人保健施設こまくさ内", "url": "https://www.kaigokensaku.mhlw.go.jp/20/index.php?action_kouhyou_detail_004_kani=true&JigyosyoCd=2060890015-00&ServiceCd=130&Type=search", "url2": "http://komoro-mc.com/" }, "geometry": { "type": "Point", "coordinates": [ 138.427819, 36.3230586 ] } },
{ "type": "Feature", "properties": { "内容": "訪問看護ステーションのぞみ【訪問看護】長野県小諸市和田841-7", "url": "https://www.kaigokensaku.mhlw.go.jp/20/index.php?action_kouhyou_detail_004_kani=true&JigyosyoCd=2060890031-00&ServiceCd=130&Type=search", "url2": "https://nozomi-g.co.jp" }, "geometry": { "type": "Point", "coordinates": [ 138.46288807481946, 36.297174432037288 ] } },
{ "type": "Feature", "properties": { "内容": "エフビー訪問看護ステーションとちの実【訪問看護】長野県小諸市御幸町1-5-20", "url": "https://www.kaigokensaku.mhlw.go.jp/20/index.php?action_kouhyou_detail_004_kani=true&JigyosyoCd=2060890056-00&ServiceCd=130&Type=search", "url2": "http://www.fb-kaigo.co.jp" }, "geometry": { "type": "Point", "coordinates": [ 138.434566, 36.3171761 ] } },
{ "type": "Feature", "properties": { "内容": "こまつ内科消化器内科訪問看護ステーション【訪問看護】大字加増504番地13アイワビル2F西号室", "url": "https://www.kaigokensaku.mhlw.go.jp/20/index.php?action_kouhyou_detail_004_kani=true&JigyosyoCd=2060890072-00&ServiceCd=130&Type=search", "url2": "houkan.komatsu0767@gmail.com" }, "geometry": { "type": "Point", "coordinates": [ 138.4444155, 36.316261600000018 ] } },
{ "type": "Feature", "properties": { "内容": "田畑内科医院【訪問看護】伊那市中央4953-2", "url": "https://www.kaigokensaku.mhlw.go.jp/20/index.php?action_kouhyou_detail_004_kani=true&JigyosyoCd=2010917207-00&ServiceCd=130&Type=search", "url2": null }, "geometry": { "type": "Point", "coordinates": [ 137.965975800000024, 35.8423875 ] } },
{ "type": "Feature", "properties": { "内容": "神山内科医院【訪問看護】伊那市西町5121番地1", "url": "https://www.kaigokensaku.mhlw.go.jp/20/index.php?action_kouhyou_detail_004_kani=true&JigyosyoCd=2010917181-00&ServiceCd=130&Type=search", "url2": null }, "geometry": { "type": "Point", "coordinates": [ 137.951552399999969, 35.8322165 ] } },
{ "type": "Feature", "properties": { "内容": "下條医院【訪問看護】伊那市手良野口2005-3", "url": "https://www.kaigokensaku.mhlw.go.jp/20/index.php?action_kouhyou_detail_004_kani=true&JigyosyoCd=2010917231-00&ServiceCd=130&Type=search", "url2": null }, "geometry": { "type": "Point", "coordinates": [ 138.013784900000019, 35.8604529 ] } },
{ "type": "Feature", "properties": { "内容": "アクア伊那訪問看護ステーション【訪問看護】長野県伊那市美篶9151-4", "url": "https://www.kaigokensaku.mhlw.go.jp/20/index.php?action_kouhyou_detail_004_kani=true&JigyosyoCd=2060990104-00&ServiceCd=130&Type=search", "url2": "http://aqua-nurse.jp" }, "geometry": { "type": "Point", "coordinates": [ 138.0142615, 35.8400481 ] } },
{ "type": "Feature", "properties": { "内容": "訪問看護ステーション　ゆう【訪問看護】長野県伊那市美篶上原4323-1サンワハイツ２号", "url": "https://www.kaigokensaku.mhlw.go.jp/20/index.php?action_kouhyou_detail_004_kani=true&JigyosyoCd=2060990112-00&ServiceCd=130&Type=search", "url2": null }, "geometry": { "type": "Point", "coordinates": [ 138.014135619851658, 35.84112136683634 ] } },
{ "type": "Feature", "properties": { "内容": "訪問看護ステーションすずたけ【訪問看護】長野県伊那市美篶7792番地3", "url": "https://www.kaigokensaku.mhlw.go.jp/20/index.php?action_kouhyou_detail_004_kani=true&JigyosyoCd=2060990047-00&ServiceCd=130&Type=search", "url2": null }, "geometry": { "type": "Point", "coordinates": [ 138.001780899999972, 35.8427713 ] } },
{ "type": "Feature", "properties": { "内容": "伊那中央病院訪問看護ステーション【訪問看護】長野県伊那市小四郎久保1313番地1伊那中央病院", "url": "https://www.kaigokensaku.mhlw.go.jp/20/index.php?action_kouhyou_detail_004_kani=true&JigyosyoCd=2060990062-00&ServiceCd=130&Type=search", "url2": "https://www.inahp.jp/" }, "geometry": { "type": "Point", "coordinates": [ 137.954817633868373, 35.855921140193566 ] } },
{ "type": "Feature", "properties": { "内容": "訪問看護ステーションなゆき【訪問看護】長野県伊那市西箕輪6890-2", "url": "https://www.kaigokensaku.mhlw.go.jp/20/index.php?action_kouhyou_detail_004_kani=true&JigyosyoCd=2060990096-00&ServiceCd=130&Type=search", "url2": "hp.kaipoke.biz/deh" }, "geometry": { "type": "Point", "coordinates": [ 137.938274351756178, 35.868815827124088 ] } },
{ "type": "Feature", "properties": { "内容": "訪問看護ステーションよつば【訪問看護】長野県伊那市西春近4053-6", "url": "https://www.kaigokensaku.mhlw.go.jp/20/index.php?action_kouhyou_detail_004_kani=true&JigyosyoCd=2060990088-00&ServiceCd=130&Type=search", "url2": null }, "geometry": { "type": "Point", "coordinates": [ 137.9293695, 35.8114134 ] } },
{ "type": "Feature", "properties": { "内容": "ここ花訪問看護ステーション【訪問看護】長野県伊那市西春近3390-534", "url": "https://www.kaigokensaku.mhlw.go.jp/20/index.php?action_kouhyou_detail_004_kani=true&JigyosyoCd=2060990070-00&ServiceCd=130&Type=search", "url2": "http://gururi-hanauta.com/" }, "geometry": { "type": "Point", "coordinates": [ 137.920875837000096, 35.816159477126263 ] } },
{ "type": "Feature", "properties": { "内容": "アクア駒ヶ根訪問看護ステーション【訪問看護】長野県駒ヶ根市赤穂16878アクアホーム駒ヶ根", "url": "https://www.kaigokensaku.mhlw.go.jp/20/index.php?action_kouhyou_detail_004_kani=true&JigyosyoCd=2061090052-00&ServiceCd=130&Type=search", "url2": "https://www.aquasyuei.com/" }, "geometry": { "type": "Point", "coordinates": [ 137.872375, 35.7285061 ] } },
{ "type": "Feature", "properties": { "内容": "伊南訪問看護ステーション【訪問看護】長野県駒ヶ根市赤穂　3213番地１", "url": "https://www.kaigokensaku.mhlw.go.jp/20/index.php?action_kouhyou_detail_004_kani=true&JigyosyoCd=2061090011-00&ServiceCd=130&Type=search", "url2": "inanhvns@bz03.plala.or.jp" }, "geometry": { "type": "Point", "coordinates": [ 137.919358200000033, 35.7360039 ] } },
{ "type": "Feature", "properties": { "内容": "伊南行政組合　昭和伊南総合病院　訪問看護ステーション【訪問看護】長野県駒ヶ根市赤穂3230番地", "url": "https://www.kaigokensaku.mhlw.go.jp/20/index.php?action_kouhyou_detail_004_kani=true&JigyosyoCd=2061090078-00&ServiceCd=130&Type=search", "url2": "http://www.sihp.jp/" }, "geometry": { "type": "Point", "coordinates": [ 137.920042599999988, 35.7377304 ] } },
{ "type": "Feature", "properties": { "内容": "ふくふく訪問看護ステーション【訪問看護】長野県駒ケ根市上穂南14番22号東棟", "url": "https://www.kaigokensaku.mhlw.go.jp/20/index.php?action_kouhyou_detail_004_kani=true&JigyosyoCd=2061090086-00&ServiceCd=130&Type=search", "url2": "https://carelogood.ibowservice.jp/admin/listings/882270/preview?mode=nonMember" }, "geometry": { "type": "Point", "coordinates": [ 137.931293896958948, 35.732800163505544 ] } },
{ "type": "Feature", "properties": { "内容": "訪問看護ステーションあやめ中野【訪問看護】長野県中野市三好町2丁目3-13ラ・セゾン高見沢102号室", "url": "https://www.kaigokensaku.mhlw.go.jp/20/index.php?action_kouhyou_detail_004_kani=true&JigyosyoCd=2061190068-00&ServiceCd=130&Type=search", "url2": "https://firstnurse.co.jp/" }, "geometry": { "type": "Point", "coordinates": [ 138.372643900000014, 36.7418247 ] } },
{ "type": "Feature", "properties": { "内容": "訪問看護ステーションなかの【訪問看護】長野県中野市西一丁目５番６３号", "url": "https://www.kaigokensaku.mhlw.go.jp/20/index.php?action_kouhyou_detail_004_kani=true&JigyosyoCd=2061190019-00&ServiceCd=130&Type=search", "url2": "http://www.hokushin-hosp.jp/index.html" }, "geometry": { "type": "Point", "coordinates": [ 138.366289400000028, 36.7469184 ] } },
{ "type": "Feature", "properties": { "内容": "訪問看護ステーションちとせ【訪問看護】長野県中野市吉田589-1", "url": "https://www.kaigokensaku.mhlw.go.jp/20/index.php?action_kouhyou_detail_004_kani=true&JigyosyoCd=2061190050-00&ServiceCd=130&Type=search", "url2": null }, "geometry": { "type": "Point", "coordinates": [ 138.358447250941026, 36.756393724731815 ] } },
{ "type": "Feature", "properties": { "内容": "訪問看護ステーションせせらぎ【訪問看護】長野県中野市西１丁目５番６３号", "url": "https://www.kaigokensaku.mhlw.go.jp/20/index.php?action_kouhyou_detail_004_kani=true&JigyosyoCd=2061190035-00&ServiceCd=130&Type=search", "url2": "http://www.hokushin-hosp.jp/" }, "geometry": { "type": "Point", "coordinates": [ 138.366289400000028, 36.7469184 ] } },
{ "type": "Feature", "properties": { "内容": "北アルプス訪問看護ステーション【訪問看護】長野県大町市大町2619", "url": "https://www.kaigokensaku.mhlw.go.jp/20/index.php?action_kouhyou_detail_004_kani=true&JigyosyoCd=2062990045-00&ServiceCd=130&Type=search", "url2": "http://www.shironishi.or.jp" }, "geometry": { "type": "Point", "coordinates": [ 137.862321855850013, 36.502198622762357 ] } },
{ "type": "Feature", "properties": { "内容": "大町市訪問看護ステーション【訪問看護】長野県大町市大町３１３０番地", "url": "https://www.kaigokensaku.mhlw.go.jp/20/index.php?action_kouhyou_detail_004_kani=true&JigyosyoCd=2061290017-00&ServiceCd=130&Type=search", "url2": "http://www.city.omachi.nagano.jp/ctg/C131/131.html" }, "geometry": { "type": "Point", "coordinates": [ 137.857565900000054, 36.5010627 ] } },
{ "type": "Feature", "properties": { "内容": "飯山赤十字訪問看護ステーション【訪問看護】長野県飯山市大字飯山２２６－１飯山赤十字病院", "url": "https://www.kaigokensaku.mhlw.go.jp/20/index.php?action_kouhyou_detail_004_kani=true&JigyosyoCd=2061390023-00&ServiceCd=130&Type=search", "url2": "http://www.iiyama.jrc.or.jp" }, "geometry": { "type": "Point", "coordinates": [ 138.361981900000046, 36.8447535 ] } },
{ "type": "Feature", "properties": { "内容": "医療法人矢嶋内科医院【訪問看護】長野県茅野市ちの3494", "url": "https://www.kaigokensaku.mhlw.go.jp/20/index.php?action_kouhyou_detail_004_kani=true&JigyosyoCd=2011417306-00&ServiceCd=130&Type=search", "url2": "http://www.chinoshi.net/CNet_HP/user/index.php?secid=6090&pageid=1" }, "geometry": { "type": "Point", "coordinates": [ 138.150204900000062, 35.9949787 ] } },
{ "type": "Feature", "properties": { "内容": "メディホス訪問看護茅野【訪問看護】長野県茅野市ちの2761-9", "url": "https://www.kaigokensaku.mhlw.go.jp/20/index.php?action_kouhyou_detail_004_kani=true&JigyosyoCd=2061490062-00&ServiceCd=130&Type=search", "url2": "https://wmj.co.jp" }, "geometry": { "type": "Point", "coordinates": [ 138.1372359, 35.9992801 ] } },
{ "type": "Feature", "properties": { "内容": "訪問看護ステーションりんどう【訪問看護】長野県茅野市塚原二丁目５番４５号", "url": "https://www.kaigokensaku.mhlw.go.jp/20/index.php?action_kouhyou_detail_004_kani=true&JigyosyoCd=2061490013-00&ServiceCd=130&Type=search", "url2": "http://www.rindou-nurse.or.jp/" }, "geometry": { "type": "Point", "coordinates": [ 138.159259070044698, 35.994211285241441 ] } },
{ "type": "Feature", "properties": { "内容": "諏訪中央病院訪問看護ステーションいろは【訪問看護】長野県茅野市宮川３９７５番地", "url": "https://www.kaigokensaku.mhlw.go.jp/20/index.php?action_kouhyou_detail_004_kani=true&JigyosyoCd=2061490039-00&ServiceCd=130&Type=search", "url2": "http://www.suwachuo.jp" }, "geometry": { "type": "Point", "coordinates": [ 138.1507594115632, 35.990177986552354 ] } },
{ "type": "Feature", "properties": { "内容": "あん訪問看護ステーション【訪問看護】長野県茅野市ちの3499-1タカハシビル3階", "url": "https://www.kaigokensaku.mhlw.go.jp/20/index.php?action_kouhyou_detail_004_kani=true&JigyosyoCd=2061490054-00&ServiceCd=130&Type=search", "url2": "https://lifelike-care.com/" }, "geometry": { "type": "Point", "coordinates": [ 138.1511582, 35.9947469 ] } },
{ "type": "Feature", "properties": { "内容": "訪問看護ステーション　デューン塩尻【訪問看護】長野県塩尻市大門並木町1-2上條ビル2階203", "url": "https://www.kaigokensaku.mhlw.go.jp/20/index.php?action_kouhyou_detail_004_kani=true&JigyosyoCd=2061590135-00&ServiceCd=130&Type=search", "url2": null }, "geometry": { "type": "Point", "coordinates": [ 137.9525343, 36.116948800000017 ] } },
{ "type": "Feature", "properties": { "内容": "桔梗ヶ原病院訪問看護ステーション【訪問看護】長野県塩尻市大字宗賀1294-1", "url": "https://www.kaigokensaku.mhlw.go.jp/20/index.php?action_kouhyou_detail_004_kani=true&JigyosyoCd=2061590101-00&ServiceCd=130&Type=search", "url2": "http://www.keijin-kai.jp/" }, "geometry": { "type": "Point", "coordinates": [ 137.933085263798489, 36.11112793614199 ] } },
{ "type": "Feature", "properties": { "内容": "訪問看護ステーション　社協・ふれあい【訪問看護】長野県塩尻市広丘堅石２１５１－２", "url": "https://www.kaigokensaku.mhlw.go.jp/20/index.php?action_kouhyou_detail_004_kani=true&JigyosyoCd=2061590036-00&ServiceCd=130&Type=search", "url2": "http://www.shiojirishakyo.or.jp/publics/index/48/" }, "geometry": { "type": "Point", "coordinates": [ 137.94936790118868, 36.135421646614887 ] } },
{ "type": "Feature", "properties": { "内容": "相澤訪問看護ステーションひまわり塩尻事業所【訪問看護】長野県塩尻市大門79-2", "url": "https://www.kaigokensaku.mhlw.go.jp/20/index.php?action_kouhyou_detail_004_kani=true&JigyosyoCd=2061590085-00&ServiceCd=130&Type=search", "url2": "https://jisenkai.aizawahospital.jp/home_medical" }, "geometry": { "type": "Point", "coordinates": [ 137.946055269064374, 36.119324818767083 ] } },
{ "type": "Feature", "properties": { "内容": "合同会社ナースセンター時の駅【訪問看護】長野県塩尻市広丘吉田1598‐1", "url": "https://www.kaigokensaku.mhlw.go.jp/20/index.php?action_kouhyou_detail_004_kani=true&JigyosyoCd=2061590127-00&ServiceCd=130&Type=search", "url2": "https://nurse-s-t.com" }, "geometry": { "type": "Point", "coordinates": [ 137.9597498, 36.1646512 ] } },
{ "type": "Feature", "properties": { "内容": "ハートフル訪問看護ステーション広丘【訪問看護】長野県塩尻市広丘高出2000-3", "url": "https://www.kaigokensaku.mhlw.go.jp/20/index.php?action_kouhyou_detail_004_kani=true&JigyosyoCd=2061590119-00&ServiceCd=130&Type=search", "url2": "http://heartfull-hirooka.cares-cennter.co.jp/" }, "geometry": { "type": "Point", "coordinates": [ 137.958352984180323, 36.135161350902194 ] } },
{ "type": "Feature", "properties": { "内容": "訪問看護ステーションわかば【訪問看護】長野県佐久市臼田197番地佐久総合病院　こころのケアセンター内", "url": "https://www.kaigokensaku.mhlw.go.jp/20/index.php?action_kouhyou_detail_004_kani=true&JigyosyoCd=2061790156-00&ServiceCd=130&Type=search", "url2": null }, "geometry": { "type": "Point", "coordinates": [ 138.481197700802539, 36.19890427096189 ] } },
{ "type": "Feature", "properties": { "内容": "訪問看護ステーションaile【訪問看護】長野県佐久市猿久保9-1セジュールくさぶえ102", "url": "https://www.kaigokensaku.mhlw.go.jp/20/index.php?action_kouhyou_detail_004_kani=true&JigyosyoCd=2061790230-00&ServiceCd=130&Type=search", "url2": "https://aile.2nd-moon.com/" }, "geometry": { "type": "Point", "coordinates": [ 138.48183, 36.2543805 ] } },
{ "type": "Feature", "properties": { "内容": "訪問看護ステーションばんり【訪問看護】長野県佐久市長土呂793-12", "url": "https://www.kaigokensaku.mhlw.go.jp/20/index.php?action_kouhyou_detail_004_kani=true&JigyosyoCd=2061790198-00&ServiceCd=130&Type=search", "url2": "https://welfuture.co.jp/" }, "geometry": { "type": "Point", "coordinates": [ 138.4731816, 36.2918814 ] } },
{ "type": "Feature", "properties": { "内容": "訪問看護ステーションほのか【訪問看護】長野県佐久市臼田81-1", "url": "https://www.kaigokensaku.mhlw.go.jp/20/index.php?action_kouhyou_detail_004_kani=true&JigyosyoCd=2061790164-00&ServiceCd=130&Type=search", "url2": null }, "geometry": { "type": "Point", "coordinates": [ 138.479328199999969, 36.1950532 ] } },
{ "type": "Feature", "properties": { "内容": "訪問看護ステーションあさま【訪問看護】長野県佐久市岩村田１８６２-１浅間総合病院　南棟２階", "url": "https://www.kaigokensaku.mhlw.go.jp/20/index.php?action_kouhyou_detail_004_kani=true&JigyosyoCd=2061790065-00&ServiceCd=130&Type=search", "url2": "http://www.asamaghp.jp/info/local/visit_patient.html" }, "geometry": { "type": "Point", "coordinates": [ 138.468855599999983, 36.2700967 ] } },
{ "type": "Feature", "properties": { "内容": "Ａライン訪問看護ステーション【訪問看護】長野県佐久市猿久保668-1ミニタウンA&A3号室", "url": "https://www.kaigokensaku.mhlw.go.jp/20/index.php?action_kouhyou_detail_004_kani=true&JigyosyoCd=2061790115-00&ServiceCd=130&Type=search", "url2": "http://www.aline-kg.com" }, "geometry": { "type": "Point", "coordinates": [ 138.472219190143591, 36.257060262972672 ] } },
{ "type": "Feature", "properties": { "内容": "脳とこころの訪問看護ステーション佐久平【訪問看護】長野県佐久市岩村田5502番地41蔦屋書店佐久平店内", "url": "https://www.kaigokensaku.mhlw.go.jp/20/index.php?action_kouhyou_detail_004_kani=true&JigyosyoCd=2061790214-00&ServiceCd=130&Type=search", "url2": "http://www.noutokokoro.jp/" }, "geometry": { "type": "Point", "coordinates": [ 138.461582799999974, 36.2717347 ] } },
{ "type": "Feature", "properties": { "内容": "エフビー訪問看護ステーションさく【訪問看護】長野県佐久市中込3713-11", "url": "https://www.kaigokensaku.mhlw.go.jp/20/index.php?action_kouhyou_detail_004_kani=true&JigyosyoCd=2061790149-00&ServiceCd=130&Type=search", "url2": "htt://www.fb-kaigo.co.jp" }, "geometry": { "type": "Point", "coordinates": [ 138.466596230503001, 36.251832369911611 ] } },
{ "type": "Feature", "properties": { "内容": "ケイジン訪問看護ステーション中込【訪問看護】長野県佐久市中込1丁目１７番地８", "url": "https://www.kaigokensaku.mhlw.go.jp/20/index.php?action_kouhyou_detail_004_kani=true&JigyosyoCd=2061790016-00&ServiceCd=130&Type=search", "url2": "http://www.keijinnet.or.jp/03_01_03_visit.html" }, "geometry": { "type": "Point", "coordinates": [ 138.478286124467445, 36.230635841023059 ] } },
{ "type": "Feature", "properties": { "内容": "佐久総合病院訪問看護ステーション【訪問看護】長野県佐久市臼田197番地", "url": "https://www.kaigokensaku.mhlw.go.jp/20/index.php?action_kouhyou_detail_004_kani=true&JigyosyoCd=2062090010-00&ServiceCd=130&Type=search", "url2": null }, "geometry": { "type": "Point", "coordinates": [ 138.480006799999956, 36.1984151 ] } },
{ "type": "Feature", "properties": { "内容": "川西赤十字訪問看護ステーション【訪問看護】長野県佐久市望月３４２番地", "url": "https://www.kaigokensaku.mhlw.go.jp/20/index.php?action_kouhyou_detail_004_kani=true&JigyosyoCd=2062190018-00&ServiceCd=130&Type=search", "url2": "kawanishi.jrc.or.jp" }, "geometry": { "type": "Point", "coordinates": [ 138.358875013075249, 36.265852182045123 ] } },
{ "type": "Feature", "properties": { "内容": "訪問看護ステーションタブノキ【訪問看護】長野県佐久市小田井1077-25（有）アース精工内201号", "url": "https://www.kaigokensaku.mhlw.go.jp/20/index.php?action_kouhyou_detail_004_kani=true&JigyosyoCd=2061790248-00&ServiceCd=130&Type=search", "url2": "https://houkantabunoki.com" }, "geometry": { "type": "Point", "coordinates": [ 138.496726063090478, 36.298345592038906 ] } },
{ "type": "Feature", "properties": { "内容": "訪問看護ステーション岩村田【訪問看護】長野県佐久市岩村田８０２番地１", "url": "https://www.kaigokensaku.mhlw.go.jp/20/index.php?action_kouhyou_detail_004_kani=true&JigyosyoCd=2061790040-00&ServiceCd=130&Type=search", "url2": "https://www.kanazawahp.or.jp" }, "geometry": { "type": "Point", "coordinates": [ 138.479196399999978, 36.274302100000014 ] } },
{ "type": "Feature", "properties": { "内容": "訪問看護ステーションあやめ千曲【訪問看護】長野県千曲市寂蒔1036-2第2ハイツ山本201号室", "url": "https://www.kaigokensaku.mhlw.go.jp/20/index.php?action_kouhyou_detail_004_kani=true&JigyosyoCd=2061890089-00&ServiceCd=130&Type=search", "url2": "https://firstnurse.co.jp/" }, "geometry": { "type": "Point", "coordinates": [ 138.1285354, 36.5198672 ] } },
{ "type": "Feature", "properties": { "内容": "訪問看護ステーション　デューン千曲【訪問看護】長野県千曲市大字小島2821北川テナント2階", "url": "https://www.kaigokensaku.mhlw.go.jp/20/index.php?action_kouhyou_detail_004_kani=true&JigyosyoCd=2061890097-00&ServiceCd=130&Type=search", "url2": "http://www.nfield.co.jp/" }, "geometry": { "type": "Point", "coordinates": [ 138.1271, 36.5309293 ] } },
{ "type": "Feature", "properties": { "内容": "訪問看護ステーション治田の里【訪問看護】長野県千曲市大字稲荷山１７８０", "url": "https://www.kaigokensaku.mhlw.go.jp/20/index.php?action_kouhyou_detail_004_kani=true&JigyosyoCd=2061890030-00&ServiceCd=130&Type=search", "url2": "info@harutanosato.com" }, "geometry": { "type": "Point", "coordinates": [ 138.099195799999961, 36.5334514 ] } },
{ "type": "Feature", "properties": { "内容": "訪問看護ステーション埴生【訪問看護】長野県千曲市鋳物師屋357", "url": "https://www.kaigokensaku.mhlw.go.jp/20/index.php?action_kouhyou_detail_004_kani=true&JigyosyoCd=2061890071-00&ServiceCd=130&Type=search", "url2": "http://www/sakura-care.co.jp" }, "geometry": { "type": "Point", "coordinates": [ 138.12738539999998, 36.5175521 ] } },
{ "type": "Feature", "properties": { "内容": "訪問看護ステーション　はる風【訪問看護】長野県千曲市大字寂蒔103-1", "url": "https://www.kaigokensaku.mhlw.go.jp/20/index.php?action_kouhyou_detail_004_kani=true&JigyosyoCd=2061890063-00&ServiceCd=130&Type=search", "url2": "http://harukaze-nagano.jp" }, "geometry": { "type": "Point", "coordinates": [ 138.1382008, 36.5120551 ] } },
{ "type": "Feature", "properties": { "内容": "訪問看護ステーションアプリコット【訪問看護】長野県千曲市大字杭瀬下５８", "url": "https://www.kaigokensaku.mhlw.go.jp/20/index.php?action_kouhyou_detail_004_kani=true&JigyosyoCd=2061690018-00&ServiceCd=130&Type=search", "url2": "http://www.timelyhit.ne.jp/chikuma-chp/" }, "geometry": { "type": "Point", "coordinates": [ 138.122775831660419, 36.530144168482863 ] } },
{ "type": "Feature", "properties": { "内容": "訪問看護ステーションスマイル【訪問看護】長野県千曲市上山田温泉3-34-3", "url": "https://www.kaigokensaku.mhlw.go.jp/20/index.php?action_kouhyou_detail_004_kani=true&JigyosyoCd=2061890055-00&ServiceCd=130&Type=search", "url2": "http://naganojukoukai.com/" }, "geometry": { "type": "Point", "coordinates": [ 138.1457762, 36.4763867 ] } },
{ "type": "Feature", "properties": { "内容": "訪問看護ステーションリカバリー【訪問看護】長野県東御市滋野乙2934-3", "url": "https://www.kaigokensaku.mhlw.go.jp/20/index.php?action_kouhyou_detail_004_kani=true&JigyosyoCd=2061990012-00&ServiceCd=130&Type=search", "url2": null }, "geometry": { "type": "Point", "coordinates": [ 138.3728485, 36.3482214 ] } },
{ "type": "Feature", "properties": { "内容": "訪問看護ステーションちいさがたの家【訪問看護】長野県東御市常田2-1", "url": "https://www.kaigokensaku.mhlw.go.jp/20/index.php?action_kouhyou_detail_004_kani=true&JigyosyoCd=2061990020-00&ServiceCd=130&Type=search", "url2": "http://www.chiisagata.jp" }, "geometry": { "type": "Point", "coordinates": [ 138.3484292, 36.3593385 ] } },
{ "type": "Feature", "properties": { "内容": "公益社団法人長野県看護協会訪問看護ステーションしらかば【訪問看護】長野県東御市鞍掛610-2", "url": "https://www.kaigokensaku.mhlw.go.jp/20/index.php?action_kouhyou_detail_004_kani=true&JigyosyoCd=2062290032-00&ServiceCd=130&Type=search", "url2": "http://nursen.or.jp" }, "geometry": { "type": "Point", "coordinates": [ 138.3548594, 36.3597085 ] } },
{ "type": "Feature", "properties": { "内容": "訪問看護ステーションみまき【訪問看護】長野県東御市布下6-1", "url": "https://www.kaigokensaku.mhlw.go.jp/20/index.php?action_kouhyou_detail_004_kani=true&JigyosyoCd=2062190034-00&ServiceCd=130&Type=search", "url2": "http://www.cpmimaki.or.jp/care_hkango.php" }, "geometry": { "type": "Point", "coordinates": [ 138.360093729222172, 36.335810709651241 ] } },
{ "type": "Feature", "properties": { "内容": "訪問看護ステーションねつ【訪問看護】長野県東御市祢津332-2", "url": "https://www.kaigokensaku.mhlw.go.jp/20/index.php?action_kouhyou_detail_004_kani=true&JigyosyoCd=2062290065-00&ServiceCd=130&Type=search", "url2": "http://www.ryokufuukai.or.jp/" }, "geometry": { "type": "Point", "coordinates": [ 138.356604472877507, 36.368719848791422 ] } },
{ "type": "Feature", "properties": { "内容": "訪問看護ステーションあやめ　安曇野【訪問看護】長野県安曇野市豊科4757-1", "url": "https://www.kaigokensaku.mhlw.go.jp/20/index.php?action_kouhyou_detail_004_kani=true&JigyosyoCd=2064090083-00&ServiceCd=130&Type=search", "url2": "https://firstnurse.co.jp/" }, "geometry": { "type": "Point", "coordinates": [ 137.903999, 36.300833 ] } },
{ "type": "Feature", "properties": { "内容": "看護小規模多機能集皆所ひだまり訪問看護ステーション【訪問看護】長野県安曇野市豊科高家７８１－１", "url": "https://www.kaigokensaku.mhlw.go.jp/20/index.php?action_kouhyou_detail_004_kani=true&JigyosyoCd=2064090109-00&ServiceCd=130&Type=search", "url2": "http://www.crew-g.co.jp/" }, "geometry": { "type": "Point", "coordinates": [ 137.928919103041068, 36.273041073815989 ] } },
{ "type": "Feature", "properties": { "内容": "ふぁーすとステーション追分【訪問看護】長野県安曇野市穂高北穂高2982-5", "url": "https://www.kaigokensaku.mhlw.go.jp/20/index.php?action_kouhyou_detail_004_kani=true&JigyosyoCd=2064090117-00&ServiceCd=130&Type=search", "url2": "https://oiwake-clinic.com/" }, "geometry": { "type": "Point", "coordinates": [ 137.874661401188661, 36.372181644270917 ] } },
{ "type": "Feature", "properties": { "内容": "安曇野北訪問看護ステーション【訪問看護】長野県安曇野市豊科５６３７番地１５", "url": "https://www.kaigokensaku.mhlw.go.jp/20/index.php?action_kouhyou_detail_004_kani=true&JigyosyoCd=2062890021-00&ServiceCd=130&Type=search", "url2": "https://www.shironishi.or.jp/sh/" }, "geometry": { "type": "Point", "coordinates": [ 137.904812200000038, 36.3034677 ] } },
{ "type": "Feature", "properties": { "内容": "安曇野南訪問看護ステーション【訪問看護】長野県安曇野市三郷小倉６０８６－２", "url": "https://www.kaigokensaku.mhlw.go.jp/20/index.php?action_kouhyou_detail_004_kani=true&JigyosyoCd=2062890013-00&ServiceCd=130&Type=search", "url2": "http://www.shironishi.or.jp" }, "geometry": { "type": "Point", "coordinates": [ 137.856931499999973, 36.2527162 ] } },
{ "type": "Feature", "properties": { "内容": "篠﨑訪問看護ステーション【訪問看護】長野県安曇野市豊科高家５０８９番地1", "url": "https://www.kaigokensaku.mhlw.go.jp/20/index.php?action_kouhyou_detail_004_kani=true&JigyosyoCd=2062890088-00&ServiceCd=130&Type=search", "url2": "https://soegi.com/" }, "geometry": { "type": "Point", "coordinates": [ 137.918796199999946, 36.258142 ] } },
{ "type": "Feature", "properties": { "内容": "安曇野赤十字訪問看護ステーション【訪問看護】長野県安曇野市豊科5685安曇野赤十字病院内", "url": "https://www.kaigokensaku.mhlw.go.jp/20/index.php?action_kouhyou_detail_004_kani=true&JigyosyoCd=2062890039-00&ServiceCd=130&Type=search", "url2": "http://www.azumino.jrc.or.jp/" }, "geometry": { "type": "Point", "coordinates": [ 137.90785649999998, 36.3027123 ] } },
{ "type": "Feature", "properties": { "内容": "安曇野市社協訪問看護ステーション【訪問看護】長野県安曇野市穂高5808-1", "url": "https://www.kaigokensaku.mhlw.go.jp/20/index.php?action_kouhyou_detail_004_kani=true&JigyosyoCd=2062890070-00&ServiceCd=130&Type=search", "url2": "http://azuminoshakyo.jp" }, "geometry": { "type": "Point", "coordinates": [ 137.870917, 36.3379931 ] } },
{ "type": "Feature", "properties": { "内容": "訪問看護ステーションつばさ【訪問看護】長野県安曇野市堀金三田964-3", "url": "https://www.kaigokensaku.mhlw.go.jp/20/index.php?action_kouhyou_detail_004_kani=true&JigyosyoCd=2064090018-00&ServiceCd=130&Type=search", "url2": "http://www.soumeikai.net/" }, "geometry": { "type": "Point", "coordinates": [ 137.862776462537113, 36.286147196724194 ] } },
{ "type": "Feature", "properties": { "内容": "訪問看護ステーションアイ・ユーほたか【訪問看護】長野県安曇野市穂高4563番地7", "url": "https://www.kaigokensaku.mhlw.go.jp/20/index.php?action_kouhyou_detail_004_kani=true&JigyosyoCd=2062890047-00&ServiceCd=130&Type=search", "url2": "http://www.e-office.gr.jp/i-you-hotaka/" }, "geometry": { "type": "Point", "coordinates": [ 137.886155236770605, 36.342954937138863 ] } },
{ "type": "Feature", "properties": { "内容": "相澤訪問看護ステーションひまわり安曇野【訪問看護】長野県安曇野市穂高787", "url": "https://www.kaigokensaku.mhlw.go.jp/20/index.php?action_kouhyou_detail_004_kani=true&JigyosyoCd=2064090091-00&ServiceCd=130&Type=search", "url2": "https://jisenkai.aizawahospital.jp/home_medical" }, "geometry": { "type": "Point", "coordinates": [ 137.8938004, 36.323641500000015 ] } },
{ "type": "Feature", "properties": { "内容": "訪問看護ステーションわらわ【訪問看護】長野県安曇野市穂高8307-3", "url": "https://www.kaigokensaku.mhlw.go.jp/20/index.php?action_kouhyou_detail_004_kani=true&JigyosyoCd=2064090067-00&ServiceCd=130&Type=search", "url2": "https://houmonkango-st-warawa.jimdofree.com" }, "geometry": { "type": "Point", "coordinates": [ 137.8670759, 36.336438 ] } },
{ "type": "Feature", "properties": { "内容": "訪問看護ステーションあかつき【訪問看護】長野県安曇野市穂高北穂高２２６４番地４３", "url": "https://www.kaigokensaku.mhlw.go.jp/20/index.php?action_kouhyou_detail_004_kani=true&JigyosyoCd=2064090133-00&ServiceCd=130&Type=search", "url2": "convivial-inc.jp" }, "geometry": { "type": "Point", "coordinates": [ 137.8790787, 36.35811 ] } },
{ "type": "Feature", "properties": { "内容": "訪問看護ステーションとんび　安曇野【訪問看護】長野県安曇野市穂高1380はうすあづみB206号室", "url": "https://www.kaigokensaku.mhlw.go.jp/20/index.php?action_kouhyou_detail_004_kani=true&JigyosyoCd=2064090125-00&ServiceCd=130&Type=search", "url2": "https://ums-gr.jp/" }, "geometry": { "type": "Point", "coordinates": [ 137.893603, 36.3278689 ] } },
{ "type": "Feature", "properties": { "内容": "訪問看護ステーションれんげそう【訪問看護】長野県安曇野市三郷温4372-42", "url": "https://www.kaigokensaku.mhlw.go.jp/20/index.php?action_kouhyou_detail_004_kani=true&JigyosyoCd=2064090059-00&ServiceCd=130&Type=search", "url2": "https://www.kikou2007.co.jp/index.html" }, "geometry": { "type": "Point", "coordinates": [ 137.872703199999989, 36.2535106 ] } },
{ "type": "Feature", "properties": { "内容": "穂高病院訪問看護ステーションふるる【訪問看護】長野県安曇野市穂高4303-1　北棟２階", "url": "https://www.kaigokensaku.mhlw.go.jp/20/index.php?action_kouhyou_detail_004_kani=true&JigyosyoCd=2064090075-00&ServiceCd=130&Type=search", "url2": "https://hotaka-hospital.or.jp/department/fururu" }, "geometry": { "type": "Point", "coordinates": [ 137.888040653967295, 36.340795975370163 ] } },
{ "type": "Feature", "properties": { "内容": "訪問看護ステーションこうみ【訪問看護】長野県南佐久郡小海町小海4269番地9", "url": "https://www.kaigokensaku.mhlw.go.jp/20/index.php?action_kouhyou_detail_004_kani=true&JigyosyoCd=2062090051-00&ServiceCd=130&Type=search", "url2": null }, "geometry": { "type": "Point", "coordinates": [ 138.482394900000031, 36.0883338 ] } },
{ "type": "Feature", "properties": { "内容": "川上村訪問看護ステーション【訪問看護】長野県南佐久郡川上村大字原３０８", "url": "https://www.kaigokensaku.mhlw.go.jp/20/index.php?action_kouhyou_detail_004_kani=true&JigyosyoCd=2062090093-00&ServiceCd=130&Type=search", "url2": null }, "geometry": { "type": "Point", "coordinates": [ 138.546824300000026, 35.9687017 ] } },
{ "type": "Feature", "properties": { "内容": "南牧村出張診療所【訪問看護】長野県南佐久郡南牧村海ノ口９６６－３", "url": "https://www.kaigokensaku.mhlw.go.jp/20/index.php?action_kouhyou_detail_004_kani=true&JigyosyoCd=2012017139-00&ServiceCd=130&Type=search", "url2": null }, "geometry": { "type": "Point", "coordinates": [ 138.490918599999986, 36.021164 ] } },
{ "type": "Feature", "properties": { "内容": "どんぐりの森クリニック【訪問看護】長野県南佐久郡南牧村野辺山108-3", "url": "https://www.kaigokensaku.mhlw.go.jp/20/index.php?action_kouhyou_detail_004_kani=true&JigyosyoCd=2012017246-00&ServiceCd=130&Type=search", "url2": "girimori.jp" }, "geometry": { "type": "Point", "coordinates": [ 138.470542599999987, 35.9556414 ] } },
{ "type": "Feature", "properties": { "内容": "佐久穂町訪問看護ステーション【訪問看護】長野県南佐久郡佐久穂町大字高野町３２８番地", "url": "https://www.kaigokensaku.mhlw.go.jp/20/index.php?action_kouhyou_detail_004_kani=true&JigyosyoCd=2062090101-00&ServiceCd=130&Type=search", "url2": null }, "geometry": { "type": "Point", "coordinates": [ 138.477405299999987, 36.1618921 ] } },
{ "type": "Feature", "properties": { "内容": "訪問看護ステーションやちほ【訪問看護】長野県南佐久郡佐久穂町大字畑660番地", "url": "https://www.kaigokensaku.mhlw.go.jp/20/index.php?action_kouhyou_detail_004_kani=true&JigyosyoCd=2062090028-00&ServiceCd=130&Type=search", "url2": null }, "geometry": { "type": "Point", "coordinates": [ 138.471159199999988, 36.143355 ] } },
{ "type": "Feature", "properties": { "内容": "訪問看護ステーションかるいざわ【訪問看護】長野県北佐久郡軽井沢町大字長倉２３７５－１", "url": "https://www.kaigokensaku.mhlw.go.jp/20/index.php?action_kouhyou_detail_004_kani=true&JigyosyoCd=2062190067-00&ServiceCd=130&Type=search", "url2": "http://www.karuizawahospital.jp/archives/435" }, "geometry": { "type": "Point", "coordinates": [ 138.5983493, 36.3485874 ] } },
{ "type": "Feature", "properties": { "内容": "訪問看護ステーションほっちのロッヂ【訪問看護】長野県北佐久郡軽井沢町発地1274-113", "url": "https://www.kaigokensaku.mhlw.go.jp/20/index.php?action_kouhyou_detail_004_kani=true&JigyosyoCd=2062190117-00&ServiceCd=130&Type=search", "url2": "http://hotch-l.com" }, "geometry": { "type": "Point", "coordinates": [ 138.601147094165043, 36.319999878025655 ] } },
{ "type": "Feature", "properties": { "内容": "訪問看護ステーション　アピラ【訪問看護】長野県北佐久郡御代田町御代田4108-1430", "url": "https://www.kaigokensaku.mhlw.go.jp/20/index.php?action_kouhyou_detail_004_kani=true&JigyosyoCd=2062190125-00&ServiceCd=130&Type=search", "url2": null }, "geometry": { "type": "Point", "coordinates": [ 138.5262209, 36.3235836 ] } },
{ "type": "Feature", "properties": { "内容": "元気ステーション【訪問看護】長野県北佐久郡御代田町大字塩野1313", "url": "https://www.kaigokensaku.mhlw.go.jp/20/index.php?action_kouhyou_detail_004_kani=true&JigyosyoCd=2062190133-00&ServiceCd=130&Type=search", "url2": "genki-station.com" }, "geometry": { "type": "Point", "coordinates": [ 138.4972291, 36.3353465 ] } },
{ "type": "Feature", "properties": { "内容": "訪問看護ステーションよだくぼ【訪問看護】長野県小県郡長和町古町２８５７", "url": "https://www.kaigokensaku.mhlw.go.jp/20/index.php?action_kouhyou_detail_004_kani=true&JigyosyoCd=2062290107-00&ServiceCd=130&Type=search", "url2": "http://www.yodakubo-hp.jp/houmon/index.html" }, "geometry": { "type": "Point", "coordinates": [ 138.265640399999938, 36.2730132 ] } },
{ "type": "Feature", "properties": { "内容": "訪問看護ステーションはる【訪問看護】長野県小県郡長和町古町2609-12", "url": "https://www.kaigokensaku.mhlw.go.jp/20/index.php?action_kouhyou_detail_004_kani=true&JigyosyoCd=2062290131-00&ServiceCd=130&Type=search", "url2": null }, "geometry": { "type": "Point", "coordinates": [ 138.258374799999984, 36.271567 ] } },
{ "type": "Feature", "properties": { "内容": "yui訪問看護ステーション【訪問看護】長野県諏訪郡下諏訪町社6492-1", "url": "https://www.kaigokensaku.mhlw.go.jp/20/index.php?action_kouhyou_detail_004_kani=true&JigyosyoCd=2062390055-00&ServiceCd=130&Type=search", "url2": "https://yui.nagano-hcc.com" }, "geometry": { "type": "Point", "coordinates": [ 138.072837410596634, 36.082267820155849 ] } },
{ "type": "Feature", "properties": { "内容": "諏訪共立訪問看護ステーション【訪問看護】長野県諏訪郡下諏訪町西赤砂4429-6", "url": "https://www.kaigokensaku.mhlw.go.jp/20/index.php?action_kouhyou_detail_004_kani=true&JigyosyoCd=2062390014-00&ServiceCd=130&Type=search", "url2": "suwahoumonkangosuwa@gmail.com" }, "geometry": { "type": "Point", "coordinates": [ 138.078780953575574, 36.073360761466873 ] } },
{ "type": "Feature", "properties": { "内容": "訪問看護ステーションふじみ【訪問看護】長野県諏訪郡富士見町落合11106ｰ1老人保健施設あららぎ内", "url": "https://www.kaigokensaku.mhlw.go.jp/20/index.php?action_kouhyou_detail_004_kani=true&JigyosyoCd=2062390022-00&ServiceCd=130&Type=search", "url2": "https://fujimihp.com/facility/%e8%a8%aa%e5%95%8f%e7%9c%8b%e8%ad%b7%e3%82%b9%e3%83%86%e3%83%bc%e3%82%b7%e3%83%a7%e3%83%b3%e3%81%b5%e3%81%98%e3%81%bf/" }, "geometry": { "type": "Point", "coordinates": [ 138.243921747221407, 35.914842505867043 ] } },
{ "type": "Feature", "properties": { "内容": "辰野町訪問看護ステーション【訪問看護】長野県上伊那郡辰野町大字辰野1445番地5", "url": "https://www.kaigokensaku.mhlw.go.jp/20/index.php?action_kouhyou_detail_004_kani=true&JigyosyoCd=2062490012-00&ServiceCd=130&Type=search", "url2": "http://hosp.town.tatsuno.nagano.jp/homenursing.html" }, "geometry": { "type": "Point", "coordinates": [ 137.991373816363563, 35.984152493523005 ] } },
{ "type": "Feature", "properties": { "内容": "訪問看護ステーションふれあい【訪問看護】長野県上伊那郡箕輪町大字中箕輪８９４４－１", "url": "https://www.kaigokensaku.mhlw.go.jp/20/index.php?action_kouhyou_detail_004_kani=true&JigyosyoCd=2062490129-00&ServiceCd=130&Type=search", "url2": null }, "geometry": { "type": "Point", "coordinates": [ 137.9941665, 35.9085716 ] } },
{ "type": "Feature", "properties": { "内容": "訪問看護ステーションみどり【訪問看護】長野県上伊那郡箕輪町大字中箕輪11329-1", "url": "https://www.kaigokensaku.mhlw.go.jp/20/index.php?action_kouhyou_detail_004_kani=true&JigyosyoCd=2062490020-00&ServiceCd=130&Type=search", "url2": "https://www.kamiina-mcoop.com/minowa-pages/minowa-cs-midori" }, "geometry": { "type": "Point", "coordinates": [ 137.992134152231301, 35.902536408860009 ] } },
{ "type": "Feature", "properties": { "内容": "医療法人　日聖会　　南向診療所【訪問看護】長野県上伊那郡中川村大草4037-1", "url": "https://www.kaigokensaku.mhlw.go.jp/20/index.php?action_kouhyou_detail_004_kani=true&JigyosyoCd=2012417479-00&ServiceCd=130&Type=search", "url2": "minakata-clinic.jp/" }, "geometry": { "type": "Point", "coordinates": [ 137.9451297, 35.6346615 ] } },
{ "type": "Feature", "properties": { "内容": "訪問看護ステーションぽれぽれ【訪問看護】長野県上伊那郡中川村大草3280-7", "url": "https://www.kaigokensaku.mhlw.go.jp/20/index.php?action_kouhyou_detail_004_kani=true&JigyosyoCd=2062490145-00&ServiceCd=130&Type=search", "url2": "https://www.poreporenakagawa-homonkango.com/" }, "geometry": { "type": "Point", "coordinates": [ 137.944453, 35.6410906 ] } },
{ "type": "Feature", "properties": { "内容": "下伊那赤十字訪問看護ステーション【訪問看護】長野県下伊那郡松川町元大島３１５９－１", "url": "https://www.kaigokensaku.mhlw.go.jp/20/index.php?action_kouhyou_detail_004_kani=true&JigyosyoCd=2062590043-00&ServiceCd=130&Type=search", "url2": "https://shimoina.jrc.or.jp/" }, "geometry": { "type": "Point", "coordinates": [ 137.911455599999954, 35.6001914 ] } },
{ "type": "Feature", "properties": { "内容": "円会訪問看護ステーション【訪問看護】長野県下伊那郡高森町牛牧２４６８－４", "url": "https://www.kaigokensaku.mhlw.go.jp/20/index.php?action_kouhyou_detail_004_kani=true&JigyosyoCd=2062590027-00&ServiceCd=130&Type=search", "url2": null }, "geometry": { "type": "Point", "coordinates": [ 137.852089, 35.5606287 ] } },
{ "type": "Feature", "properties": { "内容": "訪問看護ステーションふれあい【訪問看護】長野県下伊那郡高森町吉田４８１番地１３", "url": "https://www.kaigokensaku.mhlw.go.jp/20/index.php?action_kouhyou_detail_004_kani=true&JigyosyoCd=2062590019-00&ServiceCd=130&Type=search", "url2": "https://shimoina-hp.jp/" }, "geometry": { "type": "Point", "coordinates": [ 137.888529084794669, 35.551099339649042 ] } },
{ "type": "Feature", "properties": { "内容": "長野県立阿南病院訪問看護ステーションさくら【訪問看護】長野県下伊那郡阿南町北條2009-1", "url": "https://www.kaigokensaku.mhlw.go.jp/20/index.php?action_kouhyou_detail_004_kani=true&JigyosyoCd=2062590084-00&ServiceCd=130&Type=search", "url2": "http://anan-hosp.jp/sakura/index.html" }, "geometry": { "type": "Point", "coordinates": [ 137.834767213211791, 35.334353991912181 ] } },
{ "type": "Feature", "properties": { "内容": "あち訪問看護ステーション【訪問看護】長野県下伊那郡阿智村駒場447番地2", "url": "https://www.kaigokensaku.mhlw.go.jp/20/index.php?action_kouhyou_detail_004_kani=true&JigyosyoCd=2062590068-00&ServiceCd=130&Type=search", "url2": null }, "geometry": { "type": "Point", "coordinates": [ 137.7462686, 35.4455377 ] } },
{ "type": "Feature", "properties": { "内容": "泰阜村診療所【訪問看護】長野県下伊那郡泰阜村3256番地1", "url": "https://www.kaigokensaku.mhlw.go.jp/20/index.php?action_kouhyou_detail_004_kani=true&JigyosyoCd=2012517096-00&ServiceCd=130&Type=search", "url2": null }, "geometry": { "type": "Point", "coordinates": [ 137.844877627613869, 35.376948961986784 ] } },
{ "type": "Feature", "properties": { "内容": "長野県立木曽病院訪問看護ステーション　ウイライフきそ【訪問看護】長野県木曽郡木曽福島町6613番地4", "url": "https://www.kaigokensaku.mhlw.go.jp/20/index.php?action_kouhyou_detail_004_kani=true&JigyosyoCd=2062690041-00&ServiceCd=130&Type=search", "url2": "https：//kiso-hosp.jp/" }, "geometry": { "type": "Point", "coordinates": [ 137.683973, 35.8355394 ] } },
{ "type": "Feature", "properties": { "内容": "公益社団法人長野県看護協会木曽訪問看護ステーション【訪問看護】長野県木曽郡木曽町日義４８５２－１", "url": "https://www.kaigokensaku.mhlw.go.jp/20/index.php?action_kouhyou_detail_004_kani=true&JigyosyoCd=2062690017-00&ServiceCd=130&Type=search", "url2": "http://nursen.or.jp/index.php/home-nurse-map" }, "geometry": { "type": "Point", "coordinates": [ 137.737842099999966, 35.8643428 ] } },
{ "type": "Feature", "properties": { "内容": "横山医院【訪問看護】長野県東筑摩郡山形村中原３９１６", "url": "https://www.kaigokensaku.mhlw.go.jp/20/index.php?action_kouhyou_detail_004_kani=true&JigyosyoCd=2012717084-00&ServiceCd=130&Type=search", "url2": "http://y-yokoyamaiin.com/" }, "geometry": { "type": "Point", "coordinates": [ 137.87614586148527, 36.167468945483165 ] } },
{ "type": "Feature", "properties": { "内容": "訪問看護ステーションいやし【訪問看護】長野県北安曇郡池田町大字池田3207-1", "url": "https://www.kaigokensaku.mhlw.go.jp/20/index.php?action_kouhyou_detail_004_kani=true&JigyosyoCd=2062990052-00&ServiceCd=130&Type=search", "url2": "https://www.azumi-ghp.jp/" }, "geometry": { "type": "Point", "coordinates": [ 137.873068699999976, 36.421368200000011 ] } },
{ "type": "Feature", "properties": { "内容": "訪問看護ステーションあづみ【訪問看護】長野県北安曇郡池田町大字池田3207-1", "url": "https://www.kaigokensaku.mhlw.go.jp/20/index.php?action_kouhyou_detail_004_kani=true&JigyosyoCd=2062990011-00&ServiceCd=130&Type=search", "url2": "https://www.azumi-ghp.jp/" }, "geometry": { "type": "Point", "coordinates": [ 137.873040899999978, 36.4213488 ] } },
{ "type": "Feature", "properties": { "内容": "訪問看護ステーションフローラ【訪問看護】長野県北安曇郡池田町大字会染　8660-1", "url": "https://www.kaigokensaku.mhlw.go.jp/20/index.php?action_kouhyou_detail_004_kani=true&JigyosyoCd=2062990060-00&ServiceCd=130&Type=search", "url2": null }, "geometry": { "type": "Point", "coordinates": [ 137.889256599999953, 36.3846598 ] } },
{ "type": "Feature", "properties": { "内容": "いけだ訪問看護ステーション【訪問看護】長野県北安曇郡池田町大字池田２００５番地１池田町", "url": "https://www.kaigokensaku.mhlw.go.jp/20/index.php?action_kouhyou_detail_004_kani=true&JigyosyoCd=2062990037-00&ServiceCd=130&Type=search", "url2": "http://www.ikedashakyo.or.jp/010-4.html" }, "geometry": { "type": "Point", "coordinates": [ 137.879204399999907, 36.4227682 ] } },
{ "type": "Feature", "properties": { "内容": "訪問看護ステーション　リーベまつかわ【訪問看護】長野県北安曇郡松川村5689-77", "url": "https://www.kaigokensaku.mhlw.go.jp/20/index.php?action_kouhyou_detail_004_kani=true&JigyosyoCd=2062990078-00&ServiceCd=130&Type=search", "url2": "http://www.kita-alps.org/" }, "geometry": { "type": "Point", "coordinates": [ 137.861172787745915, 36.412049194292713 ] } },
{ "type": "Feature", "properties": { "内容": "訪問看護ステーションはくば【訪問看護】長野県北安曇郡白馬村大字神城21551", "url": "https://www.kaigokensaku.mhlw.go.jp/20/index.php?action_kouhyou_detail_004_kani=true&JigyosyoCd=2062990029-00&ServiceCd=130&Type=search", "url2": "https://www.azumi-ghp.jp/" }, "geometry": { "type": "Point", "coordinates": [ 137.845566599999984, 36.6523706 ] } },
{ "type": "Feature", "properties": { "内容": "川西医院訪問看護ステーション【訪問看護】長野県埴科郡坂城町中之条872", "url": "https://www.kaigokensaku.mhlw.go.jp/20/index.php?action_kouhyou_detail_004_kani=true&JigyosyoCd=2063190025-00&ServiceCd=130&Type=search", "url2": "https://www.koujin-kai.or.jp/" }, "geometry": { "type": "Point", "coordinates": [ 138.189440499999989, 36.4493293 ] } },
{ "type": "Feature", "properties": { "内容": "訪問看護ステーションつぼみ【訪問看護】長野県上高井郡小布施町小布施581番地", "url": "https://www.kaigokensaku.mhlw.go.jp/20/index.php?action_kouhyou_detail_004_kani=true&JigyosyoCd=2063290080-00&ServiceCd=130&Type=search", "url2": "https://www.newlife.or.jp/newlife_group/information/2025/08/post-84.php" }, "geometry": { "type": "Point", "coordinates": [ 138.317536600000011, 36.6986401 ] } },
{ "type": "Feature", "properties": { "内容": "パウル会訪問看護ステーション希望【訪問看護】長野県上高井郡小布施町大字小布施851番地の4", "url": "https://www.kaigokensaku.mhlw.go.jp/20/index.php?action_kouhyou_detail_004_kani=true&JigyosyoCd=2063290072-00&ServiceCd=130&Type=search", "url2": "http://powell.newlife.or.jp" }, "geometry": { "type": "Point", "coordinates": [ 138.317810374433833, 36.69009263474512 ] } },
{ "type": "Feature", "properties": { "内容": "訪問看護ステーションたかやしろ【訪問看護】長野県下高井郡山ノ内町大字夜間瀬２４４９－２", "url": "https://www.kaigokensaku.mhlw.go.jp/20/index.php?action_kouhyou_detail_004_kani=true&JigyosyoCd=2063390039-00&ServiceCd=130&Type=search", "url2": null }, "geometry": { "type": "Point", "coordinates": [ 138.3993302, 36.7620257 ] } },
{ "type": "Feature", "properties": { "内容": "むすび野訪問看護ステーション【訪問看護】長野県上水内郡信濃町古間８８０－２", "url": "https://www.kaigokensaku.mhlw.go.jp/20/index.php?action_kouhyou_detail_004_kani=true&JigyosyoCd=2063490060-00&ServiceCd=130&Type=search", "url2": "https://g-musubino.com" }, "geometry": { "type": "Point", "coordinates": [ 138.237474905953491, 36.789894175195762 ] } },
{ "type": "Feature", "properties": { "内容": "飯綱訪問看護ステーション【訪問看護】長野県上水内郡飯綱町牟礼２２２０", "url": "https://www.kaigokensaku.mhlw.go.jp/20/index.php?action_kouhyou_detail_004_kani=true&JigyosyoCd=2063490052-00&ServiceCd=130&Type=search", "url2": null }, "geometry": { "type": "Point", "coordinates": [ 138.235775099999955, 36.7493806 ] } }
]
}
