{
"type": "FeatureCollection",
"name": "geo_20_介護医療院",
"crs": { "type": "name", "properties": { "name": "urn:ogc:def:crs:OGC:1.3:CRS84" } },
"features": [
{ "type": "Feature", "properties": { "内容": "介護医療院とよの【介護医療院】長野県長野市豊野町豊野634", "url": "https://www.kaigokensaku.mhlw.go.jp/20/index.php?action_kouhyou_detail_004_kani=true&JigyosyoCd=20B0100018-00&ServiceCd=550&Type=search", "url2": "https://san-ikukai.or.jp/toyono/" }, "geometry": { "type": "Point", "coordinates": [ 138.2827552, 36.7107324 ] } },
{ "type": "Feature", "properties": { "内容": "医療法人社団温心会　東和田病院介護医療院【介護医療院】長野県長野市東和田723番地", "url": "https://www.kaigokensaku.mhlw.go.jp/20/index.php?action_kouhyou_detail_004_kani=true&JigyosyoCd=20B0100026-00&ServiceCd=550&Type=search", "url2": "http://www.higashiwada-h.com/" }, "geometry": { "type": "Point", "coordinates": [ 138.2296317, 36.6535301 ] } },
{ "type": "Feature", "properties": { "内容": "社会医療法人城西医療財団城西病院介護医療院【介護医療院】長野県松本市城西1丁目5番16号", "url": "https://www.kaigokensaku.mhlw.go.jp/20/index.php?action_kouhyou_detail_004_kani=true&JigyosyoCd=20B0200016-00&ServiceCd=550&Type=search", "url2": "http://www.shironishi.or.jp/sh/" }, "geometry": { "type": "Point", "coordinates": [ 137.9624723, 36.239485099999982 ] } },
{ "type": "Feature", "properties": { "内容": "医療法人心泉会上條記念病院【介護医療院】長野県松本市村井町西2-16-1", "url": "https://www.kaigokensaku.mhlw.go.jp/20/index.php?action_kouhyou_detail_004_kani=true&JigyosyoCd=2010217335-00&ServiceCd=550&Type=search", "url2": "http://www.kamijyomhp.or.jp/" }, "geometry": { "type": "Point", "coordinates": [ 137.9474622, 36.1723094 ] } },
{ "type": "Feature", "properties": { "内容": "丸子中央病院【介護医療院】長野県上田市中丸子1771番地1", "url": "https://www.kaigokensaku.mhlw.go.jp/20/index.php?action_kouhyou_detail_004_kani=true&JigyosyoCd=20B0300014-00&ServiceCd=550&Type=search", "url2": "http://maruyamakai.or.jp/maruko-hp/" }, "geometry": { "type": "Point", "coordinates": [ 138.270306299999987, 36.338161 ] } },
{ "type": "Feature", "properties": { "内容": "介護医療院　西澤病院【介護医療院】長野県飯田市本町4丁目5番地", "url": "https://www.kaigokensaku.mhlw.go.jp/20/index.php?action_kouhyou_detail_004_kani=true&JigyosyoCd=20B0500019-00&ServiceCd=550&Type=search", "url2": "https://nishizawa-hp.jp/" }, "geometry": { "type": "Point", "coordinates": [ 137.8216253, 35.517001 ] } },
{ "type": "Feature", "properties": { "内容": "小諸病院介護医療院【介護医療院】長野県小諸市荒町2丁目1-1", "url": "https://www.kaigokensaku.mhlw.go.jp/20/index.php?action_kouhyou_detail_004_kani=true&JigyosyoCd=20B0800021-00&ServiceCd=550&Type=search", "url2": "http://komoro-hosp.jp/" }, "geometry": { "type": "Point", "coordinates": [ 138.426874893254052, 36.326224131297515 ] } },
{ "type": "Feature", "properties": { "内容": "介護医療院じんあい【介護医療院】長野県伊那市西町4906", "url": "https://www.kaigokensaku.mhlw.go.jp/20/index.php?action_kouhyou_detail_004_kani=true&JigyosyoCd=20B0900011-00&ServiceCd=550&Type=search", "url2": "https://jinai-h.org" }, "geometry": { "type": "Point", "coordinates": [ 137.958003258999668, 35.836059075332656 ] } },
{ "type": "Feature", "properties": { "内容": "介護医療院　長寿の里【介護医療院】長野県中野市上今井601", "url": "https://www.kaigokensaku.mhlw.go.jp/20/index.php?action_kouhyou_detail_004_kani=true&JigyosyoCd=20B1100017-00&ServiceCd=550&Type=search", "url2": "https://issh.jp/chojyu/index.html" }, "geometry": { "type": "Point", "coordinates": [ 138.3188329, 36.7508669 ] } },
{ "type": "Feature", "properties": { "内容": "医療法人元山会中村病院介護医療院えんらいふ【介護医療院】長野県塩尻市広丘高出1612番地3", "url": "https://www.kaigokensaku.mhlw.go.jp/20/index.php?action_kouhyou_detail_004_kani=true&JigyosyoCd=20B1500026-00&ServiceCd=550&Type=search", "url2": "http://www.nakamura-hospital.jp/" }, "geometry": { "type": "Point", "coordinates": [ 137.958335, 36.1218949 ] } },
{ "type": "Feature", "properties": { "内容": "医療法人社団敬仁会　介護医療院　添え木【介護医療院】長野県塩尻市宗賀1295番地", "url": "https://www.kaigokensaku.mhlw.go.jp/20/index.php?action_kouhyou_detail_004_kani=true&JigyosyoCd=20B1500018-00&ServiceCd=550&Type=search", "url2": "https://www.keijin-kai.jp/" }, "geometry": { "type": "Point", "coordinates": [ 137.9324494, 36.1112491 ] } },
{ "type": "Feature", "properties": { "内容": "金澤病院　介護医療院【介護医療院】長野県佐久市岩村田８０４番地", "url": "https://www.kaigokensaku.mhlw.go.jp/20/index.php?action_kouhyou_detail_004_kani=true&JigyosyoCd=20B1700014-00&ServiceCd=550&Type=search", "url2": "https//kanazawa-kaigo.jp" }, "geometry": { "type": "Point", "coordinates": [ 138.4786868, 36.2745389 ] } },
{ "type": "Feature", "properties": { "内容": "佐久穂町立千曲病院介護医療院【介護医療院】長野県南佐久郡佐久穂町大字高野町３２８佐久穂町立千曲病院", "url": "https://www.kaigokensaku.mhlw.go.jp/20/index.php?action_kouhyou_detail_004_kani=true&JigyosyoCd=20B2000018-00&ServiceCd=550&Type=search", "url2": "https://www.chikumahospital.jp/" }, "geometry": { "type": "Point", "coordinates": [ 138.4774165, 36.161831 ] } },
{ "type": "Feature", "properties": { "内容": "軽井沢西部総合病院　介護医療院【介護医療院】長野県北佐久郡御代田町大字御代田4107-40", "url": "https://www.kaigokensaku.mhlw.go.jp/20/index.php?action_kouhyou_detail_004_kani=true&JigyosyoCd=20B2100016-00&ServiceCd=550&Type=search", "url2": "https://miyotahp.jp" }, "geometry": { "type": "Point", "coordinates": [ 138.5153627, 36.311661 ] } },
{ "type": "Feature", "properties": { "内容": "下伊那赤十字病院介護医療院【介護医療院】長野県下伊那郡松川町元大島3159-1", "url": "https://www.kaigokensaku.mhlw.go.jp/20/index.php?action_kouhyou_detail_004_kani=true&JigyosyoCd=20B2500033-00&ServiceCd=550&Type=search", "url2": "https://shimoina.jrc.or.jp/" }, "geometry": { "type": "Point", "coordinates": [ 137.910884399999986, 35.6002061 ] } },
{ "type": "Feature", "properties": { "内容": "下伊那厚生病院介護医療院【介護医療院】長野県下伊那郡高森町吉田481番地13", "url": "https://www.kaigokensaku.mhlw.go.jp/20/index.php?action_kouhyou_detail_004_kani=true&JigyosyoCd=20B2500017-00&ServiceCd=550&Type=search", "url2": "http://shimoina-hp.jp/" }, "geometry": { "type": "Point", "coordinates": [ 137.888671499999987, 35.5511657 ] } },
{ "type": "Feature", "properties": { "内容": "介護医療院　橋上医院【介護医療院】長野県下伊那郡阿智村駒場359番地1", "url": "https://www.kaigokensaku.mhlw.go.jp/20/index.php?action_kouhyou_detail_004_kani=true&JigyosyoCd=20B2500025-00&ServiceCd=550&Type=search", "url2": "alten-hein.com" }, "geometry": { "type": "Point", "coordinates": [ 137.750110288839835, 35.445933099371366 ] } },
{ "type": "Feature", "properties": { "内容": "長野県立木曽病院介護医療院【介護医療院】長野県木曽郡木曽町福島６６１３－４", "url": "https://www.kaigokensaku.mhlw.go.jp/20/index.php?action_kouhyou_detail_004_kani=true&JigyosyoCd=20B2600015-00&ServiceCd=550&Type=search", "url2": "https://kiso-hosp.jp/" }, "geometry": { "type": "Point", "coordinates": [ 137.683400799999987, 35.8347978 ] } }
]
}
