{
"type": "FeatureCollection",
"name": "geo_20_特定施設入居者生活介護（有料老人ホーム）",
"crs": { "type": "name", "properties": { "name": "urn:ogc:def:crs:OGC:1.3:CRS84" } },
"features": [
{ "type": "Feature", "properties": { "内容": "尚和寮【特定施設入居者生活介護（有料老人ホーム）】長野県長野市松代町東条９４－１", "url": "https://www.kaigokensaku.mhlw.go.jp/20/index.php?action_kouhyou_detail_004_kani=true&JigyosyoCd=2070101551-00&ServiceCd=331&Type=search", "url2": "http://nagano-shajikyo.or.jp/nsjk/syouwa/index" }, "geometry": { "type": "Point", "coordinates": [ 138.212553500000013, 36.565994 ] } },
{ "type": "Feature", "properties": { "内容": "特定施設入居者生活介護事業所　松寿荘【特定施設入居者生活介護（有料老人ホーム）】長野県長野市上野2-120-4長野広域連合松寿荘", "url": "https://www.kaigokensaku.mhlw.go.jp/20/index.php?action_kouhyou_detail_004_kani=true&JigyosyoCd=2070103235-00&ServiceCd=331&Type=search", "url2": "http://www.area-nagano.jp" }, "geometry": { "type": "Point", "coordinates": [ 138.235016, 36.6863763 ] } },
{ "type": "Feature", "properties": { "内容": "介護付き有料老人ホームぬくもりの里篠ノ井【特定施設入居者生活介護（有料老人ホーム）】長野県長野市篠ノ井布施高田747介護付き有料老人ホーム　ぬくもりの里篠ノ井", "url": "https://www.kaigokensaku.mhlw.go.jp/20/index.php?action_kouhyou_detail_004_kani=true&JigyosyoCd=2070107335-00&ServiceCd=331&Type=search", "url2": "https://www.serita-fukushi.or.jp" }, "geometry": { "type": "Point", "coordinates": [ 138.145912362565639, 36.578773717524278 ] } },
{ "type": "Feature", "properties": { "内容": "介護付有料老人ホーム光和【特定施設入居者生活介護（有料老人ホーム）】長野市三輪1317‐10", "url": "https://www.kaigokensaku.mhlw.go.jp/20/index.php?action_kouhyou_detail_004_kani=true&JigyosyoCd=2070108002-00&ServiceCd=331&Type=search", "url2": "http://tokuyou.kowa-fukushi.or.jp/" }, "geometry": { "type": "Point", "coordinates": [ 138.1925301, 36.6553424 ] } },
{ "type": "Feature", "properties": { "内容": "コンフォートごんどう【特定施設入居者生活介護（有料老人ホーム）】長野県長野市大字鶴賀1484-5", "url": "https://www.kaigokensaku.mhlw.go.jp/20/index.php?action_kouhyou_detail_004_kani=true&JigyosyoCd=2070107673-00&ServiceCd=331&Type=search", "url2": "https://www.keiseikai-group.org/" }, "geometry": { "type": "Point", "coordinates": [ 138.193238400000013, 36.6532657 ] } },
{ "type": "Feature", "properties": { "内容": "介護付有料老人ホームあたご【特定施設入居者生活介護（有料老人ホーム）】長野県長野市三輪10-4-18", "url": "https://www.kaigokensaku.mhlw.go.jp/20/index.php?action_kouhyou_detail_004_kani=true&JigyosyoCd=2070100850-00&ServiceCd=331&Type=search", "url2": "https://www.atagogakuen.jp/" }, "geometry": { "type": "Point", "coordinates": [ 138.204422499999964, 36.6709048 ] } },
{ "type": "Feature", "properties": { "内容": "介護付き有料老人ホームぬくもりの里栗田【特定施設入居者生活介護（有料老人ホーム）】長野県長野市大字栗田72-19", "url": "https://www.kaigokensaku.mhlw.go.jp/20/index.php?action_kouhyou_detail_004_kani=true&JigyosyoCd=2070107574-00&ServiceCd=331&Type=search", "url2": "https://www.serita-fukushi.or.jp/kurita.html" }, "geometry": { "type": "Point", "coordinates": [ 138.196677346032686, 36.634927104502246 ] } },
{ "type": "Feature", "properties": { "内容": "介護付き有料老人ホームアムール尾張部【特定施設入居者生活介護（有料老人ホーム）】長野県長野市大字北尾張部７０７番地3", "url": "https://www.kaigokensaku.mhlw.go.jp/20/index.php?action_kouhyou_detail_004_kani=true&JigyosyoCd=2070106287-00&ServiceCd=331&Type=search", "url2": "http://hi-danke.com/" }, "geometry": { "type": "Point", "coordinates": [ 138.234222, 36.653853 ] } },
{ "type": "Feature", "properties": { "内容": "介護付有料老人ホーム　セラピア栗田【特定施設入居者生活介護（有料老人ホーム）】長野県長野市栗田314-11介護付有料老人ホーム　セラピア栗田", "url": "https://www.kaigokensaku.mhlw.go.jp/20/index.php?action_kouhyou_detail_004_kani=true&JigyosyoCd=2070107590-00&ServiceCd=331&Type=search", "url2": "https://minamifukushi.or.jp/" }, "geometry": { "type": "Point", "coordinates": [ 138.1905136, 36.6374313 ] } },
{ "type": "Feature", "properties": { "内容": "ソラーナ上町【特定施設入居者生活介護（有料老人ホーム）】長野県長野市吉田1-14-33", "url": "https://www.kaigokensaku.mhlw.go.jp/20/index.php?action_kouhyou_detail_004_kani=true&JigyosyoCd=2070107343-00&ServiceCd=331&Type=search", "url2": null }, "geometry": { "type": "Point", "coordinates": [ 138.2140236, 36.6677369 ] } },
{ "type": "Feature", "properties": { "内容": "介護付有料老人ホームぬくもりの里今井【特定施設入居者生活介護（有料老人ホーム）】長野県長野市川中島町原131番地1", "url": "https://www.kaigokensaku.mhlw.go.jp/20/index.php?action_kouhyou_detail_004_kani=true&JigyosyoCd=2070108028-00&ServiceCd=331&Type=search", "url2": "https://www.serita-fukushi.or.jp/" }, "geometry": { "type": "Point", "coordinates": [ 138.14751869882403, 36.588644531892349 ] } },
{ "type": "Feature", "properties": { "内容": "ヒューマンヘリテージ稲里【特定施設入居者生活介護（有料老人ホーム）】長野県長野市稲里町中氷鉋1080番地", "url": "https://www.kaigokensaku.mhlw.go.jp/20/index.php?action_kouhyou_detail_004_kani=true&JigyosyoCd=2070102328-00&ServiceCd=331&Type=search", "url2": "http://www.humanheritage.net/" }, "geometry": { "type": "Point", "coordinates": [ 138.173254400000019, 36.6098372 ] } },
{ "type": "Feature", "properties": { "内容": "ヒューマンヘリテージ川中島【特定施設入居者生活介護（有料老人ホーム）】長野県長野市神明181", "url": "https://www.kaigokensaku.mhlw.go.jp/20/index.php?action_kouhyou_detail_004_kani=true&JigyosyoCd=2070104274-00&ServiceCd=331&Type=search", "url2": "http://www.humanheritage.net/" }, "geometry": { "type": "Point", "coordinates": [ 138.18183769999996, 36.5867064 ] } },
{ "type": "Feature", "properties": { "内容": "ケアビレッジ銀乃扇【特定施設入居者生活介護（有料老人ホーム）】長野県長野市大字西尾張部1089番地8ケアビレッジ銀乃扇", "url": "https://www.kaigokensaku.mhlw.go.jp/20/index.php?action_kouhyou_detail_004_kani=true&JigyosyoCd=2070106477-00&ServiceCd=331&Type=search", "url2": "https://www.ginno-ougi.jp" }, "geometry": { "type": "Point", "coordinates": [ 138.229005599999937, 36.6494621 ] } },
{ "type": "Feature", "properties": { "内容": "ニチイケアセンター長野南【特定施設入居者生活介護（有料老人ホーム）】長野県長野市篠ノ井御幣川305－1", "url": "https://www.kaigokensaku.mhlw.go.jp/20/index.php?action_kouhyou_detail_004_kani=true&JigyosyoCd=2070104183-00&ServiceCd=331&Type=search", "url2": "http://www.nichiigakkan.co.jp/" }, "geometry": { "type": "Point", "coordinates": [ 138.1385682, 36.5760033 ] } },
{ "type": "Feature", "properties": { "内容": "ケアライフ柳原第2【特定施設入居者生活介護（有料老人ホーム）】長野県長野市柳原2223-1", "url": "https://www.kaigokensaku.mhlw.go.jp/20/index.php?action_kouhyou_detail_004_kani=true&JigyosyoCd=2070107095-00&ServiceCd=331&Type=search", "url2": "http://www.fb-kaigo.co.jp/" }, "geometry": { "type": "Point", "coordinates": [ 138.25959720000003, 36.664976421136224 ] } },
{ "type": "Feature", "properties": { "内容": "介護付有料老人ホームシニアパレスレインボー【特定施設入居者生活介護（有料老人ホーム）】長野県長野市大字吉1823-2", "url": "https://www.kaigokensaku.mhlw.go.jp/20/index.php?action_kouhyou_detail_004_kani=true&JigyosyoCd=2070103672-00&ServiceCd=331&Type=search", "url2": "http://w2.avis.ne.jp/~harmony/" }, "geometry": { "type": "Point", "coordinates": [ 138.240109599999982, 36.698878 ] } },
{ "type": "Feature", "properties": { "内容": "介護付有料老人ホーム　あいらの杜篠ノ井駅前【特定施設入居者生活介護（有料老人ホーム）】長野県長野市篠ノ井布施高田798-3", "url": "https://www.kaigokensaku.mhlw.go.jp/20/index.php?action_kouhyou_detail_004_kani=true&JigyosyoCd=2070107046-00&ServiceCd=331&Type=search", "url2": null }, "geometry": { "type": "Point", "coordinates": [ 138.142131599999971, 36.5766755 ] } },
{ "type": "Feature", "properties": { "内容": "特定施設里山辺の杜【特定施設入居者生活介護（有料老人ホーム）】長野県松本市里山辺76-1", "url": "https://www.kaigokensaku.mhlw.go.jp/20/index.php?action_kouhyou_detail_004_kani=true&JigyosyoCd=2070202763-00&ServiceCd=331&Type=search", "url2": "http:/www.taishikai.or.jp" }, "geometry": { "type": "Point", "coordinates": [ 137.9980966, 36.2467377 ] } },
{ "type": "Feature", "properties": { "内容": "有料老人ホームサングリーン藤ケ原【特定施設入居者生活介護（有料老人ホーム）】長野県松本市大字里山辺1832番地2", "url": "https://www.kaigokensaku.mhlw.go.jp/20/index.php?action_kouhyou_detail_004_kani=true&JigyosyoCd=2070203159-00&ServiceCd=331&Type=search", "url2": "http://www.sun-green-fujigahara.com" }, "geometry": { "type": "Point", "coordinates": [ 138.002730400000019, 36.2403837 ] } },
{ "type": "Feature", "properties": { "内容": "ラ・ナシカ　まつもと弐番館【特定施設入居者生活介護（有料老人ホーム）】長野県松本市並柳一丁目17番12号", "url": "https://www.kaigokensaku.mhlw.go.jp/20/index.php?action_kouhyou_detail_004_kani=true&JigyosyoCd=2070203423-00&ServiceCd=331&Type=search", "url2": "http://www.cedar-web.com" }, "geometry": { "type": "Point", "coordinates": [ 137.975604400000066, 36.2112085 ] } },
{ "type": "Feature", "properties": { "内容": "セントラル・ビオス【特定施設入居者生活介護（有料老人ホーム）】長野県松本市大手２丁目９－２３", "url": "https://www.kaigokensaku.mhlw.go.jp/20/index.php?action_kouhyou_detail_004_kani=true&JigyosyoCd=2070201740-00&ServiceCd=331&Type=search", "url2": "http://www.central-bios.jp" }, "geometry": { "type": "Point", "coordinates": [ 137.966387599999962, 36.2366185 ] } },
{ "type": "Feature", "properties": { "内容": "介護付有料老人ホーム　エールコート咲楽【特定施設入居者生活介護（有料老人ホーム）】長野県松本市大字今井　６９８８－１", "url": "https://www.kaigokensaku.mhlw.go.jp/20/index.php?action_kouhyou_detail_004_kani=true&JigyosyoCd=2070201591-00&ServiceCd=331&Type=search", "url2": "http://www.yc-sakura.com" }, "geometry": { "type": "Point", "coordinates": [ 137.926123100000041, 36.1772334 ] } },
{ "type": "Feature", "properties": { "内容": "ウィズ村井【特定施設入居者生活介護（有料老人ホーム）】長野県松本市村井町北1-9-78", "url": "https://www.kaigokensaku.mhlw.go.jp/20/index.php?action_kouhyou_detail_004_kani=true&JigyosyoCd=2070202417-00&ServiceCd=331&Type=search", "url2": "https://socialnetwork.co.jp/nursinghomes/withmurai" }, "geometry": { "type": "Point", "coordinates": [ 137.962128799999959, 36.1840893 ] } },
{ "type": "Feature", "properties": { "内容": "赤いりんご【特定施設入居者生活介護（有料老人ホーム）】長野県松本市梓川梓1645-1", "url": "https://www.kaigokensaku.mhlw.go.jp/20/index.php?action_kouhyou_detail_004_kani=true&JigyosyoCd=2070202623-00&ServiceCd=331&Type=search", "url2": "http://www.azusa-clinic.jp/" }, "geometry": { "type": "Point", "coordinates": [ 137.8668626, 36.2225863 ] } },
{ "type": "Feature", "properties": { "内容": "健康寿命延伸ホームたのしや上土【特定施設入居者生活介護（有料老人ホーム）】長野県松本市大手４丁目３番１４号", "url": "https://www.kaigokensaku.mhlw.go.jp/20/index.php?action_kouhyou_detail_004_kani=true&JigyosyoCd=2070203456-00&ServiceCd=331&Type=search", "url2": "http://tanoshiya.co.jp/" }, "geometry": { "type": "Point", "coordinates": [ 137.972139800000036, 36.235088500000018 ] } },
{ "type": "Feature", "properties": { "内容": "介護付き有料老人ホームむつみの郷岡田【特定施設入居者生活介護（有料老人ホーム）】長野県松本市岡田松岡310－2むつみの郷岡田", "url": "https://www.kaigokensaku.mhlw.go.jp/20/index.php?action_kouhyou_detail_004_kani=true&JigyosyoCd=2070203035-00&ServiceCd=331&Type=search", "url2": "http://hot-h.net/okada.html" }, "geometry": { "type": "Point", "coordinates": [ 137.9723497, 36.2612878 ] } },
{ "type": "Feature", "properties": { "内容": "やすら木の家　しろのにし【特定施設入居者生活介護（有料老人ホーム）】長野県松本市城西1-4-5", "url": "https://www.kaigokensaku.mhlw.go.jp/20/index.php?action_kouhyou_detail_004_kani=true&JigyosyoCd=2070203126-00&ServiceCd=331&Type=search", "url2": "http://fuji-miya.co.jp/" }, "geometry": { "type": "Point", "coordinates": [ 137.963821401188625, 36.238938298558885 ] } },
{ "type": "Feature", "properties": { "内容": "オーチャード開智【特定施設入居者生活介護（有料老人ホーム）】長野県松本市開智二丁目3-50", "url": "https://www.kaigokensaku.mhlw.go.jp/20/index.php?action_kouhyou_detail_004_kani=true&JigyosyoCd=2070203407-00&ServiceCd=331&Type=search", "url2": "https://kaichi.orchard-care.co.jp/" }, "geometry": { "type": "Point", "coordinates": [ 137.970431400000052, 36.2418236 ] } },
{ "type": "Feature", "properties": { "内容": "ケアライフ古里【特定施設入居者生活介護（有料老人ホーム）】長野県上田市古里９１４-６ケアライフ古里", "url": "https://www.kaigokensaku.mhlw.go.jp/20/index.php?action_kouhyou_detail_004_kani=true&JigyosyoCd=2070301185-00&ServiceCd=331&Type=search", "url2": "htto://www.fb-kaigo.co.jp" }, "geometry": { "type": "Point", "coordinates": [ 138.283289200000013, 36.392246 ] } },
{ "type": "Feature", "properties": { "内容": "ウェルシニアホーム【特定施設入居者生活介護（有料老人ホーム）】長野県上田市古里92－3", "url": "https://www.kaigokensaku.mhlw.go.jp/20/index.php?action_kouhyou_detail_004_kani=true&JigyosyoCd=2070302209-00&ServiceCd=331&Type=search", "url2": "https://www.wellseniorhome.com/" }, "geometry": { "type": "Point", "coordinates": [ 138.284438120824433, 36.399402180726703 ] } },
{ "type": "Feature", "properties": { "内容": "ラ・ナシカうえだ【特定施設入居者生活介護（有料老人ホーム）】長野県上田市神畑２１７番地７", "url": "https://www.kaigokensaku.mhlw.go.jp/20/index.php?action_kouhyou_detail_004_kani=true&JigyosyoCd=2070301631-00&ServiceCd=331&Type=search", "url2": "https://www.cedar-group.co.jp" }, "geometry": { "type": "Point", "coordinates": [ 138.211820200000034, 36.390143 ] } },
{ "type": "Feature", "properties": { "内容": "うえだみなみ敬老園【特定施設入居者生活介護（有料老人ホーム）】長野県上田市常田１丁目４-１２", "url": "https://www.kaigokensaku.mhlw.go.jp/20/index.php?action_kouhyou_detail_004_kani=true&JigyosyoCd=2070301201-00&ServiceCd=331&Type=search", "url2": "http://www.keiroen.or.jp" }, "geometry": { "type": "Point", "coordinates": [ 138.252450299999964, 36.3925707 ] } },
{ "type": "Feature", "properties": { "内容": "慎【特定施設入居者生活介護（有料老人ホーム）】長野県上田市神畑２６０－１", "url": "https://www.kaigokensaku.mhlw.go.jp/20/index.php?action_kouhyou_detail_004_kani=true&JigyosyoCd=2070302381-00&ServiceCd=331&Type=search", "url2": "https://www.tutushimi.com/" }, "geometry": { "type": "Point", "coordinates": [ 138.212213100000014, 36.388653 ] } },
{ "type": "Feature", "properties": { "内容": "介護付き有料老人ホーム　パストラルうえだはら【特定施設入居者生活介護（有料老人ホーム）】長野県上田市上田原1053-1", "url": "https://www.kaigokensaku.mhlw.go.jp/20/index.php?action_kouhyou_detail_004_kani=true&JigyosyoCd=2070301839-00&ServiceCd=331&Type=search", "url2": "http://www.keiroen.or.jp" }, "geometry": { "type": "Point", "coordinates": [ 138.228607799999963, 36.3879545 ] } },
{ "type": "Feature", "properties": { "内容": "ハッピーシニアリビング上田【特定施設入居者生活介護（有料老人ホーム）】長野県材木町２－１４－６３", "url": "https://www.kaigokensaku.mhlw.go.jp/20/index.php?action_kouhyou_detail_004_kani=true&JigyosyoCd=2070302415-00&ServiceCd=331&Type=search", "url2": "http://archms.com" }, "geometry": { "type": "Point", "coordinates": [ 138.269853899999987, 36.3936919 ] } },
{ "type": "Feature", "properties": { "内容": "介護付き有料老人ホーム　まるこ敬老園【特定施設入居者生活介護（有料老人ホーム）】長野県上田市中丸子1623番地11", "url": "https://www.kaigokensaku.mhlw.go.jp/20/index.php?action_kouhyou_detail_004_kani=true&JigyosyoCd=2070301995-00&ServiceCd=331&Type=search", "url2": "http://www.keiroen.or.jp/senior/html/maruko.html" }, "geometry": { "type": "Point", "coordinates": [ 138.269703899999968, 36.336181 ] } },
{ "type": "Feature", "properties": { "内容": "特定施設入居者生活介護アルカディア【特定施設入居者生活介護（有料老人ホーム）】長野県上田市保野710番地", "url": "https://www.kaigokensaku.mhlw.go.jp/20/index.php?action_kouhyou_detail_004_kani=true&JigyosyoCd=2070302365-00&ServiceCd=331&Type=search", "url2": "http://ww.koujin-kai.or.jp" }, "geometry": { "type": "Point", "coordinates": [ 138.1918971, 36.3748407 ] } },
{ "type": "Feature", "properties": { "内容": "ライズ上田中央【特定施設入居者生活介護（有料老人ホーム）】長野県上田市中央東1番17号", "url": "https://www.kaigokensaku.mhlw.go.jp/20/index.php?action_kouhyou_detail_004_kani=true&JigyosyoCd=2070301714-00&ServiceCd=331&Type=search", "url2": "http://rise-ms.co.jp" }, "geometry": { "type": "Point", "coordinates": [ 138.263309899999967, 36.4020532 ] } },
{ "type": "Feature", "properties": { "内容": "社会福祉法人　共立福祉会　ケアハウス高尾【特定施設入居者生活介護（有料老人ホーム）】川岸上４－３－７ケアハウス高尾", "url": "https://www.kaigokensaku.mhlw.go.jp/20/index.php?action_kouhyou_detail_004_kani=true&JigyosyoCd=2070400243-00&ServiceCd=331&Type=search", "url2": "http://www.lcv/ne/jp/~ghtakao/" }, "geometry": { "type": "Point", "coordinates": [ 138.023639300000013, 36.0540488 ] } },
{ "type": "Feature", "properties": { "内容": "さわやか絹の郷信州おかや【特定施設入居者生活介護（有料老人ホーム）】長野県岡谷市郷田2丁目1番24号", "url": "https://www.kaigokensaku.mhlw.go.jp/20/index.php?action_kouhyou_detail_004_kani=true&JigyosyoCd=2070400557-00&ServiceCd=331&Type=search", "url2": "http://www.kinu-sato.jp/" }, "geometry": { "type": "Point", "coordinates": [ 138.049119799999971, 36.0731496 ] } },
{ "type": "Feature", "properties": { "内容": "ツクイ・サンシャイン岡谷【特定施設入居者生活介護（有料老人ホーム）】長野県岡谷市本町2-4-10", "url": "https://www.kaigokensaku.mhlw.go.jp/20/index.php?action_kouhyou_detail_004_kani=true&JigyosyoCd=2070400375-00&ServiceCd=331&Type=search", "url2": "http://www.tsukui-sunshine.net/home/care/" }, "geometry": { "type": "Point", "coordinates": [ 138.045306599999947, 36.060670500000015 ] } },
{ "type": "Feature", "properties": { "内容": "特定施設入居者生活介護信濃寮【特定施設入居者生活介護（有料老人ホーム）】長野県飯田市鼎一色５５１番地", "url": "https://www.kaigokensaku.mhlw.go.jp/20/index.php?action_kouhyou_detail_004_kani=true&JigyosyoCd=2070501255-00&ServiceCd=331&Type=search", "url2": "http://kayagakikai.or.jp/" }, "geometry": { "type": "Point", "coordinates": [ 137.81924760000004, 35.5021709 ] } },
{ "type": "Feature", "properties": { "内容": "あんきの森【特定施設入居者生活介護（有料老人ホーム）】長野県飯田市毛賀1139-1", "url": "https://www.kaigokensaku.mhlw.go.jp/20/index.php?action_kouhyou_detail_004_kani=true&JigyosyoCd=2070501149-00&ServiceCd=331&Type=search", "url2": "http://www.heartcareiida.com" }, "geometry": { "type": "Point", "coordinates": [ 137.834066099999973, 35.4913226 ] } },
{ "type": "Feature", "properties": { "内容": "ウィズ諏訪【特定施設入居者生活介護（有料老人ホーム）】長野県諏訪市中洲5853-3", "url": "https://www.kaigokensaku.mhlw.go.jp/20/index.php?action_kouhyou_detail_004_kani=true&JigyosyoCd=2070600586-00&ServiceCd=331&Type=search", "url2": "http://www.with-net-5.co.jp" }, "geometry": { "type": "Point", "coordinates": [ 138.1120822, 36.0274403 ] } },
{ "type": "Feature", "properties": { "内容": "介護付有料老人ホーム　すばらしき仲間たち【特定施設入居者生活介護（有料老人ホーム）】長野県諏訪市大字湖南４８９４番地１介護付有料老人ホームすばらしき仲間たち", "url": "https://www.kaigokensaku.mhlw.go.jp/20/index.php?action_kouhyou_detail_004_kani=true&JigyosyoCd=2070601063-00&ServiceCd=331&Type=search", "url2": "https://www.seibonokai.com" }, "geometry": { "type": "Point", "coordinates": [ 138.099564344844026, 36.005954381850806 ] } },
{ "type": "Feature", "properties": { "内容": "介護付有料老人ホーム　愛光苑すざか【特定施設入居者生活介護（有料老人ホーム）】長野県須坂市上町18-1", "url": "https://www.kaigokensaku.mhlw.go.jp/20/index.php?action_kouhyou_detail_004_kani=true&JigyosyoCd=2070700675-00&ServiceCd=331&Type=search", "url2": "http://www.miraisai.co.jp" }, "geometry": { "type": "Point", "coordinates": [ 138.3154762, 36.652882 ] } },
{ "type": "Feature", "properties": { "内容": "特定有料老人ホームそよ風【特定施設入居者生活介護（有料老人ホーム）】長野県須坂市大字日滝字寺窪2878-1", "url": "https://www.kaigokensaku.mhlw.go.jp/20/index.php?action_kouhyou_detail_004_kani=true&JigyosyoCd=2070700790-00&ServiceCd=331&Type=search", "url2": "https://suzaka-yasuraginosono.com/index" }, "geometry": { "type": "Point", "coordinates": [ 138.3288140023881, 36.670283196063984 ] } },
{ "type": "Feature", "properties": { "内容": "ことぶきの家御影【特定施設入居者生活介護（有料老人ホーム）】長野県小諸市御影新田字池の上2257-1", "url": "https://www.kaigokensaku.mhlw.go.jp/20/index.php?action_kouhyou_detail_004_kani=true&JigyosyoCd=2070800673-00&ServiceCd=331&Type=search", "url2": "http://www.kotobuki-group.jp" }, "geometry": { "type": "Point", "coordinates": [ 138.470077523864802, 36.300979574544897 ] } },
{ "type": "Feature", "properties": { "内容": "ケアホームわだ【特定施設入居者生活介護（有料老人ホーム）】長野県小諸市和田215-2", "url": "https://www.kaigokensaku.mhlw.go.jp/20/index.php?action_kouhyou_detail_004_kani=true&JigyosyoCd=2070800814-00&ServiceCd=331&Type=search", "url2": "https://www.nozomi-g.co.jp" }, "geometry": { "type": "Point", "coordinates": [ 138.460781700000013, 36.289827 ] } },
{ "type": "Feature", "properties": { "内容": "あすか小諸【特定施設入居者生活介護（有料老人ホーム）】長野県小諸市相生町１－３－３", "url": "https://www.kaigokensaku.mhlw.go.jp/20/index.php?action_kouhyou_detail_004_kani=true&JigyosyoCd=2070800558-00&ServiceCd=331&Type=search", "url2": "http://www.tbcss.co.jp/asuka_komoro/" }, "geometry": { "type": "Point", "coordinates": [ 138.42277480000007, 36.3270079 ] } },
{ "type": "Feature", "properties": { "内容": "介護付き有料老人ホーム愛光苑いな【特定施設入居者生活介護（有料老人ホーム）】長野県伊那市東春近10284-1", "url": "https://www.kaigokensaku.mhlw.go.jp/20/index.php?action_kouhyou_detail_004_kani=true&JigyosyoCd=2070900317-00&ServiceCd=331&Type=search", "url2": "https://miraikaigo.co.jp/" }, "geometry": { "type": "Point", "coordinates": [ 137.968920700000012, 35.8186018 ] } },
{ "type": "Feature", "properties": { "内容": "ラ・ナシカ　ちの【特定施設入居者生活介護（有料老人ホーム）】長野県茅野市塚原２-７-２９", "url": "https://www.kaigokensaku.mhlw.go.jp/20/index.php?action_kouhyou_detail_004_kani=true&JigyosyoCd=2071400713-00&ServiceCd=331&Type=search", "url2": "http://www.cedar-group.co.jp" }, "geometry": { "type": "Point", "coordinates": [ 138.157065399999965, 35.9951539 ] } },
{ "type": "Feature", "properties": { "内容": "ウィズ茅野【特定施設入居者生活介護（有料老人ホーム）】長野県茅野市宮川11005", "url": "https://www.kaigokensaku.mhlw.go.jp/20/index.php?action_kouhyou_detail_004_kani=true&JigyosyoCd=2071400820-00&ServiceCd=331&Type=search", "url2": "http://www.with-net--5.co.jp" }, "geometry": { "type": "Point", "coordinates": [ 138.169345282261702, 35.986484208507008 ] } },
{ "type": "Feature", "properties": { "内容": "ケアホーム豊平【特定施設入居者生活介護（有料老人ホーム）】長野県茅野市豊平字前田２５５２", "url": "https://www.kaigokensaku.mhlw.go.jp/20/index.php?action_kouhyou_detail_004_kani=true&JigyosyoCd=2071400614-00&ServiceCd=331&Type=search", "url2": "http://www.carehome.co.jp/" }, "geometry": { "type": "Point", "coordinates": [ 138.176524299999983, 36.0043506 ] } },
{ "type": "Feature", "properties": { "内容": "桜ガーデン茅野【特定施設入居者生活介護（有料老人ホーム）】長野県茅野市宮川１１４００番地１２桜ガーデン茅野", "url": "https://www.kaigokensaku.mhlw.go.jp/20/index.php?action_kouhyou_detail_004_kani=true&JigyosyoCd=2071400762-00&ServiceCd=331&Type=search", "url2": "http://www.ecotown-shinshu.co.jp" }, "geometry": { "type": "Point", "coordinates": [ 138.161356866270467, 35.989931618890125 ] } },
{ "type": "Feature", "properties": { "内容": "ウィズ塩尻【特定施設入居者生活介護（有料老人ホーム）】長野県塩尻市広丘高出2007-5", "url": "https://www.kaigokensaku.mhlw.go.jp/20/index.php?action_kouhyou_detail_004_kani=true&JigyosyoCd=2071500728-00&ServiceCd=331&Type=search", "url2": "https://socialnetwork.co.jp" }, "geometry": { "type": "Point", "coordinates": [ 137.959883399999967, 36.1341035 ] } },
{ "type": "Feature", "properties": { "内容": "有料老人ホームせせらぎ【特定施設入居者生活介護（有料老人ホーム）】長野県塩尻市宗賀１２９８－９２", "url": "https://www.kaigokensaku.mhlw.go.jp/20/index.php?action_kouhyou_detail_004_kani=true&JigyosyoCd=2071500660-00&ServiceCd=331&Type=search", "url2": "http://www.heisei-kai.jp/" }, "geometry": { "type": "Point", "coordinates": [ 137.931646352114853, 36.112272810659753 ] } },
{ "type": "Feature", "properties": { "内容": "むつみの郷　塩尻【特定施設入居者生活介護（有料老人ホーム）】長野県塩尻市大門一番町９－１５", "url": "https://www.kaigokensaku.mhlw.go.jp/20/index.php?action_kouhyou_detail_004_kani=true&JigyosyoCd=2071500975-00&ServiceCd=331&Type=search", "url2": "https://hot-h.net/facility/mutsumi-shiojiri/" }, "geometry": { "type": "Point", "coordinates": [ 137.954796499999986, 36.1116593 ] } },
{ "type": "Feature", "properties": { "内容": "介護型有料老人ホームみずほの里【特定施設入居者生活介護（有料老人ホーム）】長野県塩尻市桟敷４１７－２", "url": "https://www.kaigokensaku.mhlw.go.jp/20/index.php?action_kouhyou_detail_004_kani=true&JigyosyoCd=2071500843-00&ServiceCd=331&Type=search", "url2": "http://www18.ocn.ne.jp/~azumino1/kyouritsufukushikai/" }, "geometry": { "type": "Point", "coordinates": [ 137.967922700000031, 36.1142006 ] } },
{ "type": "Feature", "properties": { "内容": "介護付有料老人ホームあい愛塩尻【特定施設入居者生活介護（有料老人ホーム）】長野県塩尻市大字洗馬字芦ノ田２５１５－１", "url": "https://www.kaigokensaku.mhlw.go.jp/20/index.php?action_kouhyou_detail_004_kani=true&JigyosyoCd=2071500850-00&ServiceCd=331&Type=search", "url2": "https://www.aiaicare.jp/" }, "geometry": { "type": "Point", "coordinates": [ 137.911039684794531, 36.11359414891492 ] } },
{ "type": "Feature", "properties": { "内容": "介護付き有料老人ホームケアライフ聖【特定施設入居者生活介護（有料老人ホーム）】長野県佐久市長土呂174-1", "url": "https://www.kaigokensaku.mhlw.go.jp/20/index.php?action_kouhyou_detail_004_kani=true&JigyosyoCd=2071701920-00&ServiceCd=331&Type=search", "url2": "http://fb-kaigo.co.jp" }, "geometry": { "type": "Point", "coordinates": [ 138.475882399999989, 36.2877993 ] } },
{ "type": "Feature", "properties": { "内容": "ウェルハウスのぞみサンピア【特定施設入居者生活介護（有料老人ホーム）】長野県佐久市根岸3203-2ウェルハウスのぞみサンピア", "url": "https://www.kaigokensaku.mhlw.go.jp/20/index.php?action_kouhyou_detail_004_kani=true&JigyosyoCd=2071701771-00&ServiceCd=331&Type=search", "url2": "https://nozomi-g.co.jp/" }, "geometry": { "type": "Point", "coordinates": [ 138.416366399999987, 36.24042 ] } },
{ "type": "Feature", "properties": { "内容": "介護付き有料老人ホームケアライフ礎【特定施設入居者生活介護（有料老人ホーム）】長野県佐久市長土呂908-1", "url": "https://www.kaigokensaku.mhlw.go.jp/20/index.php?action_kouhyou_detail_004_kani=true&JigyosyoCd=2071701763-00&ServiceCd=331&Type=search", "url2": "http://fb-kaigo.co.jp/" }, "geometry": { "type": "Point", "coordinates": [ 138.4699879, 36.2907753 ] } },
{ "type": "Feature", "properties": { "内容": "あっとほーむ上山田【特定施設入居者生活介護（有料老人ホーム）】長野県千曲市上山田温泉3-34-3", "url": "https://www.kaigokensaku.mhlw.go.jp/20/index.php?action_kouhyou_detail_004_kani=true&JigyosyoCd=2071800425-00&ServiceCd=331&Type=search", "url2": "http://naganojukoukai.com" }, "geometry": { "type": "Point", "coordinates": [ 138.1457762, 36.4763867 ] } },
{ "type": "Feature", "properties": { "内容": "ヒルデモア信州白雲館【特定施設入居者生活介護（有料老人ホーム）】長野県千曲市戸倉１７９３－１", "url": "https://www.kaigokensaku.mhlw.go.jp/20/index.php?action_kouhyou_detail_004_kani=true&JigyosyoCd=2071800250-00&ServiceCd=331&Type=search", "url2": "https://www.tnbls.co.jp/hyldemoer/home/shinshu/" }, "geometry": { "type": "Point", "coordinates": [ 138.151584299999968, 36.4902634 ] } },
{ "type": "Feature", "properties": { "内容": "ウィズ安曇野【特定施設入居者生活介護（有料老人ホーム）】長野県安曇野市穂高柏原4565-1サービス付き高齢者向け住宅　ウィズ安曇野", "url": "https://www.kaigokensaku.mhlw.go.jp/20/index.php?action_kouhyou_detail_004_kani=true&JigyosyoCd=2074000700-00&ServiceCd=331&Type=search", "url2": "https://socialnetwork.co.jp/" }, "geometry": { "type": "Point", "coordinates": [ 137.873991582525605, 36.310580451797321 ] } },
{ "type": "Feature", "properties": { "内容": "ウィズ豊科【特定施設入居者生活介護（有料老人ホーム）】長野県安曇野市豊科５２８８－３", "url": "https://www.kaigokensaku.mhlw.go.jp/20/index.php?action_kouhyou_detail_004_kani=true&JigyosyoCd=2074000353-00&ServiceCd=331&Type=search", "url2": "https://socialnetwork.co.jp" }, "geometry": { "type": "Point", "coordinates": [ 137.897773700000016, 36.3080363 ] } },
{ "type": "Feature", "properties": { "内容": "フローレンスとよしな【特定施設入居者生活介護（有料老人ホーム）】長野県安曇野市豊科南穂高2758", "url": "https://www.kaigokensaku.mhlw.go.jp/20/index.php?action_kouhyou_detail_004_kani=true&JigyosyoCd=2074001369-00&ServiceCd=331&Type=search", "url2": null }, "geometry": { "type": "Point", "coordinates": [ 137.9087613, 36.3247704 ] } },
{ "type": "Feature", "properties": { "内容": "介護付き有料老人ホーム　むつみの郷ほたか【特定施設入居者生活介護（有料老人ホーム）】長野県安曇野市穂高北穂高２６６７―２", "url": "https://www.kaigokensaku.mhlw.go.jp/20/index.php?action_kouhyou_detail_004_kani=true&JigyosyoCd=2074000593-00&ServiceCd=331&Type=search", "url2": "http://hot-h.net/" }, "geometry": { "type": "Point", "coordinates": [ 137.876313399999958, 36.3672258 ] } },
{ "type": "Feature", "properties": { "内容": "介護付有料老人ホーム　カーサ・デ・ソル諏訪湖【特定施設入居者生活介護（有料老人ホーム）】長野県諏訪郡下諏訪町東赤砂10802", "url": "https://www.kaigokensaku.mhlw.go.jp/20/index.php?action_kouhyou_detail_004_kani=true&JigyosyoCd=2072300631-00&ServiceCd=331&Type=search", "url2": "https://casadelsol.jp/" }, "geometry": { "type": "Point", "coordinates": [ 138.079526169836413, 36.061983813743922 ] } },
{ "type": "Feature", "properties": { "内容": "介護付き有料老人ホーム　りんごの樹【特定施設入居者生活介護（有料老人ホーム）】長野県上伊那郡箕輪町中箕輪１４５０番地３", "url": "https://www.kaigokensaku.mhlw.go.jp/20/index.php?action_kouhyou_detail_004_kani=true&JigyosyoCd=2072401637-00&ServiceCd=331&Type=search", "url2": "https://alps-care.co.jp" }, "geometry": { "type": "Point", "coordinates": [ 137.9744974, 35.9430128 ] } },
{ "type": "Feature", "properties": { "内容": "ケアセンターふれあいの里【特定施設入居者生活介護（有料老人ホーム）】長野県上伊那郡箕輪町大字中箕輪14432-1", "url": "https://www.kaigokensaku.mhlw.go.jp/20/index.php?action_kouhyou_detail_004_kani=true&JigyosyoCd=2072401017-00&ServiceCd=331&Type=search", "url2": "http://carecenter-hureainosato.com/etc/service-long.html" }, "geometry": { "type": "Point", "coordinates": [ 137.982579100000066, 35.9399543 ] } },
{ "type": "Feature", "properties": { "内容": "複合福祉施設有料老人ホームプラムの里【特定施設入居者生活介護（有料老人ホーム）】長野県上伊那郡宮田村4804-1", "url": "https://www.kaigokensaku.mhlw.go.jp/20/index.php?action_kouhyou_detail_004_kani=true&JigyosyoCd=2072401090-00&ServiceCd=331&Type=search", "url2": "http://s-sawayaka.or.jp/" }, "geometry": { "type": "Point", "coordinates": [ 137.9428292, 35.7510211 ] } },
{ "type": "Feature", "properties": { "内容": "介護付有料老人ホーム　アムールまつかわ【特定施設入居者生活介護（有料老人ホーム）】長野県下伊那郡松川町元大島3255-5", "url": "https://www.kaigokensaku.mhlw.go.jp/20/index.php?action_kouhyou_detail_004_kani=true&JigyosyoCd=2072501493-00&ServiceCd=331&Type=search", "url2": "https://www.amour.or.jp/" }, "geometry": { "type": "Point", "coordinates": [ 137.908305899999959, 35.601455 ] } }
]
}
